{
  "type": "FeatureCollection",
  "features": [
    {
      "type": "Feature",
      "properties": {
        "contour": 20.0,
        "unit": "m"
      },
      "geometry": {
        "type": "MultiLineString",
        "coordinates": [
          [
            [
              -81.565,
              30.315
            ],
            [
              -81.565,
              30.315
            ]
          ],
          [
            [
              -81.556,
              30.3
            ],
            [
              -81.565,
              30.315
            ]
          ],
          [
            [
              -81.54333333333334,
              30.3
            ],
            [
              -81.54571428571428,
              30.315
            ]
          ],
          [
            [
              -81.565,
              30.315
            ],
            [
              -81.565,
              30.315
            ]
          ],
          [
            [
              -81.55,
              30.321
            ],
            [
              -81.565,
              30.315
            ]
          ],
          [
            [
              -81.54571428571428,
              30.315
            ],
            [
              -81.55,
              30.321
            ]
          ],
          [
            [
              -81.505,
              30.33833333333333
            ],
            [
              -81.51249999999999,
              30.345
            ]
          ],
          [
            [
              -81.49642857142857,
              30.345
            ],
            [
              -81.505,
              30.33833333333333
            ]
          ],
          [
            [
              -81.61,
              30.358636363636364
            ],
            [
              -81.61166666666666,
              30.36
            ]
          ],
          [
            [
              -81.595,
              30.35625
            ],
            [
              -81.61,
              30.358636363636364
            ]
          ],
          [
            [
              -81.59333333333333,
              30.36
            ],
            [
              -81.595,
              30.35625
            ]
          ],
          [
            [
              -81.52,
              30.357
            ],
            [
              -81.52136363636363,
              30.36
            ]
          ],
          [
            [
              -81.51249999999999,
              30.345
            ],
            [
              -81.505,
              30.352999999999998
            ]
          ],
          [
            [
              -81.49642857142857,
              30.345
            ],
            [
              -81.505,
              30.352999999999998
            ]
          ],
          [
            [
              -81.61166666666666,
              30.36
            ],
            [
              -81.61,
              30.362142857142857
            ]
          ],
          [
            [
              -81.595,
              30.365
            ],
            [
              -81.61,
              30.362142857142857
            ]
          ],
          [
            [
              -81.59333333333333,
              30.36
            ],
            [
              -81.595,
              30.365
            ]
          ],
          [
            [
              -81.52136363636363,
              30.36
            ],
            [
              -81.52,
              30.361363636363635
            ]
          ],
          [
            [
              -81.51666666666667,
              30.36
            ],
            [
              -81.52,
              30.361363636363635
            ]
          ],
          [
            [
              -81.685,
              30.46375
            ],
            [
              -81.68625,
              30.465
            ]
          ],
          [
            [
              -81.68384615384616,
              30.465
            ],
            [
              -81.685,
              30.46375
            ]
          ],
          [
            [
              -81.68625,
              30.465
            ],
            [
              -81.685,
              30.466
            ]
          ],
          [
            [
              -81.68384615384616,
              30.465
            ],
            [
              -81.685,
              30.466
            ]
          ],
          [
            [
              -81.58,
              30.4675
            ],
            [
              -81.58576923076923,
              30.48
            ]
          ],
          [
            [
              -81.57558823529412,
              30.48
            ],
            [
              -81.58,
              30.4675
            ]
          ],
          [
            [
              -81.655,
              30.49058823529412
            ],
            [
              -81.6596875,
              30.495
            ]
          ],
          [
            [
              -81.64818181818183,
              30.495
            ],
            [
              -81.655,
              30.49058823529412
            ]
          ],
          [
            [
              -81.595,
              30.492
            ],
            [
              -81.598,
              30.495
            ]
          ],
          [
            [
              -81.58576923076923,
              30.48
            ],
            [
              -81.58,
              30.4875
            ]
          ],
          [
            [
              -81.57558823529412,
              30.48
            ],
            [
              -81.58,
              30.4875
            ]
          ],
          [
            [
              -81.6596875,
              30.495
            ],
            [
              -81.66,
              30.51
            ]
          ],
          [
            [
              -81.64818181818183,
              30.495
            ],
            [
              -81.64807692307693,
              30.51
            ]
          ],
          [
            [
              -81.598,
              30.495
            ],
            [
              -81.595,
              30.498333333333335
            ]
          ],
          [
            [
              -81.59071428571428,
              30.495
            ],
            [
              -81.595,
              30.498333333333335
            ]
          ]
        ]
      }
    }
  ],
  "attribution": "Derived from build-time DEM"
}
