{
  "type": "FeatureCollection",
  "features": [
    {
      "type": "Feature",
      "properties": {
        "contour": 20.0,
        "unit": "m"
      },
      "geometry": {
        "type": "MultiLineString",
        "coordinates": [
          [
            [
              -74.005,
              40.62090909090909
            ],
            [
              -74.02,
              40.619166666666665
            ]
          ],
          [
            [
              -73.99,
              40.625
            ],
            [
              -74.005,
              40.62090909090909
            ]
          ],
          [
            [
              -73.99,
              40.625
            ],
            [
              -73.99,
              40.625
            ]
          ],
          [
            [
              -73.99,
              40.625
            ],
            [
              -73.975,
              40.635
            ]
          ],
          [
            [
              -73.97166666666666,
              40.64
            ],
            [
              -73.975,
              40.635
            ]
          ],
          [
            [
              -74.005,
              40.649
            ],
            [
              -74.02,
              40.644285714285715
            ]
          ],
          [
            [
              -74.00147058823529,
              40.655
            ],
            [
              -74.005,
              40.649
            ]
          ],
          [
            [
              -73.97166666666666,
              40.64
            ],
            [
              -73.96,
              40.64954545454545
            ]
          ],
          [
            [
              -73.945,
              40.655
            ],
            [
              -73.96,
              40.64954545454545
            ]
          ],
          [
            [
              -73.945,
              40.655
            ],
            [
              -73.945,
              40.655
            ]
          ],
          [
            [
              -74.00147058823529,
              40.655
            ],
            [
              -73.99,
              40.66744680851064
            ]
          ],
          [
            [
              -73.98625,
              40.67
            ],
            [
              -73.99,
              40.66744680851064
            ]
          ],
          [
            [
              -73.945,
              40.655
            ],
            [
              -73.93,
              40.6586
            ]
          ],
          [
            [
              -73.915,
              40.668125
            ],
            [
              -73.93,
              40.6586
            ]
          ],
          [
            [
              -73.91285714285715,
              40.67
            ],
            [
              -73.915,
              40.668125
            ]
          ],
          [
            [
              -73.98625,
              40.67
            ],
            [
              -73.98124999999999,
              40.685
            ]
          ],
          [
            [
              -73.915,
              40.675000000000004
            ],
            [
              -73.921,
              40.685
            ]
          ],
          [
            [
              -73.91285714285715,
              40.67
            ],
            [
              -73.9,
              40.67346153846154
            ]
          ],
          [
            [
              -73.885,
              40.67613636363637
            ],
            [
              -73.9,
              40.67346153846154
            ]
          ],
          [
            [
              -73.87416666666667,
              40.685
            ],
            [
              -73.885,
              40.67613636363637
            ]
          ],
          [
            [
              -73.99,
              40.7
            ],
            [
              -73.99,
              40.7
            ]
          ],
          [
            [
              -73.98124999999999,
              40.685
            ],
            [
              -73.975,
              40.688125
            ]
          ],
          [
            [
              -73.96,
              40.690625000000004
            ],
            [
              -73.975,
              40.688125
            ]
          ],
          [
            [
              -73.945,
              40.68714285714286
            ],
            [
              -73.96,
              40.690625000000004
            ]
          ],
          [
            [
              -73.93,
              40.7
            ],
            [
              -73.945,
              40.68714285714286
            ]
          ],
          [
            [
              -73.921,
              40.685
            ],
            [
              -73.915,
              40.695
            ]
          ],
          [
            [
              -73.91363636363637,
              40.685
            ],
            [
              -73.915,
              40.695
            ]
          ],
          [
            [
              -73.87416666666667,
              40.685
            ],
            [
              -73.87,
              40.68840909090909
            ]
          ],
          [
            [
              -73.855,
              40.68744186046512
            ],
            [
              -73.87,
              40.68840909090909
            ]
          ],
          [
            [
              -73.84,
              40.694
            ],
            [
              -73.855,
              40.68744186046512
            ]
          ],
          [
            [
              -73.825,
              40.694
            ],
            [
              -73.84,
              40.694
            ]
          ],
          [
            [
              -74.005,
              40.70666666666667
            ],
            [
              -74.01333333333334,
              40.715
            ]
          ],
          [
            [
              -73.99,
              40.7
            ],
            [
              -74.005,
              40.70666666666667
            ]
          ],
          [
            [
              -73.99,
              40.7
            ],
            [
              -73.98823529411764,
              40.715
            ]
          ],
          [
            [
              -73.93,
              40.7
            ],
            [
              -73.93,
              40.7
            ]
          ],
          [
            [
              -73.915,
              40.70214285714286
            ],
            [
              -73.93,
              40.7
            ]
          ],
          [
            [
              -73.91000000000001,
              40.715
            ],
            [
              -73.915,
              40.70214285714286
            ]
          ],
          [
            [
              -73.855,
              40.7135
            ],
            [
              -73.85928571428572,
              40.715
            ]
          ],
          [
            [
              -73.85071428571429,
              40.715
            ],
            [
              -73.855,
              40.7135
            ]
          ],
          [
            [
              -73.825,
              40.706
            ],
            [
              -73.82846153846154,
              40.715
            ]
          ],
          [
            [
              -74.01333333333334,
              40.715
            ],
            [
              -74.005,
              40.72839285714286
            ]
          ],
          [
            [
              -74.00125,
              40.73
            ],
            [
              -74.005,
              40.72839285714286
            ]
          ],
          [
            [
              -73.98823529411764,
              40.715
            ],
            [
              -73.98325,
              40.73
            ]
          ],
          [
            [
              -73.91000000000001,
              40.715
            ],
            [
              -73.90789473684211,
              40.73
            ]
          ],
          [
            [
              -73.87,
              40.72382352941177
            ],
            [
              -73.8775,
              40.73
            ]
          ],
          [
            [
              -73.85928571428572,
              40.715
            ],
            [
              -73.855,
              40.72
            ]
          ],
          [
            [
              -73.85071428571429,
              40.715
            ],
            [
              -73.84,
              40.72017241379311
            ]
          ],
          [
            [
              -73.82846153846154,
              40.715
            ],
            [
              -73.825,
              40.719500000000004
            ]
          ],
          [
            [
              -74.00125,
              40.73
            ],
            [
              -73.99674999999999,
              40.745
            ]
          ],
          [
            [
              -73.98325,
              40.73
            ],
            [
              -73.9828947368421,
              40.745
            ]
          ],
          [
            [
              -73.93,
              40.741249999999994
            ],
            [
              -73.932,
              40.745
            ]
          ],
          [
            [
              -73.915,
              40.73710526315789
            ],
            [
              -73.93,
              40.741249999999994
            ]
          ],
          [
            [
              -73.90789473684211,
              40.73
            ],
            [
              -73.915,
              40.73710526315789
            ]
          ],
          [
            [
              -73.8775,
              40.73
            ],
            [
              -73.87321428571428,
              40.745
            ]
          ],
          [
            [
              -73.863,
              40.73
            ],
            [
              -73.855,
              40.738571428571426
            ]
          ],
          [
            [
              -73.85055555555556,
              40.73
            ],
            [
              -73.855,
              40.738571428571426
            ]
          ],
          [
            [
              -73.82903846153846,
              40.73
            ],
            [
              -73.82636363636364,
              40.745
            ]
          ],
          [
            [
              -73.99674999999999,
              40.745
            ],
            [
              -73.99195652173913,
              40.76
            ]
          ],
          [
            [
              -73.9828947368421,
              40.745
            ],
            [
              -73.975,
              40.746648351648346
            ]
          ],
          [
            [
              -73.96,
              40.75269230769231
            ],
            [
              -73.975,
              40.746648351648346
            ]
          ],
          [
            [
              -73.95208333333332,
              40.76
            ],
            [
              -73.96,
              40.75269230769231
            ]
          ],
          [
            [
              -73.932,
              40.745
            ],
            [
              -73.93,
              40.74833333333333
            ]
          ],
          [
            [
              -73.9195,
              40.76
            ],
            [
              -73.93,
              40.74833333333333
            ]
          ],
          [
            [
              -73.9,
              40.745
            ],
            [
              -73.91050000000001,
              40.76
            ]
          ],
          [
            [
              -73.885,
              40.75470588235294
            ],
            [
              -73.9,
              40.745
            ]
          ],
          [
            [
              -73.87321428571428,
              40.745
            ],
            [
              -73.87,
              40.76
            ]
          ],
          [
            [
              -73.87,
              40.76
            ],
            [
              -73.87,
              40.76
            ]
          ],
          [
            [
              -73.82636363636364,
              40.745
            ],
            [
              -73.82857142857144,
              40.76
            ]
          ]
        ]
      }
    },
    {
      "type": "Feature",
      "properties": {
        "contour": 40.0,
        "unit": "m"
      },
      "geometry": {
        "type": "MultiLineString",
        "coordinates": [
          [
            [
              -73.99,
              40.64636363636364
            ],
            [
              -73.99558823529411,
              40.655
            ]
          ],
          [
            [
              -73.97704545454545,
              40.655
            ],
            [
              -73.99,
              40.64636363636364
            ]
          ],
          [
            [
              -73.99558823529411,
              40.655
            ],
            [
              -73.99,
              40.66106382978724
            ]
          ],
          [
            [
              -73.97704545454545,
              40.655
            ],
            [
              -73.975,
              40.66142857142857
            ]
          ],
          [
            [
              -73.96,
              40.663000000000004
            ],
            [
              -73.975,
              40.66142857142857
            ]
          ],
          [
            [
              -73.95086956521739,
              40.67
            ],
            [
              -73.96,
              40.663000000000004
            ]
          ],
          [
            [
              -73.97687499999999,
              40.67
            ],
            [
              -73.975,
              40.673157894736846
            ]
          ],
          [
            [
              -73.96,
              40.6775
            ],
            [
              -73.975,
              40.673157894736846
            ]
          ],
          [
            [
              -73.95086956521739,
              40.67
            ],
            [
              -73.96,
              40.6775
            ]
          ],
          [
            [
              -73.9,
              40.685
            ],
            [
              -73.9,
              40.685
            ]
          ],
          [
            [
              -73.9,
              40.685
            ],
            [
              -73.9,
              40.685
            ]
          ],
          [
            [
              -73.9,
              40.685
            ],
            [
              -73.9,
              40.685
            ]
          ],
          [
            [
              -73.9,
              40.685
            ],
            [
              -73.9,
              40.685
            ]
          ],
          [
            [
              -73.855,
              40.69441860465117
            ],
            [
              -73.86763157894737,
              40.7
            ]
          ],
          [
            [
              -73.8475,
              40.7
            ],
            [
              -73.855,
              40.69441860465117
            ]
          ],
          [
            [
              -74.005,
              40.71333333333334
            ],
            [
              -74.00666666666666,
              40.715
            ]
          ],
          [
            [
              -74.00173913043477,
              40.715
            ],
            [
              -74.005,
              40.71333333333334
            ]
          ],
          [
            [
              -73.86763157894737,
              40.7
            ],
            [
              -73.855,
              40.706
            ]
          ],
          [
            [
              -73.8475,
              40.7
            ],
            [
              -73.855,
              40.706
            ]
          ],
          [
            [
              -74.00666666666666,
              40.715
            ],
            [
              -74.005,
              40.71767857142857
            ]
          ],
          [
            [
              -74.00173913043477,
              40.715
            ],
            [
              -74.005,
              40.71767857142857
            ]
          ],
          [
            [
              -73.975,
              40.74994505494505
            ],
            [
              -73.98673076923076,
              40.76
            ]
          ],
          [
            [
              -73.96024193548386,
              40.76
            ],
            [
              -73.975,
              40.74994505494505
            ]
          ]
        ]
      }
    },
    {
      "type": "Feature",
      "properties": {
        "contour": 60.0,
        "unit": "m"
      },
      "geometry": {
        "type": "MultiLineString",
        "coordinates": [
          [
            [
              -73.975,
              40.75324175824176
            ],
            [
              -73.9828846153846,
              40.76
            ]
          ],
          [
            [
              -73.96508064516128,
              40.76
            ],
            [
              -73.975,
              40.75324175824176
            ]
          ]
        ]
      }
    },
    {
      "type": "Feature",
      "properties": {
        "contour": 80.0,
        "unit": "m"
      },
      "geometry": {
        "type": "MultiLineString",
        "coordinates": [
          [
            [
              -73.975,
              40.75653846153846
            ],
            [
              -73.97903846153845,
              40.76
            ]
          ],
          [
            [
              -73.96991935483871,
              40.76
            ],
            [
              -73.975,
              40.75653846153846
            ]
          ]
        ]
      }
    },
    {
      "type": "Feature",
      "properties": {
        "contour": 100.0,
        "unit": "m"
      },
      "geometry": {
        "type": "MultiLineString",
        "coordinates": [
          [
            [
              -73.975,
              40.75983516483516
            ],
            [
              -73.9751923076923,
              40.76
            ]
          ],
          [
            [
              -73.97475806451612,
              40.76
            ],
            [
              -73.975,
              40.75983516483516
            ]
          ]
        ]
      }
    }
  ],
  "attribution": "Derived from build-time DEM"
}
