{
  "type": "FeatureCollection",
  "features": [
    {
      "type": "Feature",
      "properties": {
        "ref": "I-10",
        "highway": "motorway"
      },
      "geometry": {
        "type": "LineString",
        "coordinates": [
          [
            -93.85,
            30.1
          ],
          [
            -95.37,
            29.76
          ],
          [
            -96.35,
            29.7
          ],
          [
            -97.4,
            29.55
          ],
          [
            -98.49,
            29.42
          ],
          [
            -99.8,
            29.7
          ],
          [
            -100.9,
            30.2
          ],
          [
            -102.88,
            30.89
          ],
          [
            -104.5,
            31.4
          ],
          [
            -106.49,
            31.76
          ],
          [
            -106.78,
            32.32
          ],
          [
            -107.8,
            32.25
          ],
          [
            -109.05,
            32.22
          ]
        ]
      }
    },
    {
      "type": "Feature",
      "properties": {
        "ref": "I-20",
        "highway": "motorway"
      },
      "geometry": {
        "type": "LineString",
        "coordinates": [
          [
            -93.9,
            32.52
          ],
          [
            -94.8,
            32.5
          ],
          [
            -96.8,
            32.78
          ],
          [
            -98.5,
            32.45
          ],
          [
            -100.0,
            32.25
          ],
          [
            -101.5,
            32.0
          ],
          [
            -102.08,
            31.99
          ],
          [
            -102.88,
            30.89
          ]
        ]
      }
    },
    {
      "type": "Feature",
      "properties": {
        "ref": "I-35",
        "highway": "motorway"
      },
      "geometry": {
        "type": "LineString",
        "coordinates": [
          [
            -99.51,
            27.51
          ],
          [
            -98.49,
            29.42
          ],
          [
            -97.74,
            30.27
          ],
          [
            -97.15,
            31.55
          ],
          [
            -97.13,
            32.75
          ],
          [
            -96.8,
            32.78
          ],
          [
            -97.15,
            33.9
          ]
        ]
      }
    },
    {
      "type": "Feature",
      "properties": {
        "ref": "I-40",
        "highway": "motorway"
      },
      "geometry": {
        "type": "LineString",
        "coordinates": [
          [
            -103.0,
            35.22
          ],
          [
            -103.73,
            35.17
          ],
          [
            -106.65,
            35.11
          ],
          [
            -108.74,
            35.53
          ],
          [
            -109.05,
            35.53
          ]
        ]
      }
    },
    {
      "type": "Feature",
      "properties": {
        "ref": "I-25",
        "highway": "motorway"
      },
      "geometry": {
        "type": "LineString",
        "coordinates": [
          [
            -106.49,
            31.76
          ],
          [
            -106.78,
            32.32
          ],
          [
            -106.78,
            33.2
          ],
          [
            -106.65,
            35.11
          ],
          [
            -105.94,
            35.69
          ],
          [
            -104.9,
            37.0
          ]
        ]
      }
    },
    {
      "type": "Feature",
      "properties": {
        "ref": "I-27",
        "highway": "motorway"
      },
      "geometry": {
        "type": "LineString",
        "coordinates": [
          [
            -101.85,
            33.58
          ],
          [
            -101.83,
            35.22
          ]
        ]
      }
    },
    {
      "type": "Feature",
      "properties": {
        "ref": "I-45",
        "highway": "motorway"
      },
      "geometry": {
        "type": "LineString",
        "coordinates": [
          [
            -94.8,
            29.3
          ],
          [
            -95.37,
            29.76
          ],
          [
            -96.8,
            32.78
          ]
        ]
      }
    },
    {
      "type": "Feature",
      "properties": {
        "ref": "I-37",
        "highway": "motorway"
      },
      "geometry": {
        "type": "LineString",
        "coordinates": [
          [
            -97.4,
            27.8
          ],
          [
            -98.49,
            29.42
          ]
        ]
      }
    }
  ]
}
