{
  "type": "FeatureCollection",
  "features": [
    {
      "type": "Feature",
      "properties": {
        "name": "TEXAS",
        "kind": "state"
      },
      "geometry": {
        "type": "Polygon",
        "coordinates": [
          [
            [
              -103.042,
              36.5
            ],
            [
              -100.0,
              36.5
            ],
            [
              -100.0,
              34.562
            ],
            [
              -99.23,
              34.382
            ],
            [
              -98.0,
              34.16
            ],
            [
              -97.14,
              33.87
            ],
            [
              -96.35,
              33.87
            ],
            [
              -95.15,
              33.96
            ],
            [
              -94.48,
              33.64
            ],
            [
              -94.043,
              33.55
            ],
            [
              -94.043,
              32.0
            ],
            [
              -94.043,
              31.14
            ],
            [
              -93.53,
              31.14
            ],
            [
              -93.838,
              29.787
            ],
            [
              -94.69,
              29.394
            ],
            [
              -95.364,
              28.796
            ],
            [
              -96.407,
              28.355
            ],
            [
              -97.145,
              26.07
            ],
            [
              -97.4,
              25.84
            ],
            [
              -97.525,
              25.838
            ],
            [
              -98.208,
              26.143
            ],
            [
              -99.514,
              27.543
            ],
            [
              -100.396,
              28.229
            ],
            [
              -100.9,
              29.37
            ],
            [
              -102.0,
              29.78
            ],
            [
              -103.0,
              29.1
            ],
            [
              -103.8,
              29.27
            ],
            [
              -104.526,
              29.632
            ],
            [
              -104.696,
              29.9
            ],
            [
              -105.5,
              30.65
            ],
            [
              -106.2,
              31.4
            ],
            [
              -106.528,
              31.75
            ],
            [
              -106.528,
              31.784
            ],
            [
              -106.616,
              32.0
            ],
            [
              -103.042,
              32.0
            ],
            [
              -103.042,
              36.5
            ]
          ]
        ]
      }
    },
    {
      "type": "Feature",
      "properties": {
        "name": "NEW MEXICO",
        "kind": "state"
      },
      "geometry": {
        "type": "Polygon",
        "coordinates": [
          [
            [
              -109.05,
              37.0
            ],
            [
              -103.002,
              37.0
            ],
            [
              -103.002,
              32.0
            ],
            [
              -106.616,
              32.0
            ],
            [
              -106.528,
              31.784
            ],
            [
              -108.208,
              31.332
            ],
            [
              -109.05,
              31.332
            ],
            [
              -109.05,
              37.0
            ]
          ]
        ]
      }
    }
  ]
}
