{"type":"FeatureCollection","features":[{"type":"Feature","properties":{"id":140928754,"kind":"poi","ele":"1516","name":"Los Griegos","place":"suburb"},"geometry":{"type":"Point","coordinates":[-106.6674547,35.1364514]}},{"type":"Feature","properties":{"id":151354148,"kind":"poi","ele":"1507","name":"Five Points","place":"suburb"},"geometry":{"type":"Point","coordinates":[-106.6666923,35.0661581]}},{"type":"Feature","properties":{"id":151363646,"kind":"poi","ele":"1512","name":"Los Duranes","place":"suburb"},"geometry":{"type":"Point","coordinates":[-106.6775262,35.1086567]}},{"type":"Feature","properties":{"id":151364049,"kind":"poi","ele":"1511","name":"Albuquerque","place":"city"},"geometry":{"type":"Point","coordinates":[-106.650985,35.0841034]}},{"type":"Feature","properties":{"id":151371027,"kind":"poi","ele":"1620","name":"Vista Encantada","place":"neighbourhood"},"geometry":{"type":"Point","coordinates":[-106.5680796,35.1108794]}},{"type":"Feature","properties":{"id":151493166,"kind":"poi","ele":"1513","name":"Martineztown-Santa Barbara","place":"neighbourhood"},"geometry":{"type":"Point","coordinates":[-106.641969,35.0892131]}},{"type":"Feature","properties":{"id":151530443,"kind":"poi","ele":"1510","name":"Old Town","place":"suburb"},"geometry":{"type":"Point","coordinates":[-106.6708594,35.095046]}},{"type":"Feature","properties":{"id":151539667,"kind":"poi","ele":"1514","name":"Los Candelarias","place":"suburb"},"geometry":{"type":"Point","coordinates":[-106.663915,35.1233785]}},{"type":"Feature","properties":{"id":357573312,"kind":"poi","amenity":"clinic","ele":"1562","name":"Encino Medical Plaza"},"geometry":{"type":"Point","coordinates":[-106.63284,35.0883226]}},{"type":"Feature","properties":{"id":357588677,"kind":"poi","amenity":"hospital","emergency":"no","name":"Lovelace Rehabilitation Hospital"},"geometry":{"type":"Point","coordinates":[-106.6380728,35.087744]}},{"type":"Feature","properties":{"id":357613858,"kind":"poi","amenity":"hospital","emergency":"no","name":"Kindred Hospital - Albuquerque"},"geometry":{"type":"Point","coordinates":[-106.6379011,35.088902]}},{"type":"Feature","properties":{"id":366376389,"kind":"poi","amenity":"police","ele":"1577","name":"Police Administration Building","ref":"58"},"geometry":{"type":"Point","coordinates":[-106.618611,35.086473]}},{"type":"Feature","properties":{"id":1797705405,"kind":"poi","name":"Trumbull Village","place":"neighbourhood"},"geometry":{"type":"Point","coordinates":[-106.5606062,35.0702204]}},{"type":"Feature","properties":{"id":1803009575,"kind":"poi","amenity":"drinking_water"},"geometry":{"type":"Point","coordinates":[-106.6740122,35.0855193]}},{"type":"Feature","properties":{"id":1803067175,"kind":"poi","amenity":"drinking_water"},"geometry":{"type":"Point","coordinates":[-106.6702123,35.0961054]}},{"type":"Feature","properties":{"id":1850100669,"kind":"poi","amenity":"drinking_water"},"geometry":{"type":"Point","coordinates":[-106.5611467,35.1283088]}},{"type":"Feature","properties":{"id":1852152763,"kind":"poi","amenity":"drinking_water"},"geometry":{"type":"Point","coordinates":[-106.6333742,35.0766244]}},{"type":"Feature","properties":{"id":1876247578,"kind":"poi","amenity":"drinking_water"},"geometry":{"type":"Point","coordinates":[-106.5826455,35.1244863]}},{"type":"Feature","properties":{"id":1881630276,"kind":"poi","amenity":"pharmacy","name":"Walgreens"},"geometry":{"type":"Point","coordinates":[-106.612475,35.0801544]}},{"type":"Feature","properties":{"id":1924671654,"kind":"poi","amenity":"police","name":"Triangle Park Police Substation"},"geometry":{"type":"Point","coordinates":[-106.6122304,35.0810755]}},{"type":"Feature","properties":{"id":2164022255,"kind":"poi","amenity":"doctors","name":"Medicine@Downtown"},"geometry":{"type":"Point","coordinates":[-106.6593368,35.0817122]}},{"type":"Feature","properties":{"id":2247426138,"kind":"poi","amenity":"drinking_water"},"geometry":{"type":"Point","coordinates":[-106.5671316,35.0602565]}},{"type":"Feature","properties":{"id":2247443060,"kind":"poi","amenity":"drinking_water"},"geometry":{"type":"Point","coordinates":[-106.6209274,35.0638817]}},{"type":"Feature","properties":{"id":2247443061,"kind":"poi","amenity":"drinking_water"},"geometry":{"type":"Point","coordinates":[-106.5995731,35.1193241]}},{"type":"Feature","properties":{"id":2249643745,"kind":"poi","amenity":"drinking_water"},"geometry":{"type":"Point","coordinates":[-106.5923171,35.0757775]}},{"type":"Feature","properties":{"id":2370867115,"kind":"poi","amenity":"clinic","name":"UNM Center For Digestive Disease"},"geometry":{"type":"Point","coordinates":[-106.634677,35.085369]}},{"type":"Feature","properties":{"id":2635934694,"kind":"poi","amenity":"police","name":"New Mexico State Police"},"geometry":{"type":"Point","coordinates":[-106.604701,35.1082747]}},{"type":"Feature","properties":{"id":2760088345,"kind":"poi","amenity":"clinic","name":"Yi Lin Medical Center"},"geometry":{"type":"Point","coordinates":[-106.5893965,35.1047754]}},{"type":"Feature","properties":{"id":3035004749,"kind":"poi","amenity":"pharmacy","name":"Veterans Administration Cooperative Studies Program Clinical Research Pharmacy"},"geometry":{"type":"Point","coordinates":[-106.6193595,35.0602488]}},{"type":"Feature","properties":{"id":3057591722,"kind":"poi","amenity":"fire_station","name":"Albuquerque Fire Station 1"},"geometry":{"type":"Point","coordinates":[-106.656467,35.0829383]}},{"type":"Feature","properties":{"id":3136179330,"kind":"poi","amenity":"clinic","name":"University of New Mexico Dermatology Clinic"},"geometry":{"type":"Point","coordinates":[-106.63101,35.0905795]}},{"type":"Feature","properties":{"id":3791843163,"kind":"poi","amenity":"doctors","name":"Albuquerque Health Care for the Homeless"},"geometry":{"type":"Point","coordinates":[-106.6456684,35.0954223]}},{"type":"Feature","properties":{"id":3855506116,"kind":"poi","amenity":"pharmacy","name":"Highland Pharmacy"},"geometry":{"type":"Point","coordinates":[-106.6319751,35.0887268]}},{"type":"Feature","properties":{"id":4173559075,"kind":"poi","amenity":"drinking_water"},"geometry":{"type":"Point","coordinates":[-106.5734416,35.0986596]}},{"type":"Feature","properties":{"id":4253353489,"kind":"poi","amenity":"drinking_water"},"geometry":{"type":"Point","coordinates":[-106.6479147,35.0836421]}},{"type":"Feature","properties":{"id":4359649020,"kind":"poi","amenity":"shelter"},"geometry":{"type":"Point","coordinates":[-106.625247,35.0815107]}},{"type":"Feature","properties":{"id":4592540576,"kind":"poi","amenity":"doctors","name":"Mariposa Plastic Surgery"},"geometry":{"type":"Point","coordinates":[-106.6189411,35.1279916]}},{"type":"Feature","properties":{"id":4999540699,"kind":"poi","amenity":"fire_station","name":"Albuquerque Fire Station 4"},"geometry":{"type":"Point","coordinates":[-106.6469767,35.1041298]}},{"type":"Feature","properties":{"id":5292349164,"kind":"poi","amenity":"clinic","name":"UNM Hospital North Valley Center for Family and Community Health"},"geometry":{"type":"Point","coordinates":[-106.645879,35.1172686]}},{"type":"Feature","properties":{"id":5536921817,"kind":"poi","name":"Winrock South","place":"neighbourhood"},"geometry":{"type":"Point","coordinates":[-106.5666445,35.0940107]}},{"type":"Feature","properties":{"id":5536997631,"kind":"poi","name":"Netherwood Park","place":"neighbourhood"},"geometry":{"type":"Point","coordinates":[-106.6172599,35.1032792]}},{"type":"Feature","properties":{"id":5538472355,"kind":"poi","name":"Uptown","place":"suburb"},"geometry":{"type":"Point","coordinates":[-106.5688525,35.1042176]}},{"type":"Feature","properties":{"id":5538762790,"kind":"poi","name":"Barelas","place":"suburb"},"geometry":{"type":"Point","coordinates":[-106.653705,35.073096]}},{"type":"Feature","properties":{"id":5538766267,"kind":"poi","name":"Nob Hill","place":"suburb"},"geometry":{"type":"Point","coordinates":[-106.6097568,35.0811681]}},{"type":"Feature","properties":{"id":5538795912,"kind":"poi","name":"International District","place":"suburb"},"geometry":{"type":"Point","coordinates":[-106.5685554,35.0758819]}},{"type":"Feature","properties":{"id":5929537629,"kind":"poi","amenity":"drinking_water"},"geometry":{"type":"Point","coordinates":[-106.6179413,35.0982014]}},{"type":"Feature","properties":{"id":5929537630,"kind":"poi","amenity":"drinking_water"},"geometry":{"type":"Point","coordinates":[-106.6220329,35.0982756]}},{"type":"Feature","properties":{"id":5929537631,"kind":"poi","amenity":"drinking_water"},"geometry":{"type":"Point","coordinates":[-106.6200805,35.0926772]}},{"type":"Feature","properties":{"id":6484949691,"kind":"poi","amenity":"drinking_water"},"geometry":{"type":"Point","coordinates":[-106.620373,35.0848587]}},{"type":"Feature","properties":{"id":6513751139,"kind":"poi","amenity":"doctors","name":"Healthcare"},"geometry":{"type":"Point","coordinates":[-106.6039981,35.0996281]}},{"type":"Feature","properties":{"id":6515529833,"kind":"poi","amenity":"pharmacy","name":"Benzer Pharmacy"},"geometry":{"type":"Point","coordinates":[-106.6038345,35.1011546]}},{"type":"Feature","properties":{"id":6516359180,"kind":"poi","amenity":"doctors","name":"Healthy Families"},"geometry":{"type":"Point","coordinates":[-106.6045101,35.0994419]}},{"type":"Feature","properties":{"id":6516359181,"kind":"poi","amenity":"doctors","name":"Midtown Family Medicine"},"geometry":{"type":"Point","coordinates":[-106.6045128,35.0997909]}},{"type":"Feature","properties":{"id":6535541201,"kind":"poi","amenity":"doctors","name":"Oral and Maxillofacial Surgery"},"geometry":{"type":"Point","coordinates":[-106.6046715,35.0974359]}},{"type":"Feature","properties":{"id":6587120296,"kind":"poi","amenity":"clinic","name":"Duke City Urgent Care"},"geometry":{"type":"Point","coordinates":[-106.6048579,35.0944461]}},{"type":"Feature","properties":{"id":6611376512,"kind":"poi","amenity":"clinic","name":"UNM Outpatient Imaging and Surgery (OSIS)","ref":"284"},"geometry":{"type":"Point","coordinates":[-106.6272167,35.0958518]}},{"type":"Feature","properties":{"id":6611376514,"kind":"poi","amenity":"doctors","name":"UNM Family Health"},"geometry":{"type":"Point","coordinates":[-106.6271579,35.0962777]}},{"type":"Feature","properties":{"id":6611376515,"kind":"poi","amenity":"clinic","name":"UNM Cancer Center","ref":"284"},"geometry":{"type":"Point","coordinates":[-106.6281017,35.0958829]}},{"type":"Feature","properties":{"id":6639328026,"kind":"poi","amenity":"doctors","name":"Albuquerque Craniofacial Center"},"geometry":{"type":"Point","coordinates":[-106.5602109,35.1292222]}},{"type":"Feature","properties":{"id":6639328028,"kind":"poi","amenity":"doctors","name":"N.M. Dermatology Associates, P.A."},"geometry":{"type":"Point","coordinates":[-106.5600822,35.1291388]}},{"type":"Feature","properties":{"id":6672558009,"kind":"poi","amenity":"doctors","name":"Julia Keating, MD & Marta Terlecki, MD"},"geometry":{"type":"Point","coordinates":[-106.6324913,35.0889135]}},{"type":"Feature","properties":{"id":6672558010,"kind":"poi","amenity":"doctors","name":"LIFE Family Healthcare, LLC"},"geometry":{"type":"Point","coordinates":[-106.6326388,35.0889399]}},{"type":"Feature","properties":{"id":6672558014,"kind":"poi","amenity":"doctors","name":"Southwest Vascular & Vein Center"},"geometry":{"type":"Point","coordinates":[-106.6331055,35.0885799]}},{"type":"Feature","properties":{"id":6682123132,"kind":"poi","amenity":"pharmacy","name":"Duran's Central Pharmacy"},"geometry":{"type":"Point","coordinates":[-106.6672626,35.0924205]}},{"type":"Feature","properties":{"id":7061058587,"kind":"poi","amenity":"clinic","name":"ENT and Sinus Center ABQ, PC Gerald N. Bart M.D., F.A.C.S"},"geometry":{"type":"Point","coordinates":[-106.6419945,35.0861862]}},{"type":"Feature","properties":{"id":7272714885,"kind":"poi","amenity":"doctors","name":"Miguel Pupiales, M.D."},"geometry":{"type":"Point","coordinates":[-106.588185,35.0885953]}},{"type":"Feature","properties":{"id":8203985557,"kind":"poi","amenity":"shelter"},"geometry":{"type":"Point","coordinates":[-106.5853218,35.129968]}},{"type":"Feature","properties":{"id":9095702260,"kind":"poi","amenity":"shelter"},"geometry":{"type":"Point","coordinates":[-106.6472234,35.0837489]}},{"type":"Feature","properties":{"id":9122815740,"kind":"poi","amenity":"clinic","name":"Central New Mexico Treatment Center"},"geometry":{"type":"Point","coordinates":[-106.6521576,35.1033169]}},{"type":"Feature","properties":{"id":9831686556,"kind":"poi","name":"Pueblo Alto","place":"neighbourhood"},"geometry":{"type":"Point","coordinates":[-106.5862761,35.0946865]}},{"type":"Feature","properties":{"id":9939611438,"kind":"poi","amenity":"doctors","name":"Shamarie Sais MD"},"geometry":{"type":"Point","coordinates":[-106.6068387,35.0809956]}},{"type":"Feature","properties":{"id":9949524162,"kind":"poi","amenity":"clinic","name":"UNMH Senior Health Center","ref":"282A"},"geometry":{"type":"Point","coordinates":[-106.622298,35.0916581]}},{"type":"Feature","properties":{"id":10153348381,"kind":"poi","amenity":"pharmacy","name":"Walgreens"},"geometry":{"type":"Point","coordinates":[-106.6717441,35.0959935]}},{"type":"Feature","properties":{"id":10174128684,"kind":"poi","amenity":"shelter"},"geometry":{"type":"Point","coordinates":[-106.6176239,35.0900353]}},{"type":"Feature","properties":{"id":10174128688,"kind":"poi","amenity":"shelter"},"geometry":{"type":"Point","coordinates":[-106.6176746,35.0898964]}},{"type":"Feature","properties":{"id":10230891669,"kind":"poi","amenity":"clinic","name":"Nene and Jamie Koch Comprehensive Movement Disorder Center","ref":"282"},"geometry":{"type":"Point","coordinates":[-106.62192,35.09158]}},{"type":"Feature","properties":{"id":10286764105,"kind":"poi","amenity":"animal_shelter","name":"Lucky Paws"},"geometry":{"type":"Point","coordinates":[-106.5715269,35.1065224]}},{"type":"Feature","properties":{"id":10585728174,"kind":"poi","amenity":"clinic","name":"Cimarron Clinic"},"geometry":{"type":"Point","coordinates":[-106.6220316,35.0933744]}},{"type":"Feature","properties":{"id":10586309923,"kind":"poi","amenity":"clinic","name":"UNM Truman Health Services","ref":"1052A"},"geometry":{"type":"Point","coordinates":[-106.6314527,35.0900567]}},{"type":"Feature","properties":{"id":10586309924,"kind":"poi","amenity":"clinic","name":"UNMH Care One Program & UNM Medical Group Truman","ref":"1052B"},"geometry":{"type":"Point","coordinates":[-106.6319662,35.0901697]}}],"attribution":"© OpenStreetMap contributors"}
