{"type":"FeatureCollection","features":[{"type":"Feature","properties":{"id":140928754,"kind":"poi","ele":"1516","name":"Los Griegos","place":"suburb"},"geometry":{"type":"Point","coordinates":[-106.6674547,35.1364514]}},{"type":"Feature","properties":{"id":151337040,"kind":"poi","ele":"1520","name":"Los Ranchos de Albuquerque","place":"village"},"geometry":{"type":"Point","coordinates":[-106.6428038,35.1619885]}},{"type":"Feature","properties":{"id":151354148,"kind":"poi","ele":"1507","name":"Five Points","place":"suburb"},"geometry":{"type":"Point","coordinates":[-106.6666923,35.0661581]}},{"type":"Feature","properties":{"id":151363646,"kind":"poi","ele":"1512","name":"Los Duranes","place":"suburb"},"geometry":{"type":"Point","coordinates":[-106.6775262,35.1086567]}},{"type":"Feature","properties":{"id":151364049,"kind":"poi","ele":"1511","name":"Albuquerque","place":"city"},"geometry":{"type":"Point","coordinates":[-106.650985,35.0841034]}},{"type":"Feature","properties":{"id":151371027,"kind":"poi","ele":"1620","name":"Vista Encantada","place":"neighbourhood"},"geometry":{"type":"Point","coordinates":[-106.5680796,35.1108794]}},{"type":"Feature","properties":{"id":151493166,"kind":"poi","ele":"1513","name":"Martineztown-Santa Barbara","place":"neighbourhood"},"geometry":{"type":"Point","coordinates":[-106.641969,35.0892131]}},{"type":"Feature","properties":{"id":151516810,"kind":"poi","ele":"1522","name":"North Valley","place":"hamlet"},"geometry":{"type":"Point","coordinates":[-106.623359,35.1733771]}},{"type":"Feature","properties":{"id":151530443,"kind":"poi","ele":"1510","name":"Old Town","place":"suburb"},"geometry":{"type":"Point","coordinates":[-106.6708594,35.095046]}},{"type":"Feature","properties":{"id":151539667,"kind":"poi","ele":"1514","name":"Los Candelarias","place":"suburb"},"geometry":{"type":"Point","coordinates":[-106.663915,35.1233785]}},{"type":"Feature","properties":{"id":151766813,"kind":"poi","ele":"1518","name":"Lee Acres","place":"suburb"},"geometry":{"type":"Point","coordinates":[-106.6469705,35.1486556]}},{"type":"Feature","properties":{"id":357573312,"kind":"poi","amenity":"clinic","ele":"1562","name":"Encino Medical Plaza"},"geometry":{"type":"Point","coordinates":[-106.63284,35.0883226]}},{"type":"Feature","properties":{"id":357588677,"kind":"poi","amenity":"hospital","emergency":"no","name":"Lovelace Rehabilitation Hospital"},"geometry":{"type":"Point","coordinates":[-106.6380728,35.087744]}},{"type":"Feature","properties":{"id":357613858,"kind":"poi","amenity":"hospital","emergency":"no","name":"Kindred Hospital - Albuquerque"},"geometry":{"type":"Point","coordinates":[-106.6379011,35.088902]}},{"type":"Feature","properties":{"id":366376389,"kind":"poi","amenity":"police","ele":"1577","name":"Police Administration Building","ref":"58"},"geometry":{"type":"Point","coordinates":[-106.618611,35.086473]}},{"type":"Feature","properties":{"id":1797705405,"kind":"poi","name":"Trumbull Village","place":"neighbourhood"},"geometry":{"type":"Point","coordinates":[-106.5606062,35.0702204]}},{"type":"Feature","properties":{"id":1803009575,"kind":"poi","amenity":"drinking_water"},"geometry":{"type":"Point","coordinates":[-106.6740122,35.0855193]}},{"type":"Feature","properties":{"id":1803067175,"kind":"poi","amenity":"drinking_water"},"geometry":{"type":"Point","coordinates":[-106.6702123,35.0961054]}},{"type":"Feature","properties":{"id":1850100669,"kind":"poi","amenity":"drinking_water"},"geometry":{"type":"Point","coordinates":[-106.5611467,35.1283088]}},{"type":"Feature","properties":{"id":1852152763,"kind":"poi","amenity":"drinking_water"},"geometry":{"type":"Point","coordinates":[-106.6333742,35.0766244]}},{"type":"Feature","properties":{"id":1876247578,"kind":"poi","amenity":"drinking_water"},"geometry":{"type":"Point","coordinates":[-106.5826455,35.1244863]}},{"type":"Feature","properties":{"id":1881630276,"kind":"poi","amenity":"pharmacy","name":"Walgreens"},"geometry":{"type":"Point","coordinates":[-106.612475,35.0801544]}},{"type":"Feature","properties":{"id":1924369964,"kind":"poi","amenity":"fire_station","name":"Albuquerque Fire Station 15"},"geometry":{"type":"Point","coordinates":[-106.571186,35.1449954]}},{"type":"Feature","properties":{"id":1924671654,"kind":"poi","amenity":"police","name":"Triangle Park Police Substation"},"geometry":{"type":"Point","coordinates":[-106.6122304,35.0810755]}},{"type":"Feature","properties":{"id":2164022255,"kind":"poi","amenity":"doctors","name":"Medicine@Downtown"},"geometry":{"type":"Point","coordinates":[-106.6593368,35.0817122]}},{"type":"Feature","properties":{"id":2247426138,"kind":"poi","amenity":"drinking_water"},"geometry":{"type":"Point","coordinates":[-106.5671316,35.0602565]}},{"type":"Feature","properties":{"id":2247443060,"kind":"poi","amenity":"drinking_water"},"geometry":{"type":"Point","coordinates":[-106.6209274,35.0638817]}},{"type":"Feature","properties":{"id":2247443061,"kind":"poi","amenity":"drinking_water"},"geometry":{"type":"Point","coordinates":[-106.5995731,35.1193241]}},{"type":"Feature","properties":{"id":2249643745,"kind":"poi","amenity":"drinking_water"},"geometry":{"type":"Point","coordinates":[-106.5923171,35.0757775]}},{"type":"Feature","properties":{"id":2315309882,"kind":"poi","amenity":"clinic","name":"Presbyterian Medical Group Northside Urgent Care"},"geometry":{"type":"Point","coordinates":[-106.5842658,35.1539731]}},{"type":"Feature","properties":{"id":2370867115,"kind":"poi","amenity":"clinic","name":"UNM Center For Digestive Disease"},"geometry":{"type":"Point","coordinates":[-106.634677,35.085369]}},{"type":"Feature","properties":{"id":2510101603,"kind":"poi","amenity":"pharmacy","name":"Walgreens"},"geometry":{"type":"Point","coordinates":[-106.578289,35.1734596]}},{"type":"Feature","properties":{"id":2635934694,"kind":"poi","amenity":"police","name":"New Mexico State Police"},"geometry":{"type":"Point","coordinates":[-106.604701,35.1082747]}},{"type":"Feature","properties":{"id":2760088345,"kind":"poi","amenity":"clinic","name":"Yi Lin Medical Center"},"geometry":{"type":"Point","coordinates":[-106.5893965,35.1047754]}},{"type":"Feature","properties":{"id":3035004749,"kind":"poi","amenity":"pharmacy","name":"Veterans Administration Cooperative Studies Program Clinical Research Pharmacy"},"geometry":{"type":"Point","coordinates":[-106.6193595,35.0602488]}},{"type":"Feature","properties":{"id":3057591722,"kind":"poi","amenity":"fire_station","name":"Albuquerque Fire Station 1"},"geometry":{"type":"Point","coordinates":[-106.656467,35.0829383]}},{"type":"Feature","properties":{"id":3136179330,"kind":"poi","amenity":"clinic","name":"University of New Mexico Dermatology Clinic"},"geometry":{"type":"Point","coordinates":[-106.63101,35.0905795]}},{"type":"Feature","properties":{"id":3791843163,"kind":"poi","amenity":"doctors","name":"Albuquerque Health Care for the Homeless"},"geometry":{"type":"Point","coordinates":[-106.6456684,35.0954223]}},{"type":"Feature","properties":{"id":3855506116,"kind":"poi","amenity":"pharmacy","name":"Highland Pharmacy"},"geometry":{"type":"Point","coordinates":[-106.6319751,35.0887268]}},{"type":"Feature","properties":{"id":4173559075,"kind":"poi","amenity":"drinking_water"},"geometry":{"type":"Point","coordinates":[-106.5734416,35.0986596]}},{"type":"Feature","properties":{"id":4253353489,"kind":"poi","amenity":"drinking_water"},"geometry":{"type":"Point","coordinates":[-106.6479147,35.0836421]}},{"type":"Feature","properties":{"id":4359649020,"kind":"poi","amenity":"shelter"},"geometry":{"type":"Point","coordinates":[-106.625247,35.0815107]}},{"type":"Feature","properties":{"id":4592540576,"kind":"poi","amenity":"doctors","name":"Mariposa Plastic Surgery"},"geometry":{"type":"Point","coordinates":[-106.6189411,35.1279916]}},{"type":"Feature","properties":{"id":4999540699,"kind":"poi","amenity":"fire_station","name":"Albuquerque Fire Station 4"},"geometry":{"type":"Point","coordinates":[-106.6469767,35.1041298]}},{"type":"Feature","properties":{"id":5085081334,"kind":"poi","amenity":"fire_station","name":"Albuquerque Fire Station 20"},"geometry":{"type":"Point","coordinates":[-106.560782,35.179736]}},{"type":"Feature","properties":{"id":5085081335,"kind":"poi","amenity":"police","name":"La Cueva Community Police Substation"},"geometry":{"type":"Point","coordinates":[-106.5610411,35.1796519]}},{"type":"Feature","properties":{"id":5292349164,"kind":"poi","amenity":"clinic","name":"UNM Hospital North Valley Center for Family and Community Health"},"geometry":{"type":"Point","coordinates":[-106.645879,35.1172686]}},{"type":"Feature","properties":{"id":5536921817,"kind":"poi","name":"Winrock South","place":"neighbourhood"},"geometry":{"type":"Point","coordinates":[-106.5666445,35.0940107]}},{"type":"Feature","properties":{"id":5536997631,"kind":"poi","name":"Netherwood Park","place":"neighbourhood"},"geometry":{"type":"Point","coordinates":[-106.6172599,35.1032792]}},{"type":"Feature","properties":{"id":5538472355,"kind":"poi","name":"Uptown","place":"suburb"},"geometry":{"type":"Point","coordinates":[-106.5688525,35.1042176]}},{"type":"Feature","properties":{"id":5538481266,"kind":"poi","name":"Journal Center","place":"suburb"},"geometry":{"type":"Point","coordinates":[-106.5893436,35.1675406]}},{"type":"Feature","properties":{"id":5538762790,"kind":"poi","name":"Barelas","place":"suburb"},"geometry":{"type":"Point","coordinates":[-106.653705,35.073096]}},{"type":"Feature","properties":{"id":5538766267,"kind":"poi","name":"Nob Hill","place":"suburb"},"geometry":{"type":"Point","coordinates":[-106.6097568,35.0811681]}},{"type":"Feature","properties":{"id":5538795912,"kind":"poi","name":"International District","place":"suburb"},"geometry":{"type":"Point","coordinates":[-106.5685554,35.0758819]}},{"type":"Feature","properties":{"id":5929537629,"kind":"poi","amenity":"drinking_water"},"geometry":{"type":"Point","coordinates":[-106.6179413,35.0982014]}},{"type":"Feature","properties":{"id":5929537630,"kind":"poi","amenity":"drinking_water"},"geometry":{"type":"Point","coordinates":[-106.6220329,35.0982756]}},{"type":"Feature","properties":{"id":5929537631,"kind":"poi","amenity":"drinking_water"},"geometry":{"type":"Point","coordinates":[-106.6200805,35.0926772]}},{"type":"Feature","properties":{"id":6484949691,"kind":"poi","amenity":"drinking_water"},"geometry":{"type":"Point","coordinates":[-106.620373,35.0848587]}},{"type":"Feature","properties":{"id":6513751139,"kind":"poi","amenity":"doctors","name":"Healthcare"},"geometry":{"type":"Point","coordinates":[-106.6039981,35.0996281]}},{"type":"Feature","properties":{"id":6515529833,"kind":"poi","amenity":"pharmacy","name":"Benzer Pharmacy"},"geometry":{"type":"Point","coordinates":[-106.6038345,35.1011546]}},{"type":"Feature","properties":{"id":6516359180,"kind":"poi","amenity":"doctors","name":"Healthy Families"},"geometry":{"type":"Point","coordinates":[-106.6045101,35.0994419]}},{"type":"Feature","properties":{"id":6516359181,"kind":"poi","amenity":"doctors","name":"Midtown Family Medicine"},"geometry":{"type":"Point","coordinates":[-106.6045128,35.0997909]}},{"type":"Feature","properties":{"id":6535541201,"kind":"poi","amenity":"doctors","name":"Oral and Maxillofacial Surgery"},"geometry":{"type":"Point","coordinates":[-106.6046715,35.0974359]}},{"type":"Feature","properties":{"id":6587120296,"kind":"poi","amenity":"clinic","name":"Duke City Urgent Care"},"geometry":{"type":"Point","coordinates":[-106.6048579,35.0944461]}},{"type":"Feature","properties":{"id":6611376512,"kind":"poi","amenity":"clinic","name":"UNM Outpatient Imaging and Surgery (OSIS)","ref":"284"},"geometry":{"type":"Point","coordinates":[-106.6272167,35.0958518]}},{"type":"Feature","properties":{"id":6611376514,"kind":"poi","amenity":"doctors","name":"UNM Family Health"},"geometry":{"type":"Point","coordinates":[-106.6271579,35.0962777]}},{"type":"Feature","properties":{"id":6611376515,"kind":"poi","amenity":"clinic","name":"UNM Cancer Center","ref":"284"},"geometry":{"type":"Point","coordinates":[-106.6281017,35.0958829]}},{"type":"Feature","properties":{"id":6639328026,"kind":"poi","amenity":"doctors","name":"Albuquerque Craniofacial Center"},"geometry":{"type":"Point","coordinates":[-106.5602109,35.1292222]}},{"type":"Feature","properties":{"id":6639328028,"kind":"poi","amenity":"doctors","name":"N.M. Dermatology Associates, P.A."},"geometry":{"type":"Point","coordinates":[-106.5600822,35.1291388]}},{"type":"Feature","properties":{"id":6672558009,"kind":"poi","amenity":"doctors","name":"Julia Keating, MD & Marta Terlecki, MD"},"geometry":{"type":"Point","coordinates":[-106.6324913,35.0889135]}},{"type":"Feature","properties":{"id":6672558010,"kind":"poi","amenity":"doctors","name":"LIFE Family Healthcare, LLC"},"geometry":{"type":"Point","coordinates":[-106.6326388,35.0889399]}},{"type":"Feature","properties":{"id":6672558014,"kind":"poi","amenity":"doctors","name":"Southwest Vascular & Vein Center"},"geometry":{"type":"Point","coordinates":[-106.6331055,35.0885799]}},{"type":"Feature","properties":{"id":6682123132,"kind":"poi","amenity":"pharmacy","name":"Duran's Central Pharmacy"},"geometry":{"type":"Point","coordinates":[-106.6672626,35.0924205]}},{"type":"Feature","properties":{"id":7061058587,"kind":"poi","amenity":"clinic","name":"ENT and Sinus Center ABQ, PC Gerald N. Bart M.D., F.A.C.S"},"geometry":{"type":"Point","coordinates":[-106.6419945,35.0861862]}},{"type":"Feature","properties":{"id":7272714885,"kind":"poi","amenity":"doctors","name":"Miguel Pupiales, M.D."},"geometry":{"type":"Point","coordinates":[-106.588185,35.0885953]}},{"type":"Feature","properties":{"id":7700222027,"kind":"poi","amenity":"pharmacy","name":"Modern Alchemist Compounding Pharmacy"},"geometry":{"type":"Point","coordinates":[-106.5766571,35.1722516]}},{"type":"Feature","properties":{"id":7778300393,"kind":"poi","amenity":"fire_station","name":"Bernalillo County Fire Station 30 (Los Ranchos)"},"geometry":{"type":"Point","coordinates":[-106.638437,35.1556647]}},{"type":"Feature","properties":{"id":7863372792,"kind":"poi","amenity":"pharmacy","name":"Walgreens"},"geometry":{"type":"Point","coordinates":[-106.6389742,35.1542236]}},{"type":"Feature","properties":{"id":8203985557,"kind":"poi","amenity":"shelter"},"geometry":{"type":"Point","coordinates":[-106.5853218,35.129968]}},{"type":"Feature","properties":{"id":9095702260,"kind":"poi","amenity":"shelter"},"geometry":{"type":"Point","coordinates":[-106.6472234,35.0837489]}},{"type":"Feature","properties":{"id":9122815740,"kind":"poi","amenity":"clinic","name":"Central New Mexico Treatment Center"},"geometry":{"type":"Point","coordinates":[-106.6521576,35.1033169]}},{"type":"Feature","properties":{"id":9831686556,"kind":"poi","name":"Pueblo Alto","place":"neighbourhood"},"geometry":{"type":"Point","coordinates":[-106.5862761,35.0946865]}},{"type":"Feature","properties":{"id":9939611438,"kind":"poi","amenity":"doctors","name":"Shamarie Sais MD"},"geometry":{"type":"Point","coordinates":[-106.6068387,35.0809956]}},{"type":"Feature","properties":{"id":9949524162,"kind":"poi","amenity":"clinic","name":"UNMH Senior Health Center","ref":"282A"},"geometry":{"type":"Point","coordinates":[-106.622298,35.0916581]}},{"type":"Feature","properties":{"id":10153348381,"kind":"poi","amenity":"pharmacy","name":"Walgreens"},"geometry":{"type":"Point","coordinates":[-106.6717441,35.0959935]}},{"type":"Feature","properties":{"id":10174128684,"kind":"poi","amenity":"shelter"},"geometry":{"type":"Point","coordinates":[-106.6176239,35.0900353]}},{"type":"Feature","properties":{"id":10174128688,"kind":"poi","amenity":"shelter"},"geometry":{"type":"Point","coordinates":[-106.6176746,35.0898964]}},{"type":"Feature","properties":{"id":10212458566,"kind":"poi","amenity":"clinic","name":"Eye Associates Of New Mexico Retina Center"},"geometry":{"type":"Point","coordinates":[-106.5939,35.1459793]}},{"type":"Feature","properties":{"id":10230891669,"kind":"poi","amenity":"clinic","name":"Nene and Jamie Koch Comprehensive Movement Disorder Center","ref":"282"},"geometry":{"type":"Point","coordinates":[-106.62192,35.09158]}},{"type":"Feature","properties":{"id":10286764105,"kind":"poi","amenity":"animal_shelter","name":"Lucky Paws"},"geometry":{"type":"Point","coordinates":[-106.5715269,35.1065224]}},{"type":"Feature","properties":{"id":10585728174,"kind":"poi","amenity":"clinic","name":"Cimarron Clinic"},"geometry":{"type":"Point","coordinates":[-106.6220316,35.0933744]}},{"type":"Feature","properties":{"id":10586309923,"kind":"poi","amenity":"clinic","name":"UNM Truman Health Services","ref":"1052A"},"geometry":{"type":"Point","coordinates":[-106.6314527,35.0900567]}},{"type":"Feature","properties":{"id":10586309924,"kind":"poi","amenity":"clinic","name":"UNMH Care One Program & UNM Medical Group Truman","ref":"1052B"},"geometry":{"type":"Point","coordinates":[-106.6319662,35.0901697]}},{"type":"Feature","properties":{"id":10586309927,"kind":"poi","amenity":"clinic","name":"UNMH Women's Faculty & Midwife Clinic","ref":"1052E"},"geometry":{"type":"Point","coordinates":[-106.6319238,35.0892462]}},{"type":"Feature","properties":{"id":10586309928,"kind":"poi","amenity":"clinic","name":"UNMH Truman Health Services","ref":"1052F"},"geometry":{"type":"Point","coordinates":[-106.6314588,35.089595]}},{"type":"Feature","properties":{"id":10586424157,"kind":"poi","amenity":"shelter"},"geometry":{"type":"Point","coordinates":[-106.6189214,35.0908451]}},{"type":"Feature","properties":{"id":10647415137,"kind":"poi","amenity":"clinic","name":"Upright MRI"},"geometry":{"type":"Point","coordinates":[-106.5898554,35.1654478]}},{"type":"Feature","properties":{"id":10798850117,"kind":"poi","amenity":"police","name":"APD University Area Command Substation"},"geometry":{"type":"Point","coordinates":[-106.6333702,35.0700621]}},{"type":"Feature","properties":{"id":10798850118,"kind":"poi","amenity":"police","name":"APD Don Perkins Public Safety Center"},"geometry":{"type":"Point","coordinates":[-106.651376,35.0844011]}},{"type":"Feature","properties":{"id":10893038897,"kind":"poi","amenity":"clinic","name":"CrossRiverTherapy NM"},"geometry":{"type":"Point","coordinates":[-106.642535,35.0869519]}},{"type":"Feature","properties":{"id":10900845708,"kind":"poi","amenity":"hospital","emergency":"no","name":"Central Desert Behavioral Health Hospital"},"geometry":{"type":"Point","coordinates":[-106.6075951,35.138045]}},{"type":"Feature","properties":{"id":10943438562,"kind":"poi","amenity":"fire_station","name":"Albuquerque Fire Station 10","ref":"10"},"geometry":{"type":"Point","coordinates":[-106.6748076,35.1230677]}},{"type":"Feature","properties":{"id":10943438564,"kind":"poi","amenity":"fire_station","name":"Albuquerque Fire Station 13"},"geometry":{"type":"Point","coordinates":[-106.5894501,35.10745]}},{"type":"Feature","properties":{"id":10943438566,"kind":"poi","amenity":"fire_station","name":"Albuquerque Fire Station 19"},"geometry":{"type":"Point","coordinates":[-106.6047128,35.1259252]}},{"type":"Feature","properties":{"id":11669746387,"kind":"poi","amenity":"clinic","name":"UNMH Heart and Vascular Center"},"geometry":{"type":"Point","coordinates":[-106.6286775,35.0896739]}},{"type":"Feature","properties":{"id":11799158452,"kind":"poi","amenity":"police","name":"APD Coronado Community Police Substation"},"geometry":{"type":"Point","coordinates":[-106.5712234,35.1063103]}},{"type":"Feature","properties":{"id":11818216473,"kind":"poi","amenity":"drinking_water"},"geometry":{"type":"Point","coordinates":[-106.6529391,35.0851436]}},{"type":"Feature","properties":{"id":12079079103,"kind":"poi","name":"Hahn","place":"hamlet"},"geometry":{"type":"Point","coordinates":[-106.6328432,35.1309458]}},{"type":"Feature","properties":{"id":12185412401,"kind":"poi","amenity":"clinic","name":"Southwest Care Jefferson Clinic"},"geometry":{"type":"Point","coordinates":[-106.5912908,35.1347035]}},{"type":"Feature","properties":{"id":12351801702,"kind":"poi","amenity":"doctors","name":"Adler Family Practice"},"geometry":{"type":"Point","coordinates":[-106.5982535,35.1324176]}},{"type":"Feature","properties":{"id":12387534742,"kind":"poi","amenity":"shelter"},"geometry":{"type":"Point","coordinates":[-106.6205747,35.0844157]}},{"type":"Feature","properties":{"id":12387534743,"kind":"poi","amenity":"shelter"},"geometry":{"type":"Point","coordinates":[-106.6208114,35.084189]}},{"type":"Feature","properties":{"id":12861896844,"kind":"poi","access":"yes","amenity":"drinking_water"},"geometry":{"type":"Point","coordinates":[-106.6630367,35.0781879]}},{"type":"Feature","properties":{"id":12861896863,"kind":"poi","amenity":"drinking_water"},"geometry":{"type":"Point","coordinates":[-106.6643718,35.079376]}},{"type":"Feature","properties":{"id":12861896881,"kind":"poi","amenity":"shelter"},"geometry":{"type":"Point","coordinates":[-106.6637808,35.0789081]}},{"type":"Feature","properties":{"id":12861896920,"kind":"poi","amenity":"drinking_water"},"geometry":{"type":"Point","coordinates":[-106.6607822,35.0772383]}},{"type":"Feature","properties":{"id":12875809859,"kind":"poi","amenity":"clinic","name":"Passport Health Albuquerque Travel Clinic"},"geometry":{"type":"Point","coordinates":[-106.5690806,35.0936228]}},{"type":"Feature","properties":{"id":12925227001,"kind":"poi","amenity":"shelter","name":"Info"},"geometry":{"type":"Point","coordinates":[-106.5640154,35.0986864]}},{"type":"Feature","properties":{"id":12943892216,"kind":"poi","amenity":"doctors","name":"Krystal Clear Imaging"},"geometry":{"type":"Point","coordinates":[-106.5939901,35.1598977]}},{"type":"Feature","properties":{"id":13043113503,"kind":"poi","amenity":"doctors","name":"Sage Neuroscience Center"},"geometry":{"type":"Point","coordinates":[-106.5905569,35.1718683]}},{"type":"Feature","properties":{"id":13306284285,"kind":"poi","amenity":"clinic","name":"Reform ABQ"},"geometry":{"type":"Point","coordinates":[-106.6353943,35.0839273]}},{"type":"Feature","properties":{"id":13689954501,"kind":"poi","amenity":"drinking_water"},"geometry":{"type":"Point","coordinates":[-106.5988033,35.0981795]}},{"type":"Feature","properties":{"id":13702331717,"kind":"poi","amenity":"pharmacy","name":"Smith’s Pharmacy"},"geometry":{"type":"Point","coordinates":[-106.6033126,35.0957628]}},{"type":"Feature","properties":{"id":13706088901,"kind":"poi","amenity":"drinking_water"},"geometry":{"type":"Point","coordinates":[-106.6108414,35.0941999]}},{"type":"Feature","properties":{"id":13719233882,"kind":"poi","amenity":"shelter","highway":"bus_stop","name":"San Mateo NB @ Cutler"},"geometry":{"type":"Point","coordinates":[-106.587571,35.1059267]}},{"type":"Feature","properties":{"id":13870244733,"kind":"poi","amenity":"drinking_water"},"geometry":{"type":"Point","coordinates":[-106.666404,35.1008377]}},{"type":"Feature","properties":{"id":14086231274,"kind":"poi","amenity":"clinic","name":"Pediatric ER"},"geometry":{"type":"Point","coordinates":[-106.6195704,35.0880634]}},{"type":"Feature","properties":{"id":14086231275,"kind":"poi","amenity":"clinic","name":"Adult ER"},"geometry":{"type":"Point","coordinates":[-106.6214614,35.0890111]}},{"type":"Feature","properties":{"id":151378889,"kind":"poi","ele":"1738","name":"Chelwood Park","place":"neighbourhood"},"geometry":{"type":"Point","coordinates":[-106.5069671,35.0961579]}},{"type":"Feature","properties":{"id":151415784,"kind":"poi","ele":"1677","name":"Sandia Vista","place":"neighbourhood"},"geometry":{"type":"Point","coordinates":[-106.5233562,35.0847693]}},{"type":"Feature","properties":{"id":151419624,"kind":"poi","ele":"1831","name":"Monticello","place":"hamlet"},"geometry":{"type":"Point","coordinates":[-106.4446449,35.0653033]}},{"type":"Feature","properties":{"id":151482922,"kind":"poi","ele":"1642","name":"Mesa Village","place":"neighbourhood"},"geometry":{"type":"Point","coordinates":[-106.5416873,35.0917605]}},{"type":"Feature","properties":{"id":151549102,"kind":"poi","ele":"1786","name":"Carnuel","place":"hamlet"},"geometry":{"type":"Point","coordinates":[-106.4572541,35.0637471]}},{"type":"Feature","properties":{"id":151580134,"kind":"poi","ele":"1715","name":"La Cuesta","place":"neighbourhood"},"geometry":{"type":"Point","coordinates":[-106.5069669,35.0783807]}},{"type":"Feature","properties":{"id":151606611,"kind":"poi","ele":"1656","name":"Buena Ventura","place":"neighbourhood"},"geometry":{"type":"Point","coordinates":[-106.5317674,35.0761872]}},{"type":"Feature","properties":{"id":151699429,"kind":"poi","ele":"1668","name":"Hoffmantown","place":"hamlet"},"geometry":{"type":"Point","coordinates":[-106.5376082,35.1127276]}},{"type":"Feature","properties":{"id":151848966,"kind":"poi","ele":"1870","name":"Sandia Heights","place":"hamlet"},"geometry":{"type":"Point","coordinates":[-106.4914122,35.1769887]}},{"type":"Feature","properties":{"id":1004077539,"kind":"poi","ele":"1922","name":"U Mound","natural":"peak"},"geometry":{"type":"Point","coordinates":[-106.4807918,35.0812851]}},{"type":"Feature","properties":{"id":1789178035,"kind":"poi","amenity":"police","name":"John Carrillo Memorial Substation"},"geometry":{"type":"Point","coordinates":[-106.5529135,35.1379393]}},{"type":"Feature","properties":{"id":1797656235,"kind":"poi","name":"Tanoan East","place":"hamlet"},"geometry":{"type":"Point","coordinates":[-106.5168309,35.1567882]}},{"type":"Feature","properties":{"id":1797656237,"kind":"poi","name":"Tanoan","place":"neighbourhood"},"geometry":{"type":"Point","coordinates":[-106.5322525,35.1570676]}},{"type":"Feature","properties":{"id":1797676842,"kind":"poi","name":"Casa Grande/South Glenwood Hills","place":"neighbourhood"},"geometry":{"type":"Point","coordinates":[-106.490968,35.1193057]}},{"type":"Feature","properties":{"id":1797676843,"kind":"poi","name":"Oso Grande","place":"hamlet"},"geometry":{"type":"Point","coordinates":[-106.522897,35.1388908]}},{"type":"Feature","properties":{"id":1797676844,"kind":"poi","name":"Peppertree/Royal Oak","place":"hamlet"},"geometry":{"type":"Point","coordinates":[-106.5028506,35.1482154]}},{"type":"Feature","properties":{"id":1797676845,"kind":"poi","name":"Glenwood Hills","place":"hamlet"},"geometry":{"type":"Point","coordinates":[-106.4873025,35.1299737]}},{"type":"Feature","properties":{"id":1797676846,"kind":"poi","name":"Antelope Run","place":"hamlet"},"geometry":{"type":"Point","coordinates":[-106.5028984,35.1529624]}},{"type":"Feature","properties":{"id":1797676847,"kind":"poi","name":"Eisenhower Area","place":"hamlet"},"geometry":{"type":"Point","coordinates":[-106.5156443,35.1440144]}},{"type":"Feature","properties":{"id":1797676848,"kind":"poi","name":"Holiday Park","place":"neighbourhood"},"geometry":{"type":"Point","coordinates":[-106.5056021,35.1193759]}},{"type":"Feature","properties":{"id":1797676849,"kind":"poi","name":"Prospectors Ridge","place":"hamlet"},"geometry":{"type":"Point","coordinates":[-106.5094216,35.1467164]}},{"type":"Feature","properties":{"id":1797676850,"kind":"poi","name":"High Desert","place":"hamlet"},"geometry":{"type":"Point","coordinates":[-106.4855177,35.1514975]}},{"type":"Feature","properties":{"id":1797676851,"kind":"poi","name":"Academy Ridge East","place":"hamlet"},"geometry":{"type":"Point","coordinates":[-106.5150435,35.1493131]}},{"type":"Feature","properties":{"id":1797676852,"kind":"poi","name":"Eldorado Heights","place":"neighbourhood"},"geometry":{"type":"Point","coordinates":[-106.5060312,35.1269929]}},{"type":"Feature","properties":{"id":1797693594,"kind":"poi","name":"Embudo Canyon","place":"hamlet"},"geometry":{"type":"Point","coordinates":[-106.4912684,35.0985924]}},{"type":"Feature","properties":{"id":1797693596,"kind":"poi","name":"Manzano Manor","place":"hamlet"},"geometry":{"type":"Point","coordinates":[-106.50719,35.0820882]}},{"type":"Feature","properties":{"id":1797693599,"kind":"poi","name":"Matheson Park","place":"hamlet"},"geometry":{"type":"Point","coordinates":[-106.5206648,35.1129574]}},{"type":"Feature","properties":{"id":1797693605,"kind":"poi","name":"Enchanted Park","place":"hamlet"},"geometry":{"type":"Point","coordinates":[-106.50612,35.1116499]}},{"type":"Feature","properties":{"id":1797693609,"kind":"poi","name":"Vista Del Mundo","place":"hamlet"},"geometry":{"type":"Point","coordinates":[-106.4839728,35.0911132]}},{"type":"Feature","properties":{"id":1797693611,"kind":"poi","name":"Tramway Highpoint (HOA)","place":"hamlet"},"geometry":{"type":"Point","coordinates":[-106.4991219,35.1191302]}},{"type":"Feature","properties":{"id":1797693616,"kind":"poi","name":"Oñate","place":"hamlet"},"geometry":{"type":"Point","coordinates":[-106.5045721,35.1041399]}},{"type":"Feature","properties":{"id":1797693635,"kind":"poi","name":"San Gabriel Area","place":"hamlet"},"geometry":{"type":"Point","coordinates":[-106.5288601,35.1268507]}},{"type":"Feature","properties":{"id":1797693636,"kind":"poi","name":"Quail Ridge","place":"hamlet"},"geometry":{"type":"Point","coordinates":[-106.5021689,35.0908323]}},{"type":"Feature","properties":{"id":1797693638,"kind":"poi","name":"Cielito Lindo","place":"hamlet"},"geometry":{"type":"Point","coordinates":[-106.51985,35.1269929]}},{"type":"Feature","properties":{"id":1797693639,"kind":"poi","name":"Eastrange-Piedra Vista","place":"hamlet"},"geometry":{"type":"Point","coordinates":[-106.4877493,35.0823691]}},{"type":"Feature","properties":{"id":1797693642,"kind":"poi","name":"Monte Largo Hills","place":"hamlet"},"geometry":{"type":"Point","coordinates":[-106.493927,35.0909008]}},{"type":"Feature","properties":{"id":1797693643,"kind":"poi","name":"Cibola","place":"hamlet"},"geometry":{"type":"Point","coordinates":[-106.4910345,35.1120764]}},{"type":"Feature","properties":{"id":1797705404,"kind":"poi","name":"La Mesa","place":"hamlet"},"geometry":{"type":"Point","coordinates":[-106.5597419,35.080794]}},{"type":"Feature","properties":{"id":1797705409,"kind":"poi","name":"Singing Arrow","place":"hamlet"},"geometry":{"type":"Point","coordinates":[-106.5080483,35.0661075]}},{"type":"Feature","properties":{"id":1805360304,"kind":"poi","amenity":"fire_station","name":"Albuquerque Fire Station 16"},"geometry":{"type":"Point","coordinates":[-106.5160794,35.1357749]}},{"type":"Feature","properties":{"id":1845593577,"kind":"poi","amenity":"drinking_water"},"geometry":{"type":"Point","coordinates":[-106.5382943,35.1023004]}},{"type":"Feature","properties":{"id":1847893581,"kind":"poi","amenity":"pharmacy","name":"Walgreens"},"geometry":{"type":"Point","coordinates":[-106.558383,35.1593475]}},{"type":"Feature","properties":{"id":1849317325,"kind":"poi","amenity":"pharmacy","name":"Walgreens"},"geometry":{"type":"Point","coordinates":[-106.5430005,35.1734915]}},{"type":"Feature","properties":{"id":1850100677,"kind":"poi","amenity":"drinking_water"},"geometry":{"type":"Point","coordinates":[-106.5532852,35.1386753]}},{"type":"Feature","properties":{"id":1850208316,"kind":"poi","amenity":"drinking_water"},"geometry":{"type":"Point","coordinates":[-106.5518933,35.137741]}},{"type":"Feature","properties":{"id":1858003569,"kind":"poi","amenity":"pharmacy","name":"Walgreens","ref":"6121"},"geometry":{"type":"Point","coordinates":[-106.5500569,35.130173]}},{"type":"Feature","properties":{"id":1869447257,"kind":"poi","amenity":"drinking_water"},"geometry":{"type":"Point","coordinates":[-106.4982667,35.1012738]}},{"type":"Feature","properties":{"id":2035851156,"kind":"poi","amenity":"fire_station","name":"Albuquerque Fire Station 8"},"geometry":{"type":"Point","coordinates":[-106.495901,35.0939782]}},{"type":"Feature","properties":{"id":2081181353,"kind":"poi","amenity":"pharmacy","name":"Walgreens"},"geometry":{"type":"Point","coordinates":[-106.532407,35.1084124]}},{"type":"Feature","properties":{"id":2126227558,"kind":"poi","amenity":"drinking_water"},"geometry":{"type":"Point","coordinates":[-106.4958965,35.1717545]}},{"type":"Feature","properties":{"id":2247426145,"kind":"poi","amenity":"drinking_water"},"geometry":{"type":"Point","coordinates":[-106.5596698,35.0694342]}},{"type":"Feature","properties":{"id":2247426155,"kind":"poi","amenity":"drinking_water"},"geometry":{"type":"Point","coordinates":[-106.5381036,35.0867257]}},{"type":"Feature","properties":{"id":2371213685,"kind":"poi","amenity":"pharmacy","name":"CVS Pharmacy"},"geometry":{"type":"Point","coordinates":[-106.4972298,35.1729505]}},{"type":"Feature","properties":{"id":2509947276,"kind":"poi","amenity":"pharmacy","name":"CVS Pharmacy"},"geometry":{"type":"Point","coordinates":[-106.533647,35.108185]}},{"type":"Feature","properties":{"id":3213604718,"kind":"poi","amenity":"pharmacy","name":"Walgreens Pharmacy"},"geometry":{"type":"Point","coordinates":[-106.4966688,35.0939529]}},{"type":"Feature","properties":{"id":3213604794,"kind":"poi","amenity":"pharmacy","name":"CVS Pharmacy"},"geometry":{"type":"Point","coordinates":[-106.4966795,35.0955065]}},{"type":"Feature","properties":{"id":3303478995,"kind":"poi","amenity":"fire_station"},"geometry":{"type":"Point","coordinates":[-106.5095623,35.1736919]}},{"type":"Feature","properties":{"id":4518607845,"kind":"poi","amenity":"pharmacy","name":"CVS Pharmacy"},"geometry":{"type":"Point","coordinates":[-106.54807,35.1298442]}},{"type":"Feature","properties":{"id":4999346983,"kind":"poi","amenity":"police","name":"Bernalillo County 911 Dispatch Center"},"geometry":{"type":"Point","coordinates":[-106.5233032,35.1758467]}},{"type":"Feature","properties":{"id":5536908410,"kind":"poi","name":"East End Addition","place":"suburb"},"geometry":{"type":"Point","coordinates":[-106.5528574,35.0887122]}},{"type":"Feature","properties":{"id":5544069904,"kind":"poi","name":"North Albuquerque Acres","place":"suburb"},"geometry":{"type":"Point","coordinates":[-106.5172688,35.1793011]}},{"type":"Feature","properties":{"id":6518979817,"kind":"poi","amenity":"doctors","name":"Epiphany Dermatology"},"geometry":{"type":"Point","coordinates":[-106.5511573,35.09196]}},{"type":"Feature","properties":{"id":6525624962,"kind":"poi","amenity":"animal_shelter","name":"City of Albuquerque Animal Welfare Department"},"geometry":{"type":"Point","coordinates":[-106.5449016,35.0862663]}},{"type":"Feature","properties":{"id":6849048417,"kind":"poi","amenity":"pharmacy","name":"Walmart Pharmacy"},"geometry":{"type":"Point","coordinates":[-106.517839,35.1094403]}},{"type":"Feature","properties":{"id":7798667228,"kind":"poi","amenity":"pharmacy","name":"Smiths Pharmacy"},"geometry":{"type":"Point","coordinates":[-106.5580301,35.1756856]}},{"type":"Feature","properties":{"id":7884812406,"kind":"poi","amenity":"shelter"},"geometry":{"type":"Point","coordinates":[-106.5395427,35.0875684]}},{"type":"Feature","properties":{"id":8439874531,"kind":"poi","amenity":"pharmacy","name":"Walgreens"},"geometry":{"type":"Point","coordinates":[-106.5258018,35.1474139]}},{"type":"Feature","properties":{"id":9509813332,"kind":"poi","amenity":"drinking_water"},"geometry":{"type":"Point","coordinates":[-106.5595475,35.0624561]}},{"type":"Feature","properties":{"id":9515605730,"kind":"poi","amenity":"drinking_water"},"geometry":{"type":"Point","coordinates":[-106.5586105,35.0633212]}},{"type":"Feature","properties":{"id":10148571870,"kind":"poi","ele":"2061","natural":"peak"},"geometry":{"type":"Point","coordinates":[-106.4803585,35.1079596]}},{"type":"Feature","properties":{"id":10148571871,"kind":"poi","natural":"peak"},"geometry":{"type":"Point","coordinates":[-106.4427942,35.1331017]}},{"type":"Feature","properties":{"id":10148571872,"kind":"poi","natural":"peak"},"geometry":{"type":"Point","coordinates":[-106.4444679,35.1339747]}},{"type":"Feature","properties":{"id":10148571873,"kind":"poi","ele":"2361","natural":"peak"},"geometry":{"type":"Point","coordinates":[-106.45679,35.1405463]}},{"type":"Feature","properties":{"id":10148571874,"kind":"poi","ele":"2166","natural":"peak"},"geometry":{"type":"Point","coordinates":[-106.4678621,35.0864841]}},{"type":"Feature","properties":{"id":10148571875,"kind":"poi","ele":"2111","natural":"peak"},"geometry":{"type":"Point","coordinates":[-106.4692891,35.0719882]}},{"type":"Feature","properties":{"id":10148571876,"kind":"poi","ele":"2099","natural":"peak"},"geometry":{"type":"Point","coordinates":[-106.4727652,35.0767736]}},{"type":"Feature","properties":{"id":10148571877,"kind":"poi","natural":"peak"},"geometry":{"type":"Point","coordinates":[-106.463989,35.0778887]}},{"type":"Feature","properties":{"id":10148571878,"kind":"poi","ele":"2334","natural":"peak"},"geometry":{"type":"Point","coordinates":[-106.4617038,35.0844472]}},{"type":"Feature","properties":{"id":10148571879,"kind":"poi","natural":"peak"},"geometry":{"type":"Point","coordinates":[-106.4554489,35.0856588]}},{"type":"Feature","properties":{"id":10148571880,"kind":"poi","ele":"2387","natural":"peak"},"geometry":{"type":"Point","coordinates":[-106.4494729,35.0911984]}},{"type":"Feature","properties":{"id":10148571881,"kind":"poi","ele":"2525","natural":"peak"},"geometry":{"type":"Point","coordinates":[-106.4477348,35.1349179]}},{"type":"Feature","properties":{"id":10148571882,"kind":"poi","natural":"peak"},"geometry":{"type":"Point","coordinates":[-106.4654374,35.1247877]}},{"type":"Feature","properties":{"id":10148571883,"kind":"poi","ele":"2303","natural":"peak"},"geometry":{"type":"Point","coordinates":[-106.4654374,35.1090436]}},{"type":"Feature","properties":{"id":10148571884,"kind":"poi","ele":"2389","natural":"peak"},"geometry":{"type":"Point","coordinates":[-106.4552879,35.1092104]}},{"type":"Feature","properties":{"id":10148571885,"kind":"poi","ele":"2552","natural":"peak"},"geometry":{"type":"Point","coordinates":[-106.457777,35.1165825]}},{"type":"Feature","properties":{"id":10148571886,"kind":"poi","ele":"2377","natural":"peak"},"geometry":{"type":"Point","coordinates":[-106.4724755,35.1178112]}},{"type":"Feature","properties":{"id":10148571887,"kind":"poi","ele":"2478","natural":"peak"},"geometry":{"type":"Point","coordinates":[-106.4666176,35.1159331]}},{"type":"Feature","properties":{"id":10148571892,"kind":"poi","ele":"2305","natural":"peak"},"geometry":{"type":"Point","coordinates":[-106.4595902,35.1785307]}},{"type":"Feature","properties":{"id":10148574431,"kind":"poi","ele":"2381","natural":"peak"},"geometry":{"type":"Point","coordinates":[-106.4490867,35.1603894]}},{"type":"Feature","properties":{"id":10274570346,"kind":"poi","natural":"peak"},"geometry":{"type":"Point","coordinates":[-106.4633024,35.1535343]}},{"type":"Feature","properties":{"id":10274570347,"kind":"poi","natural":"peak"},"geometry":{"type":"Point","coordinates":[-106.4478609,35.1549663]}},{"type":"Feature","properties":{"id":10274570348,"kind":"poi","natural":"peak"},"geometry":{"type":"Point","coordinates":[-106.4558834,35.1550124]}},{"type":"Feature","properties":{"id":10312082962,"kind":"poi","natural":"peak"},"geometry":{"type":"Point","coordinates":[-106.4797282,35.0643529]}},{"type":"Feature","properties":{"id":10312082963,"kind":"poi","natural":"peak"},"geometry":{"type":"Point","coordinates":[-106.4832312,35.0761722]}},{"type":"Feature","properties":{"id":10312082964,"kind":"poi","natural":"peak"},"geometry":{"type":"Point","coordinates":[-106.4846849,35.0673386]}},{"type":"Feature","properties":{"id":10312168799,"kind":"poi","natural":"peak"},"geometry":{"type":"Point","coordinates":[-106.480903,35.0915561]}},{"type":"Feature","properties":{"id":10312168917,"kind":"poi","natural":"peak"},"geometry":{"type":"Point","coordinates":[-106.4423811,35.0926951]}},{"type":"Feature","properties":{"id":10312169133,"kind":"poi","natural":"peak"},"geometry":{"type":"Point","coordinates":[-106.4613819,35.1064917]}},{"type":"Feature","properties":{"id":10314178126,"kind":"poi","natural":"peak"},"geometry":{"type":"Point","coordinates":[-106.4609474,35.148306]}},{"type":"Feature","properties":{"id":10900536397,"kind":"poi","amenity":"doctors","name":"Presbyterian Heart and Vascular Care"},"geometry":{"type":"Point","coordinates":[-106.5575149,35.1768814]}},{"type":"Feature","properties":{"id":10943438561,"kind":"poi","amenity":"fire_station","name":"Albuquerque Fire Station 9"},"geometry":{"type":"Point","coordinates":[-106.536134,35.1085132]}},{"type":"Feature","properties":{"id":10964553205,"kind":"poi","amenity":"clinic","name":"UNM Women and Children's Health Clinic"},"geometry":{"type":"Point","coordinates":[-106.5318485,35.1071997]}},{"type":"Feature","properties":{"id":11114952825,"kind":"poi","amenity":"shelter"},"geometry":{"type":"Point","coordinates":[-106.4905437,35.1522237]}},{"type":"Feature","properties":{"id":11114952841,"kind":"poi","access":"yes","amenity":"drinking_water"},"geometry":{"type":"Point","coordinates":[-106.4904069,35.1523655]}},{"type":"Feature","properties":{"id":11585808626,"kind":"poi","amenity":"clinic","name":"Enchanted Wellness"},"geometry":{"type":"Point","coordinates":[-106.531569,35.1377923]}},{"type":"Feature","properties":{"id":12156759566,"kind":"poi","amenity":"pharmacy","name":"Menaul Compounding Pharmacy"},"geometry":{"type":"Point","coordinates":[-106.513748,35.1090666]}},{"type":"Feature","properties":{"id":12555850146,"kind":"poi","amenity":"clinic","name":"Planned Parenthood - Eubank Health Center"},"geometry":{"type":"Point","coordinates":[-106.5327416,35.1341359]}},{"type":"Feature","properties":{"id":12878096850,"kind":"poi","amenity":"clinic","name":"Doctors Urgent Care Group"},"geometry":{"type":"Point","coordinates":[-106.5263295,35.1467367]}},{"type":"Feature","properties":{"id":12882709310,"kind":"poi","amenity":"pharmacy","name":"Arnett Local Pharmacy & Compounding"},"geometry":{"type":"Point","coordinates":[-106.5594437,35.1608049]}},{"type":"Feature","properties":{"id":12885321539,"kind":"poi","amenity":"clinic","name":"Davita Kidney Care"},"geometry":{"type":"Point","coordinates":[-106.527622,35.0805803]}},{"type":"Feature","properties":{"id":13097223591,"kind":"poi","amenity":"doctors","name":"High Desert Dermatology"},"geometry":{"type":"Point","coordinates":[-106.4998221,35.1527355]}},{"type":"Feature","properties":{"id":13962491289,"kind":"poi","amenity":"shelter"},"geometry":{"type":"Point","coordinates":[-106.4918171,35.0735843]}},{"type":"Feature","properties":{"id":14055195541,"kind":"poi","amenity":"clinic","name":"Christus St Vincent Multicare Specialty Clinic"},"geometry":{"type":"Point","coordinates":[-106.558824,35.171325]}},{"type":"Feature","properties":{"id":14055195543,"kind":"poi","amenity":"clinic","name":"Lovelace UNM Outpatient Rehabilitation Clinic"},"geometry":{"type":"Point","coordinates":[-106.558824,35.1710028]}},{"type":"Feature","properties":{"id":151423256,"kind":"poi","ele":"2085","name":"Casa Loma","place":"hamlet"},"geometry":{"type":"Point","coordinates":[-106.3858574,35.1108792]}},{"type":"Feature","properties":{"id":151872224,"kind":"poi","ele":"1931","name":"Canyon Estates","place":"hamlet"},"geometry":{"type":"Point","coordinates":[-106.3800785,35.0823874]}},{"type":"Feature","properties":{"id":357599310,"kind":"poi","ele":"2982","name":"South Sandia Peak","natural":"peak"},"geometry":{"type":"Point","coordinates":[-106.4306973,35.1205889]}},{"type":"Feature","properties":{"id":3302585167,"kind":"poi","amenity":"police","name":"Bernalillo County Sheriff East Mountain Substation"},"geometry":{"type":"Point","coordinates":[-106.388919,35.07658]}},{"type":"Feature","properties":{"id":3562327290,"kind":"poi","amenity":"fire_station","name":"Bernalillo County Fire Station 40 (Tijeras)","ref":"40"},"geometry":{"type":"Point","coordinates":[-106.388812,35.0764028]}},{"type":"Feature","properties":{"id":3911718998,"kind":"poi","ele":"2053","natural":"peak"},"geometry":{"type":"Point","coordinates":[-106.4055974,35.0752486]}},{"type":"Feature","properties":{"id":5526587023,"kind":"poi","name":"Tijeras","place":"village"},"geometry":{"type":"Point","coordinates":[-106.3879441,35.0796355]}},{"type":"Feature","properties":{"id":7073913724,"kind":"poi","amenity":"drinking_water"},"geometry":{"type":"Point","coordinates":[-106.3840712,35.0743551]}},{"type":"Feature","properties":{"id":7257521262,"kind":"poi","ele":"2878.4","natural":"peak"},"geometry":{"type":"Point","coordinates":[-106.429728,35.1094524]}},{"type":"Feature","properties":{"id":7257521263,"kind":"poi","ele":"2803","natural":"peak"},"geometry":{"type":"Point","coordinates":[-106.430219,35.1019205]}},{"type":"Feature","properties":{"id":7257521273,"kind":"poi","ele":"2385","natural":"peak"},"geometry":{"type":"Point","coordinates":[-106.4245102,35.0786778]}},{"type":"Feature","properties":{"id":7257521274,"kind":"poi","ele":"2448","natural":"peak"},"geometry":{"type":"Point","coordinates":[-106.4000817,35.0937155]}},{"type":"Feature","properties":{"id":7257521275,"kind":"poi","ele":"2684","natural":"peak"},"geometry":{"type":"Point","coordinates":[-106.4074643,35.1088578]}},{"type":"Feature","properties":{"id":10148571864,"kind":"poi","ele":"2920","natural":"peak"},"geometry":{"type":"Point","coordinates":[-106.4162564,35.1642048]}},{"type":"Feature","properties":{"id":10148571865,"kind":"poi","ele":"2563","natural":"peak"},"geometry":{"type":"Point","coordinates":[-106.429123,35.1650643]}},{"type":"Feature","properties":{"id":10148571866,"kind":"poi","ele":"2847","natural":"peak"},"geometry":{"type":"Point","coordinates":[-106.4163154,35.1423624]}},{"type":"Feature","properties":{"id":10148571867,"kind":"poi","ele":"2464","natural":"peak"},"geometry":{"type":"Point","coordinates":[-106.3990688,35.131281]}},{"type":"Feature","properties":{"id":10148571868,"kind":"poi","ele":"2226","natural":"peak"},"geometry":{"type":"Point","coordinates":[-106.389209,35.1178814]}},{"type":"Feature","properties":{"id":10148571869,"kind":"poi","ele":"2329","natural":"peak"},"geometry":{"type":"Point","coordinates":[-106.3954854,35.1172758]}},{"type":"Feature","properties":{"id":10148574478,"kind":"poi","ele":"2304","natural":"peak"},"geometry":{"type":"Point","coordinates":[-106.3948524,35.1120189]}},{"type":"Feature","properties":{"id":10181493928,"kind":"poi","natural":"peak"},"geometry":{"type":"Point","coordinates":[-106.3996482,35.0907155]}},{"type":"Feature","properties":{"id":10181493947,"kind":"poi","natural":"peak"},"geometry":{"type":"Point","coordinates":[-106.4072603,35.0662059]}},{"type":"Feature","properties":{"id":10181493948,"kind":"poi","ele":"2118","natural":"peak"},"geometry":{"type":"Point","coordinates":[-106.4114714,35.0657053]}},{"type":"Feature","properties":{"id":10181493949,"kind":"poi","natural":"peak"},"geometry":{"type":"Point","coordinates":[-106.4298821,35.0607261]}},{"type":"Feature","properties":{"id":10181493952,"kind":"poi","natural":"peak"},"geometry":{"type":"Point","coordinates":[-106.4267439,35.0743678]}},{"type":"Feature","properties":{"id":10181493953,"kind":"poi","natural":"peak"},"geometry":{"type":"Point","coordinates":[-106.4259124,35.0749034]}},{"type":"Feature","properties":{"id":10181493982,"kind":"poi","natural":"peak"},"geometry":{"type":"Point","coordinates":[-106.429646,35.0710575]}},{"type":"Feature","properties":{"id":10279185742,"kind":"poi","natural":"peak"},"geometry":{"type":"Point","coordinates":[-106.4371669,35.1775617]}},{"type":"Feature","properties":{"id":10312168915,"kind":"poi","natural":"peak"},"geometry":{"type":"Point","coordinates":[-106.4387548,35.0909613]}},{"type":"Feature","properties":{"id":151414063,"kind":"poi","ele":"1525","name":"Alameda","place":"suburb"},"geometry":{"type":"Point","coordinates":[-106.6190957,35.188321]}},{"type":"Feature","properties":{"id":151418987,"kind":"poi","ele":"1531","name":"Corrales","place":"village"},"geometry":{"type":"Point","coordinates":[-106.6069727,35.2382346]}},{"type":"Feature","properties":{"id":2052292671,"kind":"poi","amenity":"pharmacy","name":"Walgreens"},"geometry":{"type":"Point","coordinates":[-106.6565494,35.2422368]}},{"type":"Feature","properties":{"id":2052292781,"kind":"poi","amenity":"pharmacy","name":"CVS Pharmacy","ref":"7552"},"geometry":{"type":"Point","coordinates":[-106.6568987,35.2407779]}},{"type":"Feature","properties":{"id":7036522485,"kind":"poi","amenity":"clinic","name":"Quest Diagnostics"},"geometry":{"type":"Point","coordinates":[-106.679144,35.2085671]}},{"type":"Feature","properties":{"id":7130619163,"kind":"poi","amenity":"fire_station","name":"Bernalillo County Fire Station 31 (North Valley)"},"geometry":{"type":"Point","coordinates":[-106.613316,35.1932807]}},{"type":"Feature","properties":{"id":8489814183,"kind":"poi","amenity":"pharmacy","name":"Walmart Pharmacy"},"geometry":{"type":"Point","coordinates":[-106.6572737,35.2047949]}},{"type":"Feature","properties":{"id":10270744850,"kind":"poi","amenity":"doctors","name":"Cottonwood Family Medicine"},"geometry":{"type":"Point","coordinates":[-106.6513948,35.2006515]}},{"type":"Feature","properties":{"id":10277071212,"kind":"poi","amenity":"pharmacy","name":"CVS Pharmacy"},"geometry":{"type":"Point","coordinates":[-106.6647945,35.1859048]}},{"type":"Feature","properties":{"id":10277071255,"kind":"poi","amenity":"clinic","name":"X-Ray Associates"},"geometry":{"type":"Point","coordinates":[-106.6657443,35.1885655]}},{"type":"Feature","properties":{"id":10277071256,"kind":"poi","amenity":"doctors","name":"Lovelace Medical Group"},"geometry":{"type":"Point","coordinates":[-106.6663568,35.1900559]}},{"type":"Feature","properties":{"id":10277071257,"kind":"poi","amenity":"clinic","name":"Duke City Urgent Care"},"geometry":{"type":"Point","coordinates":[-106.6664443,35.1895967]}},{"type":"Feature","properties":{"id":10647769487,"kind":"poi","amenity":"clinic","name":"XRANM Northwest Imaging Center"},"geometry":{"type":"Point","coordinates":[-106.6452962,35.2022076]}},{"type":"Feature","properties":{"id":12465964401,"kind":"poi","amenity":"drinking_water"},"geometry":{"type":"Point","coordinates":[-106.5684418,35.1833845]}},{"type":"Feature","properties":{"id":12875788853,"kind":"poi","amenity":"clinic","name":"Passport Health Rio Rancho Travel Clinic"},"geometry":{"type":"Point","coordinates":[-106.6553057,35.2367669]}},{"type":"Feature","properties":{"id":12974790394,"kind":"poi","amenity":"pharmacy","name":"Corrales Pharmacy"},"geometry":{"type":"Point","coordinates":[-106.6120129,35.2309668]}},{"type":"Feature","properties":{"id":14060095451,"kind":"poi","amenity":"doctors","name":"Epiphany Dermatology of Rio Rancho, NM"},"geometry":{"type":"Point","coordinates":[-106.6630579,35.2206998]}},{"type":"Feature","properties":{"id":151323478,"kind":"poi","ele":"2093","name":"Evergreen Hills Subdivision","place":"hamlet"},"geometry":{"type":"Point","coordinates":[-106.4875237,35.2300426]}},{"type":"Feature","properties":{"id":151600681,"kind":"poi","ele":"2005","name":"Tierra Monte Subdivision","place":"hamlet"},"geometry":{"type":"Point","coordinates":[-106.4864124,35.20921]}},{"type":"Feature","properties":{"id":357598818,"kind":"poi","ele":"3184","name":"North Sandia Peak","natural":"peak"},"geometry":{"type":"Point","coordinates":[-106.4567155,35.2351313]}},{"type":"Feature","properties":{"id":1319676267,"kind":"poi","ele":"2947","name":"Hail Peak","natural":"peak"},"geometry":{"type":"Point","coordinates":[-106.4451254,35.1976286]}},{"type":"Feature","properties":{"id":1319676268,"kind":"poi","name":"Dragons Tooth","natural":"peak"},"geometry":{"type":"Point","coordinates":[-106.4435451,35.1963645]}},{"type":"Feature","properties":{"id":1511839839,"kind":"poi","ele":"3127","name":"The Needle","natural":"peak"},"geometry":{"type":"Point","coordinates":[-106.4588683,35.2275021]}},{"type":"Feature","properties":{"id":2346942325,"kind":"poi","ele":"3255","name":"Sandia Crest","natural":"peak"},"geometry":{"type":"Point","coordinates":[-106.4496247,35.2100245]}},{"type":"Feature","properties":{"id":6679978640,"kind":"poi","ele":"2733","name":"The Prow","natural":"peak"},"geometry":{"type":"Point","coordinates":[-106.4662801,35.231148]}},{"type":"Feature","properties":{"id":6679978641,"kind":"poi","ele":"3048","name":"Tombstone","natural":"peak"},"geometry":{"type":"Point","coordinates":[-106.4533077,35.220364]}},{"type":"Feature","properties":{"id":6679978642,"kind":"poi","ele":"3051","natural":"peak"},"geometry":{"type":"Point","coordinates":[-106.458071,35.218337]}},{"type":"Feature","properties":{"id":6679978643,"kind":"poi","ele":"3124","natural":"peak"},"geometry":{"type":"Point","coordinates":[-106.457144,35.2155009]}},{"type":"Feature","properties":{"id":8295580081,"kind":"poi","ele":"3188","natural":"peak"},"geometry":{"type":"Point","coordinates":[-106.4533636,35.2260056]}},{"type":"Feature","properties":{"id":8567559000,"kind":"poi","ele":"2488","name":"Rincón Peak","natural":"peak"},"geometry":{"type":"Point","coordinates":[-106.4936972,35.2473386]}},{"type":"Feature","properties":{"id":8567629324,"kind":"poi","ele":"2523","name":"Rincón High Point","natural":"peak"},"geometry":{"type":"Point","coordinates":[-106.4867235,35.245733]}},{"type":"Feature","properties":{"id":8567661500,"kind":"poi","ele":"2499","name":"Juan Tabo Peak","natural":"peak"},"geometry":{"type":"Point","coordinates":[-106.4986969,35.2398096]}},{"type":"Feature","properties":{"id":10148571843,"kind":"poi","natural":"peak"},"geometry":{"type":"Point","coordinates":[-106.4676905,35.2074644]}},{"type":"Feature","properties":{"id":10148571888,"kind":"poi","ele":"2263","natural":"peak"},"geometry":{"type":"Point","coordinates":[-106.4651907,35.1816745]}},{"type":"Feature","properties":{"id":10148571889,"kind":"poi","ele":"2562","natural":"peak"},"geometry":{"type":"Point","coordinates":[-106.4729691,35.2428853]}},{"type":"Feature","properties":{"id":10148571890,"kind":"poi","ele":"3029","natural":"peak"},"geometry":{"type":"Point","coordinates":[-106.4531422,35.2446925]}},{"type":"Feature","properties":{"id":10148571891,"kind":"poi","ele":"2394","natural":"peak"},"geometry":{"type":"Point","coordinates":[-106.4698926,35.1970089]}},{"type":"Feature","properties":{"id":10148571893,"kind":"poi","natural":"peak"},"geometry":{"type":"Point","coordinates":[-106.4592254,35.2193198]}},{"type":"Feature","properties":{"id":10148574301,"kind":"poi","ele":"2488","natural":"peak"},"geometry":{"type":"Point","coordinates":[-106.4820778,35.2457768]}},{"type":"Feature","properties":{"id":10155563070,"kind":"poi","ele":"3081","name":"The Thumb","natural":"peak"},"geometry":{"type":"Point","coordinates":[-106.4542794,35.204383]}},{"type":"Feature","properties":{"id":10181495130,"kind":"poi","ele":"2544","natural":"peak"},"geometry":{"type":"Point","coordinates":[-106.446045,35.1819332]}},{"type":"Feature","properties":{"id":10181495131,"kind":"poi","natural":"peak"},"geometry":{"type":"Point","coordinates":[-106.458115,35.2046766]}},{"type":"Feature","properties":{"id":10181495132,"kind":"poi","ele":"2686","natural":"peak"},"geometry":{"type":"Point","coordinates":[-106.4650297,35.2156735]}},{"type":"Feature","properties":{"id":10181495133,"kind":"poi","natural":"peak"},"geometry":{"type":"Point","coordinates":[-106.4625889,35.2189999]}},{"type":"Feature","properties":{"id":10181495134,"kind":"poi","natural":"peak"},"geometry":{"type":"Point","coordinates":[-106.4614731,35.2190218]}},{"type":"Feature","properties":{"id":10181495135,"kind":"poi","natural":"peak"},"geometry":{"type":"Point","coordinates":[-106.4601159,35.2197668]}},{"type":"Feature","properties":{"id":10181495212,"kind":"poi","natural":"peak"},"geometry":{"type":"Point","coordinates":[-106.4716762,35.2055621]}},{"type":"Feature","properties":{"id":10181495219,"kind":"poi","natural":"peak"},"geometry":{"type":"Point","coordinates":[-106.4668,35.21087]}},{"type":"Feature","properties":{"id":10181496308,"kind":"poi","ele":"2926","name":"Whiskey Peak","natural":"peak"},"geometry":{"type":"Point","coordinates":[-106.4568791,35.201325]}},{"type":"Feature","properties":{"id":10274569237,"kind":"poi","natural":"peak"},"geometry":{"type":"Point","coordinates":[-106.4728135,35.1937792]}},{"type":"Feature","properties":{"id":10274569266,"kind":"poi","natural":"peak"},"geometry":{"type":"Point","coordinates":[-106.4696378,35.1874487]}},{"type":"Feature","properties":{"id":10274569267,"kind":"poi","natural":"peak"},"geometry":{"type":"Point","coordinates":[-106.4702547,35.1890226]}},{"type":"Feature","properties":{"id":10274569268,"kind":"poi","natural":"peak"},"geometry":{"type":"Point","coordinates":[-106.4706463,35.1856906]}},{"type":"Feature","properties":{"id":10274569269,"kind":"poi","natural":"peak"},"geometry":{"type":"Point","coordinates":[-106.4711988,35.1872777]}},{"type":"Feature","properties":{"id":10274569270,"kind":"poi","natural":"peak"},"geometry":{"type":"Point","coordinates":[-106.4722717,35.1885359]}},{"type":"Feature","properties":{"id":10276988944,"kind":"poi","natural":"peak"},"geometry":{"type":"Point","coordinates":[-106.5045333,35.2119569]}},{"type":"Feature","properties":{"id":10276990810,"kind":"poi","natural":"peak"},"geometry":{"type":"Point","coordinates":[-106.4925005,35.2165394]}},{"type":"Feature","properties":{"id":10582666121,"kind":"poi","natural":"peak"},"geometry":{"type":"Point","coordinates":[-106.4820027,35.2499606]}},{"type":"Feature","properties":{"id":10582666122,"kind":"poi","natural":"peak"},"geometry":{"type":"Point","coordinates":[-106.4826679,35.2495357]}},{"type":"Feature","properties":{"id":10582666123,"kind":"poi","natural":"peak"},"geometry":{"type":"Point","coordinates":[-106.4806563,35.2493648]}},{"type":"Feature","properties":{"id":10582666124,"kind":"poi","natural":"peak"},"geometry":{"type":"Point","coordinates":[-106.4817667,35.2487296]}},{"type":"Feature","properties":{"id":10720336911,"kind":"poi","ele":"3051","name":"The Chimney","natural":"peak"},"geometry":{"type":"Point","coordinates":[-106.4540119,35.2129929]}},{"type":"Feature","properties":{"id":10737273476,"kind":"poi","name":"The Sentinel","natural":"peak"},"geometry":{"type":"Point","coordinates":[-106.4533313,35.2116534]}},{"type":"Feature","properties":{"id":10737332900,"kind":"poi","name":"Alioth","natural":"peak"},"geometry":{"type":"Point","coordinates":[-106.4426978,35.1988995]}},{"type":"Feature","properties":{"id":10738323936,"kind":"poi","natural":"peak"},"geometry":{"type":"Point","coordinates":[-106.4560269,35.2157382]}},{"type":"Feature","properties":{"id":11378489249,"kind":"poi","natural":"peak"},"geometry":{"type":"Point","coordinates":[-106.4599161,35.2099035]}},{"type":"Feature","properties":{"id":357592744,"kind":"poi","ele":"2723","name":"Capulin Peak","natural":"peak"},"geometry":{"type":"Point","coordinates":[-106.409034,35.2191045]}},{"type":"Feature","properties":{"id":357597551,"kind":"poi","ele":"2647","name":"Palomas Peak","natural":"peak"},"geometry":{"type":"Point","coordinates":[-106.4047462,35.2339313]}},{"type":"Feature","properties":{"id":357621400,"kind":"poi","ele":"2684","name":"Tecolote Peak","natural":"peak"},"geometry":{"type":"Point","coordinates":[-106.3994684,35.198099]}},{"type":"Feature","properties":{"id":6679978644,"kind":"poi","ele":"3014","name":"Jawbone","natural":"peak"},"geometry":{"type":"Point","coordinates":[-106.4360113,35.1892501]}},{"type":"Feature","properties":{"id":8295580063,"kind":"poi","ele":"3057","natural":"peak"},"geometry":{"type":"Point","coordinates":[-106.438842,35.1983434]}},{"type":"Feature","properties":{"id":10148571844,"kind":"poi","ele":"2881","natural":"peak"},"geometry":{"type":"Point","coordinates":[-106.4368022,35.2294251]}},{"type":"Feature","properties":{"id":10148571845,"kind":"poi","ele":"2806","natural":"peak"},"geometry":{"type":"Point","coordinates":[-106.4300939,35.2260181]}},{"type":"Feature","properties":{"id":10148571862,"kind":"poi","natural":"peak"},"geometry":{"type":"Point","coordinates":[-106.4014185,35.2164712]}},{"type":"Feature","properties":{"id":10148571863,"kind":"poi","ele":"2468","natural":"peak"},"geometry":{"type":"Point","coordinates":[-106.4359975,35.1801662]}}],"attribution":"© OpenStreetMap contributors"}
