{"type":"FeatureCollection","features":[{"type":"Feature","properties":{"ele":"1539","name":"Rio Puerco","place":"hamlet"},"geometry":{"type":"Point","coordinates":[-106.993644,34.79311]}},{"type":"Feature","properties":{"ele":"1665","name":"Hidden Mountain","natural":"peak"},"geometry":{"type":"Point","coordinates":[-107.000033,34.781443]}},{"type":"Feature","properties":{"highway":"track"},"geometry":{"type":"LineString","coordinates":[[-106.980479,34.752573],[-106.980323,34.752083],[-106.98036,34.751695],[-106.980389,34.751541],[-106.980486,34.751395],[-106.980632,34.751314],[-106.981344,34.751174],[-106.981804,34.751245],[-106.982221,34.751863],[-106.98322,34.753237],[-106.983637,34.753992],[-106.984026,34.755526],[-106.984027,34.756831],[-106.983916,34.757839],[-106.983973,34.759419],[-106.984012,34.759611]]}},{"type":"Feature","properties":{"highway":"track"},"geometry":{"type":"LineString","coordinates":[[-106.974782,34.750575],[-106.974697,34.750971],[-106.974561,34.751206],[-106.974386,34.751384],[-106.974162,34.751563],[-106.973938,34.751838],[-106.973666,34.752057],[-106.973482,34.752414],[-106.973395,34.752761],[-106.973367,34.753052],[-106.97326,34.753303],[-106.972853,34.753967],[-106.972747,34.754267],[-106.972543,34.754558],[-106.97231,34.755052],[-106.972107,34.755562],[-106.971806,34.756048],[-106.971622,34.756476],[-106.971399,34.756776],[-106.971161,34.757205],[-106.971183,34.757517],[-106.970742,34.75817],[-106.970659,34.758468],[-106.970714,34.759224],[-106.971187,34.760165],[-106.971879,34.76193],[-106.972073,34.762252],[-106.972101,34.76255],[-106.97249,34.763466],[-106.972658,34.763696],[-106.972658,34.763902],[-106.97313,34.764728],[-106.973905,34.76654],[-106.973933,34.7667],[-106.974017,34.766769],[-106.97435,34.767824],[-106.974738,34.768397],[-106.975044,34.768649],[-106.982008,34.771677]]}},{"type":"Feature","properties":{"highway":"track"},"geometry":{"type":"LineString","coordinates":[[-106.974787,34.750055],[-106.974599,34.767641],[-106.974738,34.768397]]}},{"type":"Feature","properties":{"highway":"track"},"geometry":{"type":"LineString","coordinates":[[-107.06604,34.842779],[-107.064979,34.842927],[-107.062341,34.844117],[-107.061175,34.844781]]}},{"type":"Feature","properties":{"highway":"track"},"geometry":{"type":"LineString","coordinates":[[-107.002549,34.79398],[-107.001519,34.794492]]}},{"type":"Feature","properties":{"highway":"track"},"geometry":{"type":"LineString","coordinates":[[-107.031017,34.780742],[-107.029789,34.779287],[-107.023032,34.771867],[-107.022465,34.771803],[-107.021983,34.771656],[-107.021685,34.771363],[-107.021627,34.77097],[-107.02162,34.770534],[-107.003315,34.750045],[-107.002775,34.749397],[-107.002096,34.748355],[-107.001817,34.747987],[-107.001518,34.747684],[-107.001204,34.747461],[-107.000004,34.747066],[-106.999427,34.747],[-106.998705,34.747016],[-106.998257,34.747053],[-106.99774,34.747164],[-106.997312,34.747384],[-106.995927,34.748919],[-106.994664,34.750055],[-106.994453,34.750371],[-106.992872,34.750806],[-106.992539,34.750875],[-106.991402,34.750452],[-106.988715,34.749696],[-106.988022,34.749708],[-106.986079,34.748764],[-106.985386,34.748512],[-106.983638,34.74881],[-106.983139,34.749017],[-106.982333,34.750055],[-106.982054,34.750511],[-106.981804,34.751245],[-106.981746,34.75152],[-106.981849,34.751825],[-106.981937,34.752405],[-106.981863,34.75268],[-106.98184,34.753083],[-106.98192,34.753849],[-106.981972,34.754631],[-106.982522,34.757205],[-106.982676,34.757696],[-106.982966,34.758031],[-106.983457,34.758743],[-106.984012,34.759611],[-106.984306,34.761023],[-106.98439,34.761092],[-106.984752,34.762283],[-106.98478,34.762513],[-106.985391,34.764118],[-106.985891,34.765654],[-106.98692,34.768083],[-106.987949,34.772724],[-106.988298,34.774109],[-106.988651,34.774738],[-106.988946,34.775786],[-106.989345,34.777109],[-106.991139,34.782648],[-106.991253,34.783048],[-106.992114,34.785722],[-106.992783,34.788014],[-106.993055,34.788449],[-106.993497,34.788853],[-106.995316,34.790361],[-106.996891,34.791872],[-106.998614,34.792729],[-107.001879,34.794712],[-107.002365,34.794951]]}},{"type":"Feature","properties":{"highway":"track"},"geometry":{"type":"LineString","coordinates":[[-107.060036,34.777128],[-107.055513,34.778821],[-107.054903,34.779279],[-107.054348,34.780444],[-107.054181,34.782116],[-107.053543,34.783123],[-107.052599,34.783946],[-107.051294,34.784954],[-107.048796,34.787082],[-107.047686,34.787997],[-107.045825,34.789942],[-107.045464,34.790652],[-107.045381,34.791316],[-107.045187,34.791499],[-107.044493,34.791728],[-107.043605,34.792574],[-107.042495,34.792688],[-107.042106,34.792528],[-107.041856,34.791979],[-107.041745,34.79191],[-107.041024,34.792024],[-107.040469,34.791933],[-107.039497,34.79168],[-107.038887,34.791473],[-107.036084,34.791404],[-107.034502,34.791449],[-107.033281,34.791128],[-107.032504,34.790807],[-107.031949,34.79083],[-107.031311,34.79115],[-107.030811,34.791425],[-107.030089,34.791515],[-107.029007,34.791263],[-107.026204,34.791333],[-107.025344,34.791264],[-107.024678,34.79099],[-107.024289,34.790853],[-107.023596,34.790945],[-107.020295,34.789506],[-107.019546,34.789025],[-107.018824,34.78866],[-107.018128,34.78823],[-107.014827,34.787777],[-107.014355,34.787977],[-107.013184,34.788853],[-107.012653,34.789294],[-107.011976,34.789544],[-107.010016,34.789684],[-107.009734,34.789747],[-107.007524,34.790614],[-107.006236,34.791186],[-107.005564,34.791654],[-107.004835,34.792175],[-107.00373,34.793251],[-107.002549,34.79398],[-107.002307,34.794331],[-107.002247,34.794666],[-107.002365,34.794951],[-107.00252,34.795237],[-107.002723,34.795955],[-107.002551,34.796395],[-107.002137,34.79665],[-107.002049,34.796666],[-107.001399,34.796693],[-107.000559,34.796383],[-107.000063,34.796337],[-106.999265,34.795702],[-106.998518,34.795546],[-106.997553,34.795597],[-106.997166,34.795782],[-106.995878,34.795813]]}},{"type":"Feature","properties":{"highway":"track"},"geometry":{"type":"LineString","coordinates":[[-106.986505,34.796801],[-106.98653,34.797067],[-106.986496,34.797217],[-106.986328,34.797568],[-106.986295,34.797925],[-106.986385,34.798134],[-106.986641,34.798569],[-106.986825,34.802217],[-106.987037,34.807365],[-106.987107,34.809951],[-106.987207,34.812508],[-106.987936,34.815926],[-106.98806,34.816372],[-106.988139,34.816935],[-106.988341,34.817427],[-106.98881,34.819403],[-106.989186,34.820893],[-106.98953,34.821707],[-106.989657,34.822045],[-106.98972,34.822658],[-106.989715,34.8236],[-106.989766,34.825337],[-106.989866,34.826236],[-106.989822,34.82861],[-106.9899,34.831004],[-106.989765,34.835773],[-106.98971,34.836322],[-106.98946,34.837101],[-106.989489,34.837971],[-106.990157,34.839986],[-106.990268,34.840581],[-106.990352,34.840649],[-106.990381,34.84287],[-106.990576,34.844473],[-106.990609,34.844954],[-106.991347,34.845371],[-106.991661,34.845701],[-106.992396,34.846369],[-106.993603,34.847674],[-106.99379,34.847996],[-106.994124,34.848448],[-106.994498,34.84902],[-106.994715,34.849771],[-106.99501,34.850149],[-106.995402,34.850407],[-106.995588,34.850632],[-106.99601,34.850994],[-106.996363,34.851332],[-106.996659,34.851816],[-106.997032,34.852251],[-106.997405,34.85275],[-106.997808,34.85337],[-106.99825,34.853829],[-106.998388,34.854104],[-106.9988,34.854587],[-106.999311,34.855272],[-106.999771,34.855577],[-107.00033,34.855874],[-107.000589,34.856164],[-107.001613,34.856418],[-107.002638,34.85691],[-107.003113,34.857342],[-107.00347,34.85771],[-107.00359,34.857935],[-107.003563,34.859017],[-107.003659,34.86218],[-107.00384,34.865955],[-107.004029,34.866986],[-107.004405,34.867355],[-107.00498,34.867963],[-107.005043,34.868318],[-107.005196,34.869775]]}},{"type":"Feature","properties":{"access":"no","highway":"track"},"geometry":{"type":"LineString","coordinates":[[-106.970746,34.782422],[-106.969798,34.781834],[-106.968998,34.781367],[-106.968169,34.780976],[-106.967048,34.780546],[-106.965764,34.780297],[-106.964501,34.780121],[-106.964065,34.780095]]}},{"type":"Feature","properties":{"highway":"track"},"geometry":{"type":"LineString","coordinates":[[-106.949642,34.750055],[-106.951595,34.751642],[-106.952233,34.751939],[-106.952816,34.752397],[-106.953343,34.75258],[-106.965216,34.754525],[-106.966381,34.754868],[-106.970294,34.756721],[-106.971015,34.75695],[-106.971154,34.757087],[-106.971161,34.757205]]}},{"type":"Feature","properties":{"highway":"track"},"geometry":{"type":"LineString","coordinates":[[-107.018128,34.78823],[-107.018949,34.788188],[-107.019574,34.788088],[-107.020543,34.787681],[-107.025097,34.785891],[-107.026596,34.785251],[-107.028067,34.784175],[-107.028928,34.783076],[-107.0299,34.78152],[-107.030622,34.780993],[-107.031815,34.780238],[-107.033536,34.778865],[-107.034563,34.778155],[-107.036006,34.777331],[-107.037283,34.77653],[-107.039142,34.775454],[-107.040641,34.774104],[-107.041473,34.773234],[-107.042278,34.77257],[-107.044471,34.770372],[-107.045275,34.769594],[-107.047662,34.768037],[-107.049077,34.766938],[-107.051324,34.76584],[-107.052295,34.765313],[-107.05335,34.763321],[-107.054043,34.763253],[-107.056512,34.76268],[-107.059371,34.761925],[-107.061701,34.76133],[-107.062534,34.761215],[-107.063088,34.761375],[-107.063509,34.762286],[-107.063947,34.762752],[-107.06514,34.763122],[-107.065553,34.763422],[-107.065597,34.763991],[-107.065687,34.764465],[-107.065969,34.764673],[-107.069381,34.764587],[-107.069925,34.764792],[-107.070205,34.765157],[-107.07057,34.765682],[-107.071268,34.766116],[-107.072242,34.766386],[-107.073942,34.766474],[-107.07429,34.767089],[-107.075759,34.767246],[-107.077097,34.767151],[-107.077934,34.767399],[-107.079274,34.768402],[-107.079638,34.768881],[-107.081226,34.769722],[-107.081924,34.76995],[-107.083765,34.769807],[-107.085214,34.769939],[-107.086328,34.770325],[-107.087165,34.770961],[-107.087316,34.771786],[-107.087193,34.772726],[-107.08635,34.774856],[-107.086204,34.776068],[-107.086581,34.779249],[-107.086518,34.780484],[-107.086637,34.781056],[-107.087285,34.78204],[-107.087982,34.782448],[-107.088847,34.782447],[-107.089827,34.781986],[-107.090781,34.781596],[-107.09117,34.781709],[-107.092881,34.783694],[-107.09383,34.78424],[-107.094945,34.784419],[-107.096982,34.784231],[-107.099128,34.784339],[-107.099853,34.784518],[-107.100774,34.785065]]}},{"type":"Feature","properties":{"highway":"residential"},"geometry":{"type":"LineString","coordinates":[[-106.987936,34.815926],[-106.987533,34.816167],[-106.986675,34.816566],[-106.986187,34.816575],[-106.985864,34.816447],[-106.985198,34.81611],[-106.984661,34.816007],[-106.984182,34.815977],[-106.983645,34.816092],[-106.983568,34.816213],[-106.982729,34.816467],[-106.982221,34.816557],[-106.98184,34.816502],[-106.98142,34.816318],[-106.981155,34.816076],[-106.980744,34.815868],[-106.980529,34.815812],[-106.979992,34.815814],[-106.979465,34.816009],[-106.979222,34.816228],[-106.97888,34.816351],[-106.97846,34.816377],[-106.97808,34.816378],[-106.977288,34.816348],[-106.976527,34.816416],[-106.976107,34.816522],[-106.975521,34.816556],[-106.975082,34.816542],[-106.973851,34.81636],[-106.973382,34.81637],[-106.972865,34.816533],[-106.972113,34.816609],[-106.971624,34.816562],[-106.971175,34.816555],[-106.970707,34.816614],[-106.969887,34.816859],[-106.969331,34.817087],[-106.968521,34.817348],[-106.967956,34.817682],[-106.967645,34.818046],[-106.96704,34.81821],[-106.96587,34.818755],[-106.965353,34.818927],[-106.96511,34.81921],[-106.964925,34.819542],[-106.964858,34.81993],[-106.96485,34.820246],[-106.964606,34.820529],[-106.964314,34.820748],[-106.963982,34.820838],[-106.96365,34.820904],[-106.963171,34.820914],[-106.962771,34.820996],[-106.962068,34.821233],[-106.961746,34.82125],[-106.961433,34.821154],[-106.961091,34.821074],[-106.960808,34.8211],[-106.960436,34.821244],[-106.959798,34.821542],[-106.959243,34.822183],[-106.959077,34.82271],[-106.958743,34.822916],[-106.957938,34.823031],[-106.9573,34.823352],[-106.955829,34.824268],[-106.954413,34.825596],[-106.95383,34.82594],[-106.952692,34.82697],[-106.950998,34.82784],[-106.947028,34.829283],[-106.944307,34.83052],[-106.94017,34.832031],[-106.938143,34.833175],[-106.934506,34.834755],[-106.933811,34.83519],[-106.932728,34.835557],[-106.931673,34.836038],[-106.930424,34.836701],[-106.926508,34.838052],[-106.923398,34.83922],[-106.922452,34.839701],[-106.922341,34.839975]]}},{"type":"Feature","properties":{"highway":"track"},"geometry":{"type":"LineString","coordinates":[[-106.984473,34.824318],[-106.984785,34.824317],[-106.985043,34.824343],[-106.985854,34.824282],[-106.986356,34.824261],[-106.986854,34.824281],[-106.987568,34.824271],[-106.988229,34.824217],[-106.988924,34.823929],[-106.989538,34.82376],[-106.989715,34.8236]]}},{"type":"Feature","properties":{"highway":"track"},"geometry":{"type":"LineString","coordinates":[[-106.99774,34.747164],[-106.997647,34.746842],[-106.997665,34.745211],[-106.997884,34.744094],[-106.998304,34.742636],[-106.998941,34.741338],[-106.999733,34.739981]]}},{"type":"Feature","properties":{"highway":"track"},"geometry":{"type":"LineString","coordinates":[[-106.981325,34.86151],[-106.982037,34.861047],[-106.982387,34.860715],[-106.98304,34.860228],[-106.983537,34.859903],[-106.983859,34.859651],[-106.984463,34.85922],[-106.985555,34.858562],[-106.985945,34.85831],[-106.98612,34.858108],[-106.986675,34.857548],[-106.986889,34.857402],[-106.987611,34.857003],[-106.988166,34.856468],[-106.988926,34.855948],[-106.989471,34.855542],[-106.989871,34.855266],[-106.990563,34.854819],[-106.990835,34.854527],[-106.99105,34.854365],[-106.991116,34.853767],[-106.991045,34.853073],[-106.991079,34.85195],[-106.991054,34.850479],[-106.99083,34.84812],[-106.990609,34.844954]]}},{"type":"Feature","properties":{"highway":"residential"},"geometry":{"type":"LineString","coordinates":[[-107.063088,34.761375],[-107.064386,34.761211],[-107.065959,34.760882],[-107.06672,34.760395],[-107.068505,34.759466],[-107.06913,34.759022],[-107.069536,34.758362],[-107.069419,34.756935],[-107.069749,34.75538],[-107.070731,34.754309],[-107.071737,34.753892],[-107.0727,34.753313],[-107.073229,34.752466],[-107.07337,34.751721],[-107.073353,34.750866],[-107.073258,34.750054],[-107.072918,34.749309],[-107.072717,34.747996],[-107.072724,34.747352],[-107.07277,34.746876],[-107.072643,34.746723],[-107.07265,34.746208],[-107.072743,34.745297],[-107.072886,34.744644],[-107.073116,34.744039],[-107.073475,34.74374],[-107.073617,34.743024],[-107.073592,34.741783],[-107.073482,34.741235],[-107.073587,34.74073]]}},{"type":"Feature","properties":{"highway":"residential"},"geometry":{"type":"LineString","coordinates":[[-107.046364,34.730945],[-107.045085,34.731623],[-107.043842,34.732955],[-107.042758,34.733775],[-107.04191,34.734551],[-107.040328,34.735755],[-107.038786,34.736425],[-107.036136,34.737704],[-107.034299,34.737927],[-107.030598,34.738813],[-107.028558,34.7396],[-107.026571,34.740983]]}},{"type":"Feature","properties":{"highway":"track"},"geometry":{"type":"LineString","coordinates":[[-106.976557,34.743077],[-106.975259,34.743074],[-106.97488,34.743167],[-106.97465,34.743428]]}},{"type":"Feature","properties":{"highway":"track"},"geometry":{"type":"LineString","coordinates":[[-106.89814,34.80826],[-106.90931,34.807503],[-106.910651,34.807856],[-106.912596,34.808332],[-106.913712,34.808761],[-106.914069,34.80898],[-106.914292,34.809366],[-106.915175,34.80988],[-106.915738,34.810319],[-106.915813,34.810521],[-106.915932,34.810677],[-106.916298,34.810789],[-106.917489,34.811496],[-106.918334,34.811869],[-106.919424,34.811577],[-106.920749,34.810989],[-106.923749,34.810282],[-106.928468,34.81041],[-106.9298,34.810959],[-106.930383,34.811112],[-106.931266,34.81093],[-106.931676,34.810674],[-106.932346,34.810679],[-106.933035,34.810604],[-106.933857,34.810414],[-106.934739,34.810363],[-106.935889,34.810194],[-106.937642,34.809125],[-106.939361,34.808495],[-106.939866,34.808179],[-106.940402,34.807957],[-106.941041,34.807895],[-106.941633,34.807725],[-106.941957,34.807687],[-106.942287,34.807594],[-106.943806,34.80701],[-106.944273,34.806967],[-106.944778,34.807005],[-106.945083,34.806957],[-106.945266,34.806993],[-106.945354,34.807163],[-106.945505,34.807268],[-106.945675,34.807268],[-106.946015,34.80712],[-106.946277,34.806908],[-106.946578,34.806762],[-106.947149,34.806648],[-106.947592,34.806477],[-106.948508,34.806293],[-106.949431,34.805911],[-106.949928,34.805559],[-106.950207,34.805126],[-106.950305,34.805027],[-106.950814,34.804817],[-106.951128,34.804766],[-106.953246,34.803139],[-106.953977,34.802816],[-106.954539,34.802478],[-106.955606,34.801901],[-106.958288,34.800807],[-106.958748,34.800468],[-106.95927,34.799768],[-106.960017,34.799213],[-106.96126,34.797901],[-106.962263,34.79717],[-106.964214,34.795265],[-106.964719,34.794971],[-106.965412,34.794761],[-106.965881,34.794751],[-106.966991,34.793983],[-106.967337,34.793922],[-106.968193,34.793487],[-106.9703,34.792862],[-106.971382,34.792198],[-106.972803,34.790986],[-106.973944,34.789532],[-106.97412,34.789168],[-106.974227,34.789015]]}},{"type":"Feature","properties":{"highway":"track"},"geometry":{"type":"LineString","coordinates":[[-106.971624,34.743388],[-106.971707,34.743571],[-106.97451,34.745654],[-106.974732,34.745723]]}},{"type":"Feature","properties":{"highway":"track","name":"Indian Service Rt 548"},"geometry":{"type":"LineString","coordinates":[[-107.063902,34.831553],[-107.063961,34.831234],[-107.064094,34.831064],[-107.064248,34.830934],[-107.066644,34.829717],[-107.06781,34.829282],[-107.06931,34.828984],[-107.069693,34.828391],[-107.069959,34.828264],[-107.07056,34.828274],[-107.070979,34.828183],[-107.071204,34.828037],[-107.071252,34.827951]]}},{"type":"Feature","properties":{"highway":"track","name":"Indian Service Rt 548"},"geometry":{"type":"LineString","coordinates":[[-107.06604,34.842779],[-107.065822,34.841079],[-107.065689,34.839705],[-107.065509,34.838853],[-107.065386,34.837997],[-107.065352,34.837518],[-107.06551,34.836704],[-107.065503,34.836366],[-107.06545,34.836168],[-107.065208,34.835782],[-107.064739,34.835124],[-107.064473,34.83488],[-107.064303,34.834631],[-107.064236,34.834088],[-107.064108,34.833791],[-107.064113,34.83368],[-107.064291,34.833421],[-107.064331,34.833295],[-107.064265,34.832681],[-107.064262,34.832242],[-107.064215,34.832051],[-107.064039,34.83179],[-107.063902,34.831553]]}},{"type":"Feature","properties":{"highway":"residential","name":"Indian Service Rt 549"},"geometry":{"type":"LineString","coordinates":[[-107.050968,34.83651],[-107.050421,34.836765],[-107.050314,34.8369],[-107.050443,34.837578],[-107.049925,34.838867],[-107.049401,34.839997],[-107.048457,34.840683],[-107.045763,34.842423],[-107.044347,34.843499],[-107.042069,34.84549],[-107.04168,34.845513],[-107.040042,34.844574],[-107.03857,34.844024],[-107.037264,34.843177],[-107.036043,34.84272],[-107.033127,34.842032],[-107.029906,34.841139],[-107.029295,34.840887]]}},{"type":"Feature","properties":{"access":"yes","bicycle":"yes","foot":"yes","highway":"primary","name":"State Road 6","oneway":"no","ref":"NM 6","surface":"asphalt"},"geometry":{"type":"LineString","coordinates":[[-107.053675,34.841849],[-107.053652,34.841367],[-107.0536,34.84102],[-107.053524,34.84069],[-107.053364,34.840218],[-107.053271,34.840004],[-107.053167,34.839787],[-107.052936,34.839399],[-107.040387,34.820949],[-107.039345,34.819443],[-107.037487,34.816694],[-107.037273,34.816414],[-107.036849,34.815925],[-107.036461,34.815537],[-107.036223,34.815329]]}},{"type":"Feature","properties":{"access":"yes","bicycle":"yes","foot":"yes","highway":"primary","name":"State Road 6","oneway":"no","ref":"NM 6","surface":"asphalt"},"geometry":{"type":"LineString","coordinates":[[-106.990131,34.796654],[-106.987318,34.796757],[-106.985321,34.796864],[-106.984825,34.796867],[-106.984276,34.796837],[-106.983734,34.796757],[-106.9832,34.796642],[-106.982681,34.796493],[-106.98217,34.796307],[-106.981689,34.796089],[-106.981256,34.795848],[-106.98078,34.795533],[-106.9804,34.795231],[-106.980041,34.794891],[-106.976018,34.790851],[-106.974227,34.789015],[-106.97212,34.786929]]}},{"type":"Feature","properties":{"access":"yes","bicycle":"yes","bridge":"yes","foot":"yes","highway":"primary","name":"State Road 6","oneway":"no","ref":"NM 6","surface":"asphalt"},"geometry":{"type":"LineString","coordinates":[[-106.99133,34.796607],[-106.990131,34.796654]]}},{"type":"Feature","properties":{"natural":"water"},"geometry":{"type":"Polygon","coordinates":[[[-107.067659,34.808414],[-107.067715,34.808454],[-107.067733,34.808513],[-107.067633,34.808703],[-107.067701,34.808827],[-107.067361,34.808773],[-107.067301,34.80875],[-107.067281,34.808699],[-107.067291,34.808645],[-107.067369,34.808549],[-107.067435,34.808388],[-107.067458,34.808366],[-107.067562,34.808363],[-107.067659,34.808414]]]}},{"type":"Feature","properties":{"highway":"track","name":"Indian Service Rt 548"},"geometry":{"type":"LineString","coordinates":[[-107.06843,34.808385],[-107.067496,34.807827],[-107.065177,34.807562],[-107.0643,34.80739],[-107.06374,34.807301],[-107.063522,34.807305],[-107.06292,34.807496],[-107.062527,34.807583],[-107.06204,34.807608],[-107.061189,34.807575],[-107.060703,34.807539],[-107.060153,34.807387],[-107.059509,34.807285],[-107.058748,34.807074],[-107.058098,34.806807],[-107.057028,34.806567],[-107.056726,34.806427],[-107.05625,34.806135],[-107.055814,34.805906],[-107.055526,34.805695],[-107.055412,34.805646],[-107.055092,34.805642],[-107.055004,34.805593],[-107.054921,34.805463],[-107.054772,34.805171],[-107.054627,34.805021],[-107.054376,34.804857],[-107.053191,34.804453],[-107.051334,34.804104],[-107.050066,34.803748],[-107.049805,34.803657],[-107.049381,34.803435],[-107.049158,34.803388],[-107.048845,34.803374],[-107.046579,34.802829],[-107.045766,34.802531],[-107.044661,34.802261],[-107.044516,34.802276],[-107.044436,34.802321],[-107.044308,34.802426],[-107.044185,34.802601],[-107.044075,34.803121],[-107.044033,34.803399],[-107.043957,34.80362],[-107.043687,34.803878],[-107.043586,34.804046],[-107.043518,34.80444],[-107.043241,34.805119],[-107.043162,34.805229]]}},{"type":"Feature","properties":{"highway":"track","name":"Indian Service Rt 548"},"geometry":{"type":"LineString","coordinates":[[-107.063902,34.831553],[-107.063063,34.830908],[-107.062868,34.830267],[-107.062702,34.829557],[-107.062424,34.829145],[-107.061563,34.828343]]}},{"type":"Feature","properties":{"highway":"residential","name":"Indian Service Rt 548"},"geometry":{"type":"LineString","coordinates":[[-107.043072,34.805405],[-107.043013,34.805628],[-107.043026,34.805992],[-107.04306,34.806253],[-107.043357,34.806957],[-107.043579,34.807558],[-107.043655,34.807912],[-107.043767,34.808186],[-107.044046,34.808646],[-107.044395,34.809062],[-107.044509,34.809275],[-107.044554,34.809578],[-107.044518,34.810176],[-107.044454,34.810516],[-107.04439,34.810723],[-107.044276,34.81096],[-107.044065,34.811332],[-107.044016,34.811544],[-107.044027,34.811912],[-107.044117,34.812488],[-107.044186,34.813298],[-107.044288,34.813753],[-107.044442,34.814226],[-107.044573,34.814411],[-107.044803,34.814608],[-107.045099,34.814781],[-107.045519,34.814935],[-107.045832,34.815069],[-107.046263,34.815456],[-107.046856,34.815919],[-107.047005,34.816112],[-107.047171,34.816275],[-107.0475,34.816445],[-107.047792,34.816624],[-107.048595,34.817257],[-107.048937,34.81748],[-107.049335,34.81778],[-107.049466,34.817965],[-107.049572,34.818255],[-107.049615,34.818565],[-107.049719,34.818763],[-107.049859,34.818951],[-107.050089,34.819195],[-107.050326,34.819351],[-107.050666,34.819523],[-107.051078,34.819658],[-107.05132,34.819688],[-107.051556,34.819746],[-107.051725,34.819856],[-107.052318,34.82034],[-107.052452,34.820576],[-107.052592,34.820877],[-107.05259,34.821194],[-107.052486,34.821552],[-107.052425,34.822064],[-107.05242,34.822542],[-107.052391,34.822674],[-107.051822,34.824125],[-107.051452,34.824775],[-107.051125,34.825453],[-107.051087,34.825556],[-107.051101,34.825627],[-107.051098,34.825759],[-107.05105,34.825847],[-107.050905,34.825948],[-107.050639,34.826384],[-107.050323,34.826758],[-107.050223,34.82691],[-107.050164,34.827227],[-107.050167,34.827351],[-107.050122,34.827461],[-107.050011,34.82755],[-107.049846,34.827646],[-107.049682,34.827778],[-107.04846,34.829024],[-107.047884,34.82985],[-107.047875,34.830306],[-107.047858,34.830355],[-107.047824,34.830395],[-107.047441,34.830675],[-107.047118,34.830845]]}},{"type":"Feature","properties":{"highway":"track"},"geometry":{"type":"LineString","coordinates":[[-107.039618,34.804323],[-107.042347,34.804798],[-107.042871,34.804911],[-107.044057,34.805266],[-107.04461,34.805459],[-107.045646,34.805996],[-107.046588,34.806585],[-107.047346,34.807155],[-107.050031,34.809291],[-107.051872,34.810731]]}},{"type":"Feature","properties":{"highway":"track"},"geometry":{"type":"LineString","coordinates":[[-107.06843,34.808385],[-107.068546,34.80847],[-107.06859,34.808525],[-107.068586,34.80859],[-107.06856,34.80864],[-107.068087,34.80912],[-107.06802,34.80921],[-107.067653,34.810823],[-107.065995,34.816022],[-107.064779,34.819642]]}},{"type":"Feature","properties":{"highway":"track"},"geometry":{"type":"LineString","coordinates":[[-107.064779,34.819642],[-107.065855,34.820955],[-107.067273,34.822628],[-107.068212,34.823655],[-107.069339,34.825077],[-107.069844,34.825671],[-107.070088,34.826013],[-107.070835,34.82729],[-107.071252,34.827951],[-107.071456,34.828216],[-107.071636,34.828488],[-107.071921,34.828776],[-107.07333,34.831103],[-107.075387,34.834206],[-107.077398,34.837418],[-107.078048,34.838605],[-107.079641,34.841037],[-107.080153,34.841606],[-107.082889,34.845843],[-107.083677,34.847024],[-107.085099,34.849267],[-107.086534,34.851469],[-107.087114,34.85233],[-107.088432,34.854417],[-107.089935,34.856658],[-107.09022,34.856962],[-107.091187,34.857841],[-107.09127,34.857864],[-107.091355,34.857858],[-107.091479,34.857822],[-107.092121,34.857606],[-107.09247,34.857541],[-107.093171,34.857584],[-107.093681,34.857655],[-107.093794,34.857698]]}},{"type":"Feature","properties":{"highway":"track"},"geometry":{"type":"LineString","coordinates":[[-107.050873,34.836368],[-107.050908,34.835407],[-107.050974,34.834308],[-107.05096,34.834163],[-107.050929,34.83404],[-107.050886,34.833956],[-107.050741,34.833757],[-107.050505,34.833517],[-107.049721,34.832821],[-107.04945,34.832545],[-107.049167,34.832187],[-107.048574,34.831347],[-107.048202,34.830768],[-107.04773,34.830121],[-107.047462,34.829808],[-107.047005,34.82937],[-107.04653,34.828869],[-107.045806,34.828151],[-107.045644,34.827953],[-107.045586,34.827838],[-107.045525,34.827572],[-107.045348,34.825854],[-107.045325,34.825412],[-107.045338,34.824731],[-107.045316,34.824396],[-107.045277,34.824213],[-107.045191,34.823984],[-107.045007,34.823648],[-107.044766,34.823348],[-107.04386,34.822511],[-107.043485,34.822124],[-107.04335,34.821953],[-107.042918,34.821328],[-107.04228,34.820561],[-107.041663,34.819853],[-107.040892,34.819058],[-107.040368,34.818573],[-107.038671,34.817188],[-107.037767,34.816486],[-107.036223,34.815329]]}},{"type":"Feature","properties":{"highway":"residential","name":"Los Ranchos Road","surface":"unpaved"},"geometry":{"type":"LineString","coordinates":[[-106.939191,34.77538],[-106.940998,34.775411],[-106.952311,34.775412]]}},{"type":"Feature","properties":{"highway":"residential","name":"Viper Den Road","surface":"unpaved"},"geometry":{"type":"LineString","coordinates":[[-106.948068,34.768195],[-106.948176,34.768158],[-106.955939,34.768163]]}},{"type":"Feature","properties":{"highway":"residential"},"geometry":{"type":"LineString","coordinates":[[-107.045072,34.731362],[-107.045786,34.730839],[-107.046364,34.730945],[-107.046412,34.730919],[-107.047597,34.730691],[-107.048177,34.72998],[-107.048678,34.728964],[-107.04952,34.728197],[-107.050849,34.727428],[-107.052459,34.726579],[-107.053603,34.725932],[-107.054349,34.725342],[-107.055028,34.725107],[-107.055417,34.724929],[-107.056599,34.724128],[-107.057355,34.723708],[-107.058007,34.72369],[-107.060228,34.724709],[-107.060919,34.724812],[-107.062263,34.725332],[-107.06331,34.725837],[-107.063993,34.726265],[-107.06434,34.726363],[-107.065019,34.726414],[-107.065874,34.726275],[-107.066809,34.726514],[-107.068311,34.726176]]}},{"type":"Feature","properties":{"waterway":"stream"},"geometry":{"type":"LineString","coordinates":[[-107.063474,34.849241],[-107.062476,34.848096],[-107.061875,34.847735],[-107.060029,34.846697],[-107.060244,34.846309],[-107.059879,34.846203],[-107.059622,34.846107]]}},{"type":"Feature","properties":{"waterway":"ditch"},"geometry":{"type":"LineString","coordinates":[[-107.048995,34.823021],[-107.048678,34.822277],[-107.049118,34.821779],[-107.049231,34.821481]]}},{"type":"Feature","properties":{"natural":"water"},"geometry":{"type":"Polygon","coordinates":[[[-107.049515,34.821383],[-107.049215,34.820955],[-107.0487,34.821158],[-107.048904,34.821594],[-107.049515,34.821383]]]}},{"type":"Feature","properties":{"natural":"water"},"geometry":{"type":"Polygon","coordinates":[[[-107.050856,34.821739],[-107.051092,34.821638],[-107.05128,34.82103],[-107.051457,34.820075],[-107.051473,34.819916],[-107.051253,34.819797],[-107.050985,34.819762],[-107.050867,34.819978],[-107.050808,34.821585],[-107.050856,34.821739]]]}},{"type":"Feature","properties":{"natural":"water"},"geometry":{"type":"Polygon","coordinates":[[[-107.045706,34.805201],[-107.045347,34.805003],[-107.04502,34.805276],[-107.045433,34.805567],[-107.045706,34.805201]]]}},{"type":"Feature","properties":{"natural":"water"},"geometry":{"type":"Polygon","coordinates":[[[-107.043716,34.791748],[-107.043094,34.792004],[-107.042767,34.792198],[-107.042601,34.792171],[-107.042633,34.791889],[-107.042536,34.791656],[-107.042472,34.791369],[-107.042461,34.791162],[-107.042633,34.791065],[-107.043276,34.791043],[-107.043695,34.791312],[-107.043813,34.791603],[-107.043716,34.791748]]]}},{"type":"Feature","properties":{"natural":"water"},"geometry":{"type":"Polygon","coordinates":[[[-107.04833,34.795696],[-107.048544,34.795317],[-107.048882,34.795621],[-107.049419,34.795629],[-107.049644,34.795902],[-107.049451,34.796259],[-107.04893,34.796621],[-107.048485,34.7967],[-107.04826,34.796665],[-107.047616,34.796242],[-107.047584,34.795797],[-107.047782,34.79555],[-107.048158,34.795563],[-107.04833,34.795696]]]}},{"type":"Feature","properties":{"waterway":"dam"},"geometry":{"type":"LineString","coordinates":[[-107.038819,34.800418],[-107.038711,34.800854],[-107.038068,34.800744],[-107.038127,34.800325]]}},{"type":"Feature","properties":{"natural":"water"},"geometry":{"type":"Polygon","coordinates":[[[-107.038658,34.800378],[-107.038615,34.800761],[-107.038148,34.800673],[-107.038266,34.800257],[-107.038672,34.800303],[-107.038658,34.800378]]]}},{"type":"Feature","properties":{"waterway":"stream"},"geometry":{"type":"LineString","coordinates":[[-107.037767,34.799946],[-107.038389,34.800334],[-107.039108,34.800255],[-107.039205,34.80051],[-107.038915,34.801065],[-107.038003,34.801656],[-107.035428,34.801559],[-107.032907,34.80118],[-107.030042,34.800995],[-107.028852,34.800898],[-107.028251,34.800739],[-107.027564,34.800854],[-107.027124,34.800713],[-107.025901,34.800924],[-107.025311,34.800625],[-107.024303,34.800678],[-107.023315,34.800422],[-107.022725,34.800519],[-107.022382,34.800369],[-107.021384,34.800281],[-107.019839,34.800105],[-107.018734,34.799867],[-107.018058,34.799629],[-107.016749,34.7997],[-107.016245,34.799136],[-107.015902,34.799506],[-107.015623,34.799154],[-107.013885,34.799004],[-107.011986,34.798572],[-107.008424,34.798123],[-107.005838,34.797726],[-107.00513,34.798096],[-107.00483,34.797638],[-107.004309,34.797969]]}},{"type":"Feature","properties":{"waterway":"dam"},"geometry":{"type":"LineString","coordinates":[[-107.040047,34.815195],[-107.039285,34.815354],[-107.039425,34.816102],[-107.040224,34.816049]]}},{"type":"Feature","properties":{"waterway":"dam"},"geometry":{"type":"LineString","coordinates":[[-107.041072,34.816027],[-107.040846,34.816908],[-107.040755,34.817547],[-107.040943,34.81789],[-107.041699,34.818621]]}},{"type":"Feature","properties":{"natural":"water"},"geometry":{"type":"Polygon","coordinates":[[[-107.041179,34.816499],[-107.040986,34.817432],[-107.041045,34.817816],[-107.041753,34.818406],[-107.043196,34.818961],[-107.04296,34.818353],[-107.042128,34.817296],[-107.041919,34.816693],[-107.041555,34.816569],[-107.041179,34.816499]]]}},{"type":"Feature","properties":{"natural":"water"},"geometry":{"type":"Polygon","coordinates":[[[-107.040267,34.815922],[-107.040133,34.815266],[-107.039419,34.815367],[-107.039543,34.816036],[-107.040267,34.815922]]]}},{"type":"Feature","properties":{"waterway":"stream"},"geometry":{"type":"LineString","coordinates":[[-107.039827,34.816684],[-107.039162,34.816367],[-107.038422,34.816067],[-107.037735,34.815257],[-107.036641,34.814367],[-107.035578,34.813442],[-107.032349,34.811073],[-107.030804,34.809848],[-107.02662,34.808113],[-107.024646,34.807549],[-107.023262,34.806809],[-107.021717,34.80621],[-107.02059,34.80584],[-107.020172,34.80532],[-107.019689,34.804862],[-107.019142,34.805171],[-107.018509,34.804898],[-107.01809,34.804193],[-107.016964,34.804069],[-107.015612,34.803541],[-107.01514,34.803039],[-107.014464,34.803021],[-107.01425,34.802563],[-107.012136,34.801726],[-107.010795,34.801048],[-107.007405,34.799691],[-107.005173,34.798687],[-107.004309,34.797969],[-107.003719,34.797801]]}},{"type":"Feature","properties":{"highway":"unclassified","name":"Landfill Road"},"geometry":{"type":"LineString","coordinates":[[-106.999218,34.793616],[-106.996762,34.795223],[-106.996061,34.795641],[-106.995792,34.795899],[-106.995634,34.796093],[-106.995003,34.797193]]}},{"type":"Feature","properties":{"bridge":"yes","highway":"unclassified","name":"Landfill Road"},"geometry":{"type":"LineString","coordinates":[[-106.99937,34.793511],[-106.999218,34.793616]]}},{"type":"Feature","properties":{"name":"Arroyo Garcia","waterway":"stream"},"geometry":{"type":"LineString","coordinates":[[-107.034924,34.774825],[-107.033808,34.775777],[-107.032135,34.77694],[-107.031641,34.778562],[-107.029561,34.779037],[-107.028122,34.77969],[-107.027221,34.780677],[-107.028336,34.781241],[-107.027972,34.782263],[-107.025847,34.781946],[-107.025268,34.780994],[-107.025011,34.781875],[-107.023466,34.782721],[-107.022071,34.784078],[-107.022436,34.784906],[-107.021567,34.785708],[-107.018917,34.785541],[-107.017361,34.786713],[-107.018445,34.786898],[-107.018209,34.787585],[-107.01779,34.78799],[-107.016621,34.787391],[-107.015837,34.787915],[-107.015027,34.788184],[-107.014174,34.788585],[-107.013547,34.788955],[-107.013295,34.789585],[-107.012286,34.789885],[-107.011771,34.790546],[-107.010216,34.791198],[-107.010012,34.79222],[-107.00955,34.793127],[-107.009572,34.793709],[-107.009465,34.793462],[-107.008982,34.7934],[-107.00851,34.793656],[-107.007769,34.794748],[-107.00704,34.794766],[-107.006632,34.794977],[-107.006857,34.795709],[-107.006664,34.795991],[-107.005913,34.795898],[-107.004674,34.796748],[-107.004014,34.797255],[-107.003725,34.797524],[-107.003719,34.797801],[-107.002786,34.797524],[-107.002464,34.797259],[-107.001531,34.796687],[-107.001187,34.796273],[-107.00116,34.795885],[-107.001531,34.795647],[-107.001348,34.795506],[-107.000431,34.79544],[-107.000372,34.795202],[-107.000849,34.795079],[-107.000058,34.794422],[-106.999524,34.794339],[-106.999723,34.794044],[-106.99961,34.793817],[-106.999047,34.793348],[-106.998006,34.793303],[-106.997952,34.792651],[-106.996719,34.792546],[-106.996418,34.791991],[-106.995077,34.791568],[-106.994369,34.791145],[-106.99276,34.790784],[-106.991816,34.790087],[-106.990603,34.789462],[-106.989563,34.789048]]}},{"type":"Feature","properties":{"highway":"track"},"geometry":{"type":"LineString","coordinates":[[-106.985107,34.77301],[-106.988008,34.774257],[-106.988651,34.774738]]}},{"type":"Feature","properties":{"highway":"track"},"geometry":{"type":"LineString","coordinates":[[-106.985107,34.77301],[-106.984112,34.772261],[-106.983624,34.772084],[-106.982857,34.771921],[-106.982008,34.771677]]}},{"type":"Feature","properties":{"tunnel":"yes","waterway":"stream"},"geometry":{"type":"LineString","coordinates":[[-106.968797,34.783734],[-106.969038,34.783585]]}},{"type":"Feature","properties":{"waterway":"stream"},"geometry":{"type":"LineString","coordinates":[[-106.960444,34.794792],[-106.96171,34.793295],[-106.961904,34.792484],[-106.962762,34.792396],[-106.96332,34.791356],[-106.964843,34.790722],[-106.964897,34.789338],[-106.964661,34.78859],[-106.965369,34.787902],[-106.965659,34.787136],[-106.966453,34.786598],[-106.967601,34.785268],[-106.968277,34.784065],[-106.968797,34.783734]]}},{"type":"Feature","properties":{"waterway":"stream"},"geometry":{"type":"LineString","coordinates":[[-106.969038,34.783585],[-106.969189,34.783382],[-106.969891,34.782862],[-106.97039,34.782747],[-106.970709,34.782554],[-106.971329,34.782029],[-106.97201,34.781584],[-106.974843,34.780086],[-106.975025,34.779681],[-106.974821,34.779408],[-106.975325,34.779099],[-106.976355,34.7788],[-106.976312,34.777998],[-106.977235,34.777936],[-106.978276,34.777557],[-106.978962,34.777434],[-106.979209,34.777037],[-106.979595,34.777161],[-106.979649,34.776544]]}},{"type":"Feature","properties":{"waterway":"stream"},"geometry":{"type":"LineString","coordinates":[[-106.942506,34.797048],[-106.943192,34.796132],[-106.944308,34.796096],[-106.945767,34.795092],[-106.947055,34.793471],[-106.949995,34.792555],[-106.952462,34.79222]]}},{"type":"Feature","properties":{"waterway":"stream"},"geometry":{"type":"LineString","coordinates":[[-106.946969,34.797453],[-106.948965,34.796748],[-106.950102,34.79592],[-106.951067,34.795286],[-106.951518,34.794563],[-106.952698,34.793259],[-106.952462,34.79222],[-106.952956,34.791497],[-106.954908,34.790264],[-106.955295,34.789312],[-106.957698,34.788695],[-106.959028,34.787832],[-106.959608,34.787197],[-106.96008,34.787215],[-106.961346,34.785118]]}},{"type":"Feature","properties":{"highway":"track"},"geometry":{"type":"LineString","coordinates":[[-106.964441,34.778593],[-106.965353,34.778765],[-106.965557,34.778835]]}},{"type":"Feature","properties":{"access":"yes","bicycle":"yes","foot":"yes","highway":"primary","name":"State Road 6","oneway":"no","ref":"NM 6","surface":"asphalt"},"geometry":{"type":"LineString","coordinates":[[-106.961702,34.780046],[-106.961265,34.78001],[-106.957695,34.779861],[-106.950508,34.779584],[-106.949303,34.779571],[-106.948187,34.779626],[-106.944878,34.779961],[-106.943726,34.780136],[-106.942841,34.780319],[-106.941132,34.780743],[-106.93998,34.781052],[-106.93805,34.781811],[-106.935112,34.783115],[-106.934532,34.783394],[-106.932667,34.784444]]}},{"type":"Feature","properties":{"bridge":"yes","highway":"primary","name":"State Road 6","ref":"NM 6"},"geometry":{"type":"LineString","coordinates":[[-106.963869,34.780451],[-106.963682,34.780398]]}},{"type":"Feature","properties":{"waterway":"stream"},"geometry":{"type":"LineString","coordinates":[[-106.936583,34.806369],[-106.93727,34.806386],[-106.937849,34.805875],[-106.939287,34.805223],[-106.939781,34.805505],[-106.941047,34.805012],[-106.943944,34.804201],[-106.945596,34.804466],[-106.946068,34.803461],[-106.94993,34.801435],[-106.95111,34.799832],[-106.953406,34.798264],[-106.955059,34.796502],[-106.956625,34.793242],[-106.957634,34.792678],[-106.959436,34.790352],[-106.960713,34.78881],[-106.960455,34.788466],[-106.960444,34.787753],[-106.961303,34.787127],[-106.96171,34.785682],[-106.961346,34.785118],[-106.96155,34.784193],[-106.96171,34.78251],[-106.962268,34.78169],[-106.963615,34.78065],[-106.963829,34.780293],[-106.963985,34.779734],[-106.963996,34.77865],[-106.964006,34.778571],[-106.964063,34.778483],[-106.964103,34.778104],[-106.963749,34.777143],[-106.96347,34.776103],[-106.962891,34.775336],[-106.963674,34.774341],[-106.963459,34.773547],[-106.964006,34.772217],[-106.963813,34.771353],[-106.964124,34.770692],[-106.963899,34.7693],[-106.96435,34.76907],[-106.965079,34.767687]]}},{"type":"Feature","properties":{"waterway":"stream"},"geometry":{"type":"LineString","coordinates":[[-106.954479,34.77961],[-106.954463,34.779196],[-106.954705,34.778883],[-106.955085,34.778791],[-106.955477,34.778791],[-106.956367,34.778853],[-106.956979,34.778804],[-106.957735,34.778716],[-106.959876,34.778751],[-106.961405,34.778747],[-106.962783,34.778716],[-106.963996,34.77865]]}},{"type":"Feature","properties":{"tunnel":"yes","waterway":"stream"},"geometry":{"type":"LineString","coordinates":[[-106.954415,34.779853],[-106.954479,34.77961]]}},{"type":"Feature","properties":{"waterway":"stream"},"geometry":{"type":"LineString","coordinates":[[-106.942399,34.790616],[-106.942613,34.789805],[-106.943235,34.789189],[-106.943472,34.788484],[-106.94448,34.78799],[-106.94448,34.78725],[-106.944952,34.787056],[-106.945016,34.786633],[-106.945789,34.785928],[-106.946926,34.785558],[-106.948493,34.784571],[-106.949844,34.783761],[-106.951411,34.782333],[-106.951897,34.781631],[-106.952626,34.780993],[-106.953348,34.780496],[-106.954227,34.780073],[-106.954415,34.779853]]}},{"type":"Feature","properties":{"highway":"track"},"geometry":{"type":"LineString","coordinates":[[-106.975234,34.786171],[-106.974719,34.785761],[-106.974435,34.785356],[-106.972072,34.782838],[-106.971436,34.782272],[-106.971329,34.782029],[-106.971163,34.7818],[-106.970717,34.781368],[-106.970218,34.780972],[-106.969816,34.780827],[-106.969693,34.780558],[-106.96958,34.780258],[-106.968325,34.779549],[-106.967456,34.779187],[-106.966474,34.778875],[-106.965771,34.778725],[-106.964908,34.778597],[-106.964006,34.778571],[-106.963282,34.778483],[-106.96222,34.778518],[-106.955418,34.778654],[-106.955171,34.778729],[-106.954377,34.778742],[-106.952757,34.778861],[-106.952248,34.778703],[-106.950563,34.778725],[-106.950037,34.778826],[-106.949651,34.778725],[-106.947742,34.778791],[-106.947328,34.778756],[-106.946427,34.778782],[-106.945973,34.778816],[-106.944759,34.778839],[-106.943268,34.77891],[-106.941465,34.779121],[-106.94087,34.779311],[-106.939464,34.779566],[-106.937206,34.780377],[-106.937056,34.780459],[-106.936187,34.780738],[-106.935516,34.781166],[-106.934668,34.781417],[-106.929004,34.784171],[-106.928285,34.784365],[-106.927571,34.784664],[-106.927099,34.784787],[-106.926858,34.784946],[-106.926254,34.785055],[-106.925104,34.785078],[-106.924401,34.785118],[-106.922974,34.785083],[-106.921552,34.784871],[-106.92027,34.784431],[-106.919262,34.784047],[-106.917658,34.783069],[-106.916944,34.78247],[-106.916535,34.782169],[-106.912894,34.779293],[-106.909917,34.776989],[-106.907535,34.775112],[-106.907111,34.774874],[-106.906859,34.774627],[-106.90628,34.774244],[-106.905862,34.773737],[-106.905625,34.77349],[-106.905234,34.77319],[-106.904638,34.772851],[-106.904247,34.772446],[-106.903753,34.772314],[-106.903544,34.772129],[-106.903426,34.771745],[-106.90238,34.771058],[-106.901607,34.770485],[-106.900728,34.769617],[-106.900384,34.769392],[-106.899853,34.769317],[-106.898207,34.768008],[-106.897643,34.767259],[-106.896651,34.766435],[-106.896265,34.766083],[-106.895825,34.765805],[-106.89539,34.765483],[-106.894859,34.765333],[-106.894612,34.765051],[-106.89428,34.764761],[-106.89325,34.76417],[-106.892295,34.763906],[-106.890691,34.763518],[-106.888722,34.763337],[-106.887778,34.763306],[-106.88685,34.763315],[-106.885503,34.763571],[-106.882671,34.764558],[-106.875805,34.767052],[-106.868037,34.769899],[-106.863016,34.771802],[-106.860586,34.772587],[-106.858778,34.773349],[-106.857818,34.773674],[-106.857545,34.773627],[-106.856997,34.773807],[-106.85594,34.77405],[-106.854857,34.774164],[-106.85447,34.77427],[-106.854352,34.774433],[-106.853987,34.774472]]}},{"type":"Feature","properties":{"highway":"track"},"geometry":{"type":"LineString","coordinates":[[-106.971458,34.783378],[-106.971675,34.783263],[-106.971903,34.783168],[-106.972045,34.782974],[-106.972072,34.782838]]}},{"type":"Feature","properties":{"highway":"track"},"geometry":{"type":"LineString","coordinates":[[-106.971419,34.785504],[-106.97147,34.783497],[-106.971458,34.783378]]}},{"type":"Feature","properties":{"highway":"track"},"geometry":{"type":"LineString","coordinates":[[-106.970995,34.78581],[-106.971419,34.785504]]}},{"type":"Feature","properties":{"access":"no","highway":"track"},"geometry":{"type":"LineString","coordinates":[[-106.971458,34.783378],[-106.971436,34.783159],[-106.971192,34.782773],[-106.97085,34.782504]]}},{"type":"Feature","properties":{"highway":"track"},"geometry":{"type":"LineString","coordinates":[[-106.965771,34.778725],[-106.965557,34.778835],[-106.965305,34.77932],[-106.96516,34.779558],[-106.965203,34.779844],[-106.965072,34.780199],[-106.965026,34.78047],[-106.964832,34.780774]]}},{"type":"Feature","properties":{"highway":"track"},"geometry":{"type":"LineString","coordinates":[[-106.95641,34.769075],[-106.956432,34.768855],[-106.956094,34.7683],[-106.956033,34.768221],[-106.955939,34.768163]]}},{"type":"Feature","properties":{"highway":"track"},"geometry":{"type":"LineString","coordinates":[[-106.995316,34.790361],[-106.995477,34.790156],[-106.995463,34.78964],[-106.995477,34.789129],[-106.995386,34.788918],[-106.995187,34.788607],[-106.994844,34.788189],[-106.994769,34.787812],[-106.994616,34.787649],[-106.994592,34.787501],[-106.994677,34.787081],[-106.994683,34.786823],[-106.994664,34.786587],[-106.99457,34.78623],[-106.994468,34.786091]]}},{"type":"Feature","properties":{"highway":"path"},"geometry":{"type":"LineString","coordinates":[[-106.994468,34.786091],[-106.99457,34.786045],[-106.995367,34.786122],[-106.995707,34.786091],[-106.995858,34.786017],[-106.996067,34.785836],[-106.996179,34.78579],[-106.996265,34.78573],[-106.996359,34.78564],[-106.996448,34.785517],[-106.996465,34.785452],[-106.996437,34.785335],[-106.996454,34.785306],[-106.996536,34.785256],[-106.996525,34.785214],[-106.996556,34.785167],[-106.996621,34.785126],[-106.996661,34.785134],[-106.996729,34.785095],[-106.996743,34.785029],[-106.996927,34.784927],[-106.997012,34.784862],[-106.997033,34.784793],[-106.997223,34.784628],[-106.997293,34.784595],[-106.997303,34.784565],[-106.997368,34.784556],[-106.997501,34.7845],[-106.99759,34.784393],[-106.997607,34.784326],[-106.997596,34.784296],[-106.997766,34.784109],[-106.997788,34.784028],[-106.997747,34.783894],[-106.997749,34.783694],[-106.997769,34.78358],[-106.997828,34.783533],[-106.997871,34.783471],[-106.997829,34.783282],[-106.997899,34.783062],[-106.997966,34.782935],[-106.998045,34.782859],[-106.998085,34.782757],[-106.998139,34.782689],[-106.998158,34.782488],[-106.998311,34.78238],[-106.998541,34.782265]]}}],"attribution":"© OpenStreetMap contributors"}
