{"type":"FeatureCollection","features":[{"type":"Feature","properties":{"highway":"track"},"geometry":{"type":"LineString","coordinates":[[-106.832725,34.969796],[-106.832595,34.969507],[-106.832559,34.969283],[-106.832551,34.969041],[-106.832309,34.968682],[-106.832177,34.968413],[-106.832093,34.968076],[-106.832009,34.967837],[-106.831938,34.967438],[-106.831854,34.967163],[-106.831743,34.966893],[-106.83164,34.965963],[-106.831557,34.965682],[-106.831521,34.965441],[-106.831416,34.965137],[-106.831366,34.964803],[-106.83135,34.96446],[-106.8313,34.964179],[-106.831223,34.963932],[-106.831008,34.963452],[-106.830895,34.962907],[-106.830769,34.962559],[-106.830578,34.961584],[-106.830591,34.961404],[-106.83063,34.961224],[-106.830601,34.961033],[-106.830578,34.96058],[-106.830582,34.960198],[-106.830436,34.958852],[-106.830427,34.958593],[-106.830259,34.958057],[-106.830265,34.957865],[-106.830174,34.957528],[-106.830048,34.957146],[-106.829924,34.95699],[-106.829845,34.956932]]}},{"type":"Feature","properties":{"highway":"track"},"geometry":{"type":"LineString","coordinates":[[-106.79676,34.958656],[-106.797239,34.958996],[-106.797335,34.95914],[-106.797623,34.959389],[-106.797965,34.959613],[-106.798234,34.960012],[-106.798451,34.960161],[-106.798712,34.960297],[-106.799241,34.960506],[-106.79951,34.960812],[-106.799977,34.961119],[-106.800172,34.961317],[-106.800526,34.961563],[-106.800915,34.961791],[-106.801162,34.961983],[-106.80178,34.962404],[-106.802196,34.962749],[-106.802751,34.963101],[-106.803178,34.963433],[-106.804211,34.964021],[-106.804483,34.964194],[-106.804685,34.964285],[-106.806069,34.964751],[-106.806707,34.965002],[-106.807364,34.965201],[-106.809226,34.965434],[-106.809713,34.965474],[-106.810633,34.965607],[-106.812933,34.965673],[-106.813142,34.965705],[-106.813337,34.965789],[-106.813528,34.965923],[-106.813955,34.966295],[-106.81463,34.966966],[-106.814766,34.967138],[-106.815387,34.967832],[-106.815552,34.96797],[-106.815793,34.968115],[-106.817105,34.968289],[-106.817574,34.968302],[-106.818033,34.968335],[-106.819956,34.968611],[-106.820729,34.968854],[-106.821364,34.969122],[-106.82173,34.969214],[-106.823993,34.969423],[-106.824353,34.96949],[-106.824623,34.969512],[-106.824949,34.969514],[-106.82538,34.969487],[-106.826487,34.969462],[-106.827485,34.969467],[-106.828243,34.96953],[-106.828887,34.969618],[-106.829256,34.969651],[-106.830804,34.969755],[-106.831108,34.969787],[-106.831448,34.969847],[-106.831733,34.969846],[-106.832725,34.969796]]}},{"type":"Feature","properties":{"highway":"track"},"geometry":{"type":"LineString","coordinates":[[-106.781845,34.965159],[-106.781951,34.964857],[-106.782088,34.964561],[-106.782187,34.963969],[-106.782199,34.963687],[-106.78232,34.963317],[-106.78258,34.962699],[-106.782674,34.962345],[-106.782678,34.961862],[-106.782709,34.96129],[-106.7827,34.960994],[-106.782525,34.960574],[-106.782007,34.959544],[-106.781671,34.958903],[-106.78135,34.958333],[-106.781006,34.95764],[-106.780551,34.95665],[-106.78057,34.956274],[-106.780566,34.954764],[-106.780591,34.954207],[-106.780573,34.952628],[-106.780619,34.952104]]}},{"type":"Feature","properties":{"highway":"track"},"geometry":{"type":"LineString","coordinates":[[-106.803574,34.966296],[-106.805392,34.956834],[-106.806468,34.952201]]}},{"type":"Feature","properties":{"highway":"track","name":"Mt Yy"},"geometry":{"type":"LineString","coordinates":[[-106.795472,34.958631],[-106.79676,34.958656]]}},{"type":"Feature","properties":{"highway":"track"},"geometry":{"type":"LineString","coordinates":[[-106.815793,34.968115],[-106.815628,34.968095],[-106.815319,34.968011],[-106.815049,34.967958],[-106.814485,34.967876],[-106.814239,34.96785],[-106.81334,34.967849],[-106.813089,34.967768],[-106.81288,34.96773],[-106.81254,34.967724],[-106.811915,34.967674],[-106.811735,34.967698],[-106.8114,34.967782],[-106.811305,34.96779],[-106.810949,34.967612],[-106.810437,34.967508],[-106.810091,34.967404],[-106.809774,34.967339],[-106.809272,34.967277],[-106.808836,34.967147],[-106.808366,34.967067],[-106.807699,34.966994],[-106.807301,34.966973],[-106.806349,34.966757],[-106.806102,34.966715],[-106.805221,34.966457],[-106.804846,34.966384],[-106.80406,34.966341],[-106.803574,34.966296]]}},{"type":"Feature","properties":{"highway":"residential"},"geometry":{"type":"LineString","coordinates":[[-106.70995,34.950755],[-106.710053,34.951076],[-106.710163,34.951639]]}},{"type":"Feature","properties":{"highway":"residential","name":"Winchester Loop Southwest"},"geometry":{"type":"LineString","coordinates":[[-106.725225,34.965711],[-106.7252,34.969355]]}},{"type":"Feature","properties":{"highway":"residential","name":"Corlena Court Southwest","surface":"unpaved"},"geometry":{"type":"LineString","coordinates":[[-106.719226,34.959183],[-106.719231,34.957185],[-106.719283,34.956669]]}},{"type":"Feature","properties":{"highway":"residential","surface":"unpaved"},"geometry":{"type":"LineString","coordinates":[[-106.720843,34.95668],[-106.720809,34.959209]]}},{"type":"Feature","properties":{"highway":"residential","name":"Krawic Lane Southwest"},"geometry":{"type":"LineString","coordinates":[[-106.721374,34.969565],[-106.721521,34.969643],[-106.721523,34.971146]]}},{"type":"Feature","properties":{"highway":"service","surface":"unpaved"},"geometry":{"type":"LineString","coordinates":[[-106.723025,34.967969],[-106.722039,34.967958]]}},{"type":"Feature","properties":{"highway":"service","surface":"unpaved"},"geometry":{"type":"LineString","coordinates":[[-106.723032,34.966208],[-106.722015,34.966201]]}},{"type":"Feature","properties":{"highway":"residential","name":"Winchester Court Southwest"},"geometry":{"type":"LineString","coordinates":[[-106.728082,34.967133],[-106.727471,34.967135]]}},{"type":"Feature","properties":{"access":"private","highway":"service","surface":"unpaved"},"geometry":{"type":"LineString","coordinates":[[-106.729117,34.966657],[-106.72747,34.966646]]}},{"type":"Feature","properties":{"highway":"residential"},"geometry":{"type":"LineString","coordinates":[[-106.733169,34.968113],[-106.733157,34.967602]]}},{"type":"Feature","properties":{"highway":"residential"},"geometry":{"type":"LineString","coordinates":[[-106.733398,34.967026],[-106.733378,34.967597]]}},{"type":"Feature","properties":{"highway":"residential"},"geometry":{"type":"LineString","coordinates":[[-106.732297,34.9681],[-106.732299,34.967601]]}},{"type":"Feature","properties":{"highway":"service","surface":"unpaved"},"geometry":{"type":"LineString","coordinates":[[-106.721946,34.96707],[-106.723029,34.967077]]}},{"type":"Feature","properties":{"highway":"track"},"geometry":{"type":"LineString","coordinates":[[-106.798538,34.965285],[-106.797338,34.968069],[-106.797431,34.969232],[-106.797842,34.969464]]}},{"type":"Feature","properties":{"highway":"track"},"geometry":{"type":"LineString","coordinates":[[-106.75228,34.956728],[-106.752246,34.956914],[-106.752078,34.958524],[-106.752083,34.958644],[-106.752217,34.958807],[-106.752631,34.95923],[-106.752903,34.959603],[-106.753107,34.959762],[-106.753392,34.959878],[-106.753989,34.960033],[-106.754236,34.960149],[-106.754469,34.960284],[-106.754583,34.960381],[-106.754697,34.960575],[-106.75477,34.960817],[-106.754856,34.960976],[-106.754975,34.961106],[-106.755213,34.961284],[-106.755483,34.961435],[-106.75565,34.961574],[-106.755955,34.961928],[-106.75615,34.962116],[-106.756349,34.962255],[-106.757274,34.962613],[-106.758535,34.963042],[-106.759261,34.963283],[-106.75982,34.963434],[-106.76108,34.963698],[-106.762445,34.96394],[-106.763728,34.964146],[-106.764441,34.964235]]}},{"type":"Feature","properties":{"highway":"tertiary","name":"Norment Road Southwest"},"geometry":{"type":"LineString","coordinates":[[-106.710651,34.961923],[-106.71289,34.961868],[-106.713395,34.961836],[-106.713967,34.961705],[-106.714353,34.961644],[-106.714773,34.961613],[-106.71629,34.961592],[-106.716772,34.961532],[-106.717396,34.961397]]}},{"type":"Feature","properties":{"highway":"residential","name":"Chapulin Road Southwest"},"geometry":{"type":"LineString","coordinates":[[-106.714236,34.959769],[-106.715825,34.959724],[-106.716482,34.959543]]}},{"type":"Feature","properties":{"highway":"residential","name":"Arrington Road"},"geometry":{"type":"LineString","coordinates":[[-106.710157,34.966376],[-106.710329,34.966412],[-106.71103,34.966168],[-106.711092,34.966102],[-106.711118,34.965984],[-106.711079,34.965385],[-106.711087,34.965274]]}},{"type":"Feature","properties":{"highway":"residential","name":"Arrington Place Southwest"},"geometry":{"type":"LineString","coordinates":[[-106.710979,34.964599],[-106.709562,34.964624]]}},{"type":"Feature","properties":{"highway":"residential","name":"Wills Way Southwest"},"geometry":{"type":"LineString","coordinates":[[-106.733466,34.969355],[-106.733448,34.970263],[-106.733469,34.971203]]}},{"type":"Feature","properties":{"highway":"residential","name":"Cleo Road Southwest"},"geometry":{"type":"LineString","coordinates":[[-106.733378,34.967597],[-106.733953,34.967586],[-106.734009,34.967623],[-106.734033,34.967693],[-106.734032,34.968034]]}},{"type":"Feature","properties":{"highway":"residential","name":"Cleo Road Southwest"},"geometry":{"type":"LineString","coordinates":[[-106.727474,34.968182],[-106.729705,34.968226]]}},{"type":"Feature","properties":{"highway":"residential","name":"Roble Blanco Drive Southwest"},"geometry":{"type":"LineString","coordinates":[[-106.713771,34.969707],[-106.713797,34.96953],[-106.713755,34.969409],[-106.712329,34.966852]]}},{"type":"Feature","properties":{"highway":"track","name":"Los Padillas Road"},"geometry":{"type":"LineString","coordinates":[[-106.780642,34.956863],[-106.780888,34.956812],[-106.781244,34.956788],[-106.782733,34.956784],[-106.783402,34.956798],[-106.783826,34.956785],[-106.784208,34.956811],[-106.784393,34.956847],[-106.784762,34.956862],[-106.785363,34.956854],[-106.786552,34.956868],[-106.787378,34.956836],[-106.787761,34.956902],[-106.788021,34.956904],[-106.788669,34.956873],[-106.788807,34.956912],[-106.78951,34.956869],[-106.790575,34.956834],[-106.79382,34.95683],[-106.794401,34.956805],[-106.795808,34.956796],[-106.798219,34.956811],[-106.799668,34.956801],[-106.800932,34.956852],[-106.801225,34.956819],[-106.801724,34.956806],[-106.802421,34.956865],[-106.802824,34.956852],[-106.803144,34.956817],[-106.805214,34.956829],[-106.805966,34.956849],[-106.806717,34.956826],[-106.807824,34.956843],[-106.809491,34.956827],[-106.810215,34.956919],[-106.810447,34.956828],[-106.814348,34.95683],[-106.815837,34.956873],[-106.817026,34.956859],[-106.825011,34.956878],[-106.826043,34.956862],[-106.826521,34.95691],[-106.826679,34.956904],[-106.826904,34.956863],[-106.829479,34.956857],[-106.82978,34.956884],[-106.829845,34.956932]]}},{"type":"Feature","properties":{"highway":"track","name":"Los Padillas Road","surface":"unpaved"},"geometry":{"type":"LineString","coordinates":[[-106.725341,34.956679],[-106.727287,34.956646],[-106.727456,34.956622],[-106.727876,34.956636],[-106.730309,34.956647],[-106.731941,34.956635],[-106.737192,34.956687],[-106.74346,34.95667],[-106.745351,34.956684],[-106.746615,34.956715],[-106.749653,34.9567],[-106.75228,34.956728],[-106.755125,34.956729],[-106.773269,34.956856],[-106.774922,34.956846],[-106.779711,34.956744],[-106.779945,34.956731],[-106.780455,34.95665],[-106.780642,34.956863]]}},{"type":"Feature","properties":{"highway":"residential","name":"Ray Lane"},"geometry":{"type":"LineString","coordinates":[[-106.722535,34.963859],[-106.723042,34.963861],[-106.723041,34.964742]]}},{"type":"Feature","properties":{"highway":"residential","name":"Arrington Street Southwest"},"geometry":{"type":"LineString","coordinates":[[-106.711595,34.96519],[-106.711087,34.965274]]}},{"type":"Feature","properties":{"highway":"residential","name":"Arrington Street Southwest"},"geometry":{"type":"LineString","coordinates":[[-106.711087,34.965274],[-106.710868,34.963783],[-106.710651,34.961923]]}},{"type":"Feature","properties":{"highway":"residential","name":"Della Court Southwest"},"geometry":{"type":"LineString","coordinates":[[-106.710445,34.967586],[-106.710428,34.967653],[-106.710432,34.967722],[-106.710496,34.96784],[-106.712064,34.96954],[-106.712213,34.9696],[-106.713771,34.969707]]}},{"type":"Feature","properties":{"highway":"residential","name":"Winchester Loop Southwest"},"geometry":{"type":"LineString","coordinates":[[-106.723065,34.969293],[-106.723025,34.969224],[-106.723021,34.968828],[-106.723041,34.964742]]}},{"type":"Feature","properties":{"highway":"residential","name":"Rushing Road Southwest"},"geometry":{"type":"LineString","coordinates":[[-106.710868,34.963783],[-106.713088,34.963735]]}},{"type":"Feature","properties":{"highway":"residential","name":"Della Road Southwest"},"geometry":{"type":"LineString","coordinates":[[-106.719237,34.966579],[-106.712641,34.966759],[-106.712479,34.966791],[-106.710538,34.967474],[-106.710445,34.967586]]}},{"type":"Feature","properties":{"highway":"residential","name":"Johniece Drive"},"geometry":{"type":"LineString","coordinates":[[-106.724104,34.97117],[-106.724089,34.969352]]}},{"type":"Feature","properties":{"highway":"residential","name":"O'Sullivan Place Southwest"},"geometry":{"type":"LineString","coordinates":[[-106.711595,34.96519],[-106.712081,34.96511]]}},{"type":"Feature","properties":{"access":"private","highway":"service","name":"Poindexter Lane Southwest","surface":"unpaved"},"geometry":{"type":"LineString","coordinates":[[-106.723041,34.964742],[-106.72205,34.964748]]}},{"type":"Feature","properties":{"highway":"residential","name":"Della Drive Southwest"},"geometry":{"type":"LineString","coordinates":[[-106.713771,34.969707],[-106.71412,34.969732]]}},{"type":"Feature","properties":{"highway":"residential","name":"Abe Sandoval Lane","surface":"unpaved"},"geometry":{"type":"LineString","coordinates":[[-106.751528,34.96401],[-106.749489,34.964009]]}},{"type":"Feature","properties":{"highway":"residential","name":"Lucca Road Southwest"},"geometry":{"type":"LineString","coordinates":[[-106.714766,34.968495],[-106.716808,34.96842],[-106.719232,34.968354]]}},{"type":"Feature","properties":{"highway":"residential","name":"Mc Kim Circle Southwest"},"geometry":{"type":"LineString","coordinates":[[-106.714766,34.968495],[-106.713795,34.966732],[-106.713511,34.965897],[-106.713571,34.965077],[-106.713789,34.963423],[-106.713967,34.961705],[-106.714236,34.959769]]}},{"type":"Feature","properties":{"highway":"track"},"geometry":{"type":"LineString","coordinates":[[-106.764441,34.964235],[-106.765745,34.964379],[-106.767413,34.964725],[-106.768138,34.964914],[-106.768489,34.964956],[-106.768977,34.965102],[-106.770175,34.965266],[-106.770582,34.965336],[-106.771236,34.965497],[-106.772388,34.965856],[-106.772772,34.965952],[-106.773213,34.966032],[-106.773492,34.966029],[-106.773899,34.96605],[-106.77458,34.965987],[-106.774812,34.965924],[-106.774948,34.96583],[-106.775156,34.965766],[-106.775737,34.965622],[-106.776663,34.96545],[-106.776919,34.965447],[-106.777656,34.965366],[-106.778409,34.965398],[-106.779441,34.965477],[-106.779965,34.965414],[-106.780764,34.965201],[-106.781062,34.965162],[-106.781999,34.965158],[-106.783252,34.965116],[-106.783621,34.96505],[-106.784103,34.96504],[-106.784747,34.965061],[-106.785883,34.965129],[-106.786645,34.965142],[-106.78813,34.965083],[-106.789185,34.965064],[-106.790141,34.965113],[-106.790444,34.965162],[-106.79132,34.965199],[-106.792054,34.965287],[-106.792707,34.965316],[-106.793204,34.96527],[-106.793564,34.965298],[-106.794273,34.965306],[-106.795252,34.965234],[-106.795763,34.965219],[-106.796175,34.965177],[-106.796557,34.965109],[-106.796865,34.965092],[-106.797177,34.965142],[-106.797869,34.965199],[-106.798538,34.965285],[-106.799251,34.965401],[-106.799859,34.965663],[-106.800129,34.965759],[-106.800732,34.965934],[-106.801698,34.966091],[-106.802034,34.966128],[-106.802431,34.966138],[-106.802715,34.966166],[-106.803574,34.966296]]}},{"type":"Feature","properties":{"highway":"residential","name":"Poindexter Lane","surface":"unpaved"},"geometry":{"type":"LineString","coordinates":[[-106.724174,34.965714],[-106.72627,34.965711]]}},{"type":"Feature","properties":{"highway":"track","name":"Powerline Road","tracktype":"grade5"},"geometry":{"type":"LineString","coordinates":[[-106.803574,34.966296],[-106.803018,34.969189],[-106.80257,34.971331],[-106.800214,34.983497],[-106.798221,34.993129],[-106.797463,34.997625],[-106.79737,34.998033],[-106.796159,35.00445],[-106.793522,35.017341],[-106.792491,35.022593]]}},{"type":"Feature","properties":{"highway":"residential","name":"Valle Grande Road Southwest"},"geometry":{"type":"LineString","coordinates":[[-106.713571,34.965077],[-106.717549,34.964995],[-106.719053,34.964932]]}},{"type":"Feature","properties":{"highway":"residential","name":"Red Thunder Ridge Southwest"},"geometry":{"type":"LineString","coordinates":[[-106.73033,34.967563],[-106.730323,34.966855]]}},{"type":"Feature","properties":{"highway":"residential","name":"Winchester Road Southwest"},"geometry":{"type":"LineString","coordinates":[[-106.723065,34.969293],[-106.723169,34.969319],[-106.724319,34.969356],[-106.727481,34.969344],[-106.728029,34.969359],[-106.733466,34.969355]]}},{"type":"Feature","properties":{"highway":"residential","name":"Lizard Lane Southwest"},"geometry":{"type":"LineString","coordinates":[[-106.729705,34.968226],[-106.729702,34.967723],[-106.729714,34.967634],[-106.729771,34.967576],[-106.729924,34.967559],[-106.730191,34.967558],[-106.732299,34.967601],[-106.733378,34.967597]]}},{"type":"Feature","properties":{"highway":"track","name":"Indian Service Rt 617","surface":"unpaved"},"geometry":{"type":"LineString","coordinates":[[-106.75228,34.956728],[-106.75267,34.95462],[-106.752989,34.952457],[-106.753614,34.948714],[-106.754775,34.941141],[-106.755349,34.937557],[-106.75592,34.933742],[-106.757101,34.926501],[-106.757773,34.921951],[-106.758397,34.91815],[-106.758817,34.915417],[-106.75939,34.911876],[-106.759996,34.907974],[-106.760197,34.906417],[-106.760602,34.904029],[-106.76109,34.90095],[-106.761442,34.898469],[-106.761966,34.895498],[-106.762108,34.89448]]}},{"type":"Feature","properties":{"highway":"residential","name":"Glory Court Southwest"},"geometry":{"type":"LineString","coordinates":[[-106.713471,34.953744],[-106.711699,34.953747]]}},{"type":"Feature","properties":{"highway":"residential","name":"Lizard Lane"},"geometry":{"type":"LineString","coordinates":[[-106.729718,34.969358],[-106.729705,34.968226]]}},{"type":"Feature","properties":{"highway":"residential","name":"Yao Drive Southwest"},"geometry":{"type":"LineString","coordinates":[[-106.728153,34.970061],[-106.728051,34.969893],[-106.728029,34.969359]]}},{"type":"Feature","properties":{"highway":"residential","name":"Norment Place Southwest"},"geometry":{"type":"LineString","coordinates":[[-106.712333,34.958279],[-106.711971,34.96189]]}},{"type":"Feature","properties":{"highway":"residential","name":"Leroy Lane","surface":"unpaved"},"geometry":{"type":"LineString","coordinates":[[-106.749639,34.959507],[-106.749534,34.95962],[-106.749487,34.963666],[-106.749493,34.96509],[-106.749576,34.96761],[-106.749538,34.968947],[-106.749442,34.971312]]}},{"type":"Feature","properties":{"highway":"residential","name":"Jacqueline Drive Southwest"},"geometry":{"type":"LineString","coordinates":[[-106.727481,34.969344],[-106.72747,34.966646],[-106.727413,34.963008]]}},{"type":"Feature","properties":{"highway":"track","name":"Jeremy Place"},"geometry":{"type":"LineString","coordinates":[[-106.752085,34.958461],[-106.751782,34.958541],[-106.751553,34.958583],[-106.750825,34.958576],[-106.750023,34.958603],[-106.749802,34.95856],[-106.749648,34.95859],[-106.749538,34.958694]]}},{"type":"Feature","properties":{"highway":"residential","name":"Merz Road Southwest"},"geometry":{"type":"LineString","coordinates":[[-106.713789,34.963423],[-106.716961,34.963354],[-106.717357,34.963327],[-106.717716,34.963274],[-106.718338,34.963126]]}},{"type":"Feature","properties":{"highway":"residential","name":"Acequia Drive Southwest"},"geometry":{"type":"LineString","coordinates":[[-106.70946,34.972318],[-106.710589,34.97236],[-106.710786,34.972266],[-106.713073,34.972374],[-106.714874,34.972477],[-106.715464,34.972462],[-106.715794,34.972397],[-106.716406,34.972142],[-106.716682,34.971971],[-106.716757,34.971787],[-106.716822,34.969614],[-106.716808,34.96842]]}},{"type":"Feature","properties":{"tunnel":"culvert","waterway":"stream"},"geometry":{"type":"LineString","coordinates":[[-106.718178,34.956584],[-106.718175,34.956457]]}},{"type":"Feature","properties":{"name":"Gun Club Lateral","waterway":"ditch"},"geometry":{"type":"LineString","coordinates":[[-106.718175,34.956457],[-106.71812,34.956337],[-106.717445,34.955472],[-106.717388,34.955249],[-106.717207,34.954061],[-106.717216,34.953883],[-106.717424,34.953343],[-106.71743,34.953222],[-106.717325,34.953072],[-106.717086,34.952915],[-106.716866,34.952803],[-106.716176,34.952915],[-106.716046,34.952876],[-106.715407,34.952209],[-106.715359,34.952107],[-106.715359,34.952051]]}},{"type":"Feature","properties":{"highway":"tertiary","name":"Malpais Road Southwest"},"geometry":{"type":"LineString","coordinates":[[-106.694228,34.950376],[-106.700174,34.951056],[-106.703155,34.95132],[-106.704951,34.951752],[-106.705108,34.951762],[-106.705933,34.951812],[-106.709505,34.95185],[-106.709882,34.951782],[-106.710414,34.951505],[-106.710803,34.951439],[-106.712288,34.951491]]}},{"type":"Feature","properties":{"highway":"primary","name":"Old Coors Road Southwest","ref":"NM 45"},"geometry":{"type":"LineString","coordinates":[[-106.719001,34.990918],[-106.719169,34.987049],[-106.719157,34.985038],[-106.719181,34.983147],[-106.719196,34.976774],[-106.719185,34.974955],[-106.719235,34.971133],[-106.719237,34.966579],[-106.719211,34.965985],[-106.719114,34.965227],[-106.719053,34.964932],[-106.718865,34.964307],[-106.718338,34.963126],[-106.717396,34.961397],[-106.716482,34.959543],[-106.714966,34.956559],[-106.714807,34.956288],[-106.712288,34.951491]]}},{"type":"Feature","properties":{"highway":"primary_link","oneway":"yes"},"geometry":{"type":"LineString","coordinates":[[-106.715298,34.957214],[-106.715274,34.956968],[-106.715208,34.956776],[-106.715203,34.956667],[-106.715343,34.956535]]}},{"type":"Feature","properties":{"name":"McCoy Dam","natural":"water"},"geometry":{"type":"Polygon","coordinates":[[[-106.724465,34.963265],[-106.723745,34.962926],[-106.723377,34.962734],[-106.722594,34.962668],[-106.721956,34.962661],[-106.721821,34.962579],[-106.72157,34.962019],[-106.720994,34.961268],[-106.72032,34.960634],[-106.72023,34.960421],[-106.720302,34.96017],[-106.7205,34.960037],[-106.721021,34.959971],[-106.722837,34.959337],[-106.722945,34.960479],[-106.724231,34.962506],[-106.724465,34.963265]]]}},{"type":"Feature","properties":{"name":"Gun Club Lateral","waterway":"ditch"},"geometry":{"type":"LineString","coordinates":[[-106.719962,34.971031],[-106.720193,34.970671],[-106.720413,34.97038],[-106.721566,34.969308],[-106.721636,34.96922],[-106.721642,34.969101],[-106.721615,34.969018],[-106.721352,34.968692],[-106.72111,34.968227],[-106.720578,34.966965],[-106.720531,34.966777],[-106.720497,34.965848],[-106.72074,34.963878],[-106.720786,34.963363],[-106.720789,34.963009],[-106.72073,34.962533],[-106.720521,34.961892],[-106.72041,34.96162],[-106.720235,34.961376],[-106.7199,34.961047],[-106.719718,34.960905],[-106.718928,34.960467],[-106.718808,34.960296],[-106.717921,34.957414],[-106.717926,34.957277],[-106.718178,34.956584]]}},{"type":"Feature","properties":{"natural":"water"},"geometry":{"type":"Polygon","coordinates":[[[-106.728392,34.960631],[-106.727681,34.960599],[-106.727633,34.961323],[-106.728344,34.961355],[-106.728392,34.960631]]]}},{"type":"Feature","properties":{"natural":"water"},"geometry":{"type":"Polygon","coordinates":[[[-106.729421,34.961789],[-106.728501,34.961759],[-106.728553,34.960702],[-106.729473,34.960733],[-106.729421,34.961789]]]}},{"type":"Feature","properties":{"highway":"track","name":"Mr 19"},"geometry":{"type":"LineString","coordinates":[[-106.791403,34.965212],[-106.791378,34.964761],[-106.791446,34.962604],[-106.791481,34.96027],[-106.791475,34.959578]]}},{"type":"Feature","properties":{"highway":"tertiary","name":"Los Padillas Road Southwest"},"geometry":{"type":"LineString","coordinates":[[-106.714966,34.956559],[-106.71087,34.956861],[-106.707358,34.95704],[-106.706355,34.95711],[-106.705142,34.957115]]}},{"type":"Feature","properties":{"highway":"tertiary","name":"Los Padillas Road Southwest","surface":"unpaved"},"geometry":{"type":"LineString","coordinates":[[-106.725341,34.956679],[-106.725097,34.956699],[-106.724803,34.956701],[-106.722197,34.956663],[-106.720933,34.956679]]}},{"type":"Feature","properties":{"highway":"track","name":"Los Padillas Road Southwest"},"geometry":{"type":"LineString","coordinates":[[-106.750588,34.952803],[-106.751024,34.952694],[-106.751952,34.952428],[-106.75305,34.952092]]}},{"type":"Feature","properties":{"highway":"track","name":"Los Padillas Road Southwest"},"geometry":{"type":"LineString","coordinates":[[-106.75305,34.952092],[-106.754698,34.95163],[-106.755366,34.951425],[-106.756674,34.950931],[-106.757119,34.950796],[-106.75801,34.95056],[-106.758492,34.950451],[-106.758887,34.950381],[-106.761138,34.949855],[-106.762874,34.949426],[-106.763491,34.949324],[-106.764221,34.949281],[-106.764657,34.949279],[-106.766019,34.949318],[-106.767386,34.949455],[-106.768748,34.949528],[-106.76925,34.949541],[-106.770054,34.949516],[-106.770561,34.94953],[-106.772709,34.949727],[-106.773249,34.949817],[-106.774069,34.950025],[-106.774613,34.950184],[-106.774953,34.950309],[-106.776168,34.950609],[-106.776876,34.950832],[-106.77695,34.95084],[-106.778245,34.95132],[-106.779415,34.951724],[-106.780514,34.952081],[-106.780807,34.952145],[-106.781342,34.952232],[-106.781891,34.95236],[-106.782195,34.952569],[-106.782367,34.952662],[-106.782656,34.952737],[-106.784052,34.95299],[-106.784214,34.953],[-106.784628,34.952983],[-106.784991,34.953024],[-106.785656,34.953148],[-106.786972,34.953201],[-106.787694,34.953258]]}},{"type":"Feature","properties":{"highway":"track"},"geometry":{"type":"LineString","coordinates":[[-106.826453,34.969463],[-106.826312,34.969514],[-106.826194,34.969528],[-106.825162,34.969536],[-106.824309,34.969676],[-106.823482,34.969855],[-106.822836,34.970092],[-106.821606,34.970503],[-106.820648,34.970778],[-106.820347,34.97085],[-106.820297,34.970763],[-106.820259,34.970485],[-106.820146,34.969909],[-106.81999,34.969447],[-106.819952,34.969092],[-106.819956,34.968611]]}},{"type":"Feature","properties":{"highway":"track"},"geometry":{"type":"LineString","coordinates":[[-106.815793,34.968115],[-106.815709,34.968206],[-106.815672,34.968297],[-106.815632,34.968517],[-106.815652,34.969024],[-106.815682,34.969393],[-106.81581,34.969754],[-106.815928,34.9699],[-106.816032,34.970266],[-106.816022,34.970522],[-106.815972,34.970743],[-106.815955,34.971288],[-106.815985,34.971393],[-106.816035,34.971481],[-106.816187,34.971508],[-106.81771,34.971467],[-106.818032,34.97142],[-106.820347,34.97085]]}},{"type":"Feature","properties":{"highway":"service","surface":"unpaved"},"geometry":{"type":"LineString","coordinates":[[-106.71258,34.952047],[-106.712828,34.951973],[-106.714236,34.951978],[-106.716187,34.952023],[-106.716323,34.952118],[-106.716483,34.952128],[-106.717064,34.951991],[-106.717562,34.951977],[-106.717697,34.951941],[-106.717866,34.951855],[-106.718073,34.951675],[-106.718187,34.951546],[-106.718233,34.951531],[-106.718285,34.951535],[-106.718641,34.951689],[-106.717697,34.951941]]}},{"type":"Feature","properties":{"highway":"service","surface":"unpaved"},"geometry":{"type":"LineString","coordinates":[[-106.716187,34.952023],[-106.716252,34.952256],[-106.716452,34.95262],[-106.716504,34.952705],[-106.716597,34.952757],[-106.716877,34.952774],[-106.717182,34.952836],[-106.717705,34.952779],[-106.718042,34.952781]]}}],"attribution":"© OpenStreetMap contributors"}
