{"type":"FeatureCollection","features":[{"type":"Feature","properties":{"contour":100.0,"unit":"m"},"geometry":{"type":"MultiLineString","coordinates":[[[-97.29,30.0605],[-97.293,30.065]],[[-97.276875,30.05],[-97.275,30.053]],[[-97.27416666666667,30.05],[-97.275,30.053]],[[-97.21263157894737,30.05],[-97.2,30.057058823529413]],[[-97.32,30.07205882352941],[-97.32843749999999,30.08]],[[-97.3160294117647,30.08],[-97.32,30.07205882352941]],[[-97.293,30.065],[-97.29,30.066022727272728]],[[-97.28357142857143,30.065],[-97.29,30.066022727272728]],[[-97.32843749999999,30.08],[-97.32,30.087105263157895]],[[-97.3160294117647,30.08],[-97.32,30.087105263157895]],[[-97.365,30.137857142857143],[-97.369,30.14]],[[-97.36323529411764,30.14],[-97.365,30.137857142857143]],[[-97.369,30.14],[-97.365,30.143333333333334]],[[-97.36323529411764,30.14],[-97.365,30.143333333333334]]]}},{"type":"Feature","properties":{"contour":120.0,"unit":"m"},"geometry":{"type":"MultiLineString","coordinates":[[[-97.38,30.062],[-97.38272727272727,30.065]],[[-97.37076923076923,30.05],[-97.365,30.0625]],[[-97.35,30.05],[-97.365,30.0625]],[[-97.35,30.05],[-97.35,30.065]],[[-97.26,30.051551724137934],[-97.26928571428572,30.065]],[[-97.245,30.064117647058826],[-97.26,30.051551724137934]],[[-97.23,30.06184210526316],[-97.245,30.064117647058826]],[[-97.22500000000001,30.065],[-97.23,30.06184210526316]],[[-97.395,30.0734375],[-97.402,30.08]],[[-97.38272727272727,30.065],[-97.38,30.08]],[[-97.36999999999999,30.065],[-97.38,30.08]],[[-97.35,30.065],[-97.34892857142856,30.08]],[[-97.305,30.07423076923077],[-97.30720588235295,30.08]],[[-97.29,30.07284090909091],[-97.305,30.07423076923077]],[[-97.275,30.072499999999998],[-97.29,30.07284090909091]],[[-97.26928571428572,30.065],[-97.275,30.072499999999998]],[[-97.22500000000001,30.065],[-97.215,30.078333333333333]],[[-97.2,30.066428571428574],[-97.215,30.078333333333333]],[[-97.402,30.08],[-97.395,30.089545454545455]],[[-97.38,30.08],[-97.395,30.089545454545455]],[[-97.35,30.0815],[-97.36349999999999,30.095]],[[-97.34892857142856,30.08],[-97.35,30.0815]],[[-97.30720588235295,30.08],[-97.31423076923076,30.095]],[[-97.36349999999999,30.095],[-97.35562499999999,30.11]],[[-97.31423076923076,30.095],[-97.314,30.11]],[[-97.35562499999999,30.11],[-97.3603846153846,30.125]],[[-97.314,30.11],[-97.3175,30.125]],[[-97.38,30.13325],[-97.38749999999999,30.14]],[[-97.365,30.127142857142857],[-97.38,30.13325]],[[-97.3603846153846,30.125],[-97.35,30.132105263157897]],[[-97.335,30.131666666666668],[-97.35,30.132105263157897]],[[-97.32,30.13357142857143],[-97.335,30.131666666666668]],[[-97.3175,30.125],[-97.32,30.13357142857143]],[[-97.425,30.14966666666667],[-97.44,30.155]],[[-97.41,30.154642857142857],[-97.425,30.14966666666667]],[[-97.395,30.15125],[-97.41,30.154642857142857]],[[-97.38749999999999,30.14],[-97.395,30.15125]],[[-97.35441176470587,30.14],[-97.35,30.1475]],[[-97.34347826086956,30.155],[-97.35,30.1475]],[[-97.44,30.155],[-97.425,30.17]],[[-97.425,30.17],[-97.425,30.17]],[[-97.34347826086956,30.155],[-97.34519999999999,30.17]],[[-97.5,30.180714285714284],[-97.506,30.185]],[[-97.495,30.185],[-97.5,30.180714285714284]],[[-97.47,30.18318181818182],[-97.47749999999999,30.185]],[[-97.46,30.185],[-97.47,30.18318181818182]],[[-97.425,30.17],[-97.41,30.175454545454546]],[[-97.40416666666667,30.185],[-97.41,30.175454545454546]],[[-97.365,30.177500000000002],[-97.3715625,30.185]],[[-97.35,30.183333333333334],[-97.365,30.177500000000002]],[[-97.34519999999999,30.17],[-97.35,30.183333333333334]],[[-97.515,30.190624999999997],[-97.524375,30.2]],[[-97.506,30.185],[-97.5,30.1925]],[[-97.495,30.185],[-97.5,30.1925]],[[-97.47749999999999,30.185],[-97.47,30.2]],[[-97.46,30.185],[-97.47,30.2]],[[-97.41,30.194545454545455],[-97.41461538461539,30.2]],[[-97.40416666666667,30.185],[-97.41,30.194545454545455]],[[-97.38,30.193437499999998],[-97.38617647058823,30.2]],[[-97.3715625,30.185],[-97.38,30.193437499999998]],[[-97.35,30.187142857142856],[-97.35321428571427,30.2]],[[-97.33999999999999,30.2],[-97.35,30.187142857142856]],[[-97.524375,30.2],[-97.52454545454546,30.215]],[[-97.50428571428571,30.2],[-97.50333333333333,30.215]],[[-97.41461538461539,30.2],[-97.4125,30.215]],[[-97.395,30.210714285714285],[-97.40166666666666,30.215]],[[-97.38617647058823,30.2],[-97.395,30.210714285714285]],[[-97.35321428571427,30.2],[-97.35,30.208181818181817]],[[-97.33999999999999,30.2],[-97.35,30.208181818181817]],[[-97.53,30.227],[-97.5375,30.23]],[[-97.52454545454546,30.215],[-97.515,30.22375]],[[-97.50333333333333,30.215],[-97.515,30.22375]],[[-97.425,30.227096774193548],[-97.4278125,30.23]],[[-97.4125,30.215],[-97.41,30.2225]],[[-97.40166666666666,30.215],[-97.41,30.2225]],[[-97.5375,30.23],[-97.53,30.23375]],[[-97.5275,30.23],[-97.53,30.23375]],[[-97.4278125,30.23],[-97.425,30.23391304347826]],[[-97.41681818181817,30.23],[-97.425,30.23391304347826]]]}},{"type":"Feature","properties":{"contour":140.0,"unit":"m"},"geometry":{"type":"MultiLineString","coordinates":[[[-97.56,30.06416666666667],[-97.565,30.065]],[[-97.55875,30.065],[-97.56,30.06416666666667]],[[-97.485,30.063928571428573],[-97.48625,30.065]],[[-97.4825,30.065],[-97.485,30.063928571428573]],[[-97.46,30.05],[-97.455,30.059]],[[-97.452,30.065],[-97.455,30.059]],[[-97.4325,30.05],[-97.425,30.0635]],[[-97.41535714285715,30.05],[-97.425,30.0635]],[[-97.395,30.05],[-97.395,30.05]],[[-97.395,30.05],[-97.395,30.05]],[[-97.26,30.06189655172414],[-97.26214285714286,30.065]],[[-97.2564,30.065],[-97.26,30.06189655172414]],[[-97.565,30.065],[-97.56,30.067500000000003]],[[-97.55875,30.065],[-97.545,30.076785714285712]],[[-97.53,30.070454545454545],[-97.545,30.076785714285712]],[[-97.515,30.075],[-97.53,30.070454545454545]],[[-97.5,30.071875],[-97.515,30.075]],[[-97.48625,30.065],[-97.5,30.071875]],[[-97.4825,30.065],[-97.47,30.07125]],[[-97.455,30.069285714285716],[-97.47,30.07125]],[[-97.452,30.065],[-97.455,30.069285714285716]],[[-97.29,30.07965909090909],[-97.29093750000001,30.08]],[[-97.287,30.08],[-97.29,30.07965909090909]],[[-97.26214285714286,30.065],[-97.2714705882353,30.08]],[[-97.2564,30.065],[-97.245,30.076874999999998]],[[-97.24105263157895,30.08],[-97.245,30.076874999999998]],[[-97.550625,30.08],[-97.545,30.081730769230766]],[[-97.53,30.084772727272725],[-97.545,30.081730769230766]],[[-97.515,30.08576923076923],[-97.53,30.084772727272725]],[[-97.50576923076923,30.095],[-97.515,30.08576923076923]],[[-97.38,30.092499999999998],[-97.383,30.095]],[[-97.37739130434782,30.095],[-97.38,30.092499999999998]],[[-97.29093750000001,30.08],[-97.30227272727274,30.095]],[[-97.287,30.08],[-97.28,30.095]],[[-97.2714705882353,30.08],[-97.27017857142857,30.095]],[[-97.24105263157895,30.08],[-97.23611111111111,30.095]],[[-97.50576923076923,30.095],[-97.5,30.099166666666665]],[[-97.485,30.1015625],[-97.5,30.099166666666665]],[[-97.47,30.1025],[-97.485,30.1015625]],[[-97.455,30.10325],[-97.47,30.1025]],[[-97.44,30.10653846153846],[-97.455,30.10325]],[[-97.425,30.109117647058824],[-97.44,30.10653846153846]],[[-97.42375,30.11],[-97.425,30.109117647058824]],[[-97.395,30.107631578947366],[-97.39821428571429,30.11]],[[-97.383,30.095],[-97.38,30.105]],[[-97.37739130434782,30.095],[-97.38,30.105]],[[-97.30227272727274,30.095],[-97.29863636363638,30.11]],[[-97.28,30.095],[-97.275,30.102105263157895]],[[-97.27017857142857,30.095],[-97.275,30.102105263157895]],[[-97.23611111111111,30.095],[-97.23660000000001,30.11]],[[-97.42375,30.11],[-97.41,30.117173913043477]],[[-97.39821428571429,30.11],[-97.41,30.117173913043477]],[[-97.386,30.11],[-97.39125,30.125]],[[-97.305,30.116176470588236],[-97.31125,30.125]],[[-97.29863636363638,30.11],[-97.305,30.116176470588236]],[[-97.23660000000001,30.11],[-97.23375,30.125]],[[-97.215,30.1175],[-97.227,30.125]],[[-97.2,30.115714285714287],[-97.215,30.1175]],[[-97.395,30.128214285714286],[-97.40015625,30.14]],[[-97.39125,30.125],[-97.395,30.128214285714286]],[[-97.31125,30.125],[-97.305,30.1325]],[[-97.2968918918919,30.14],[-97.305,30.1325]],[[-97.23375,30.125],[-97.2323076923077,30.14]],[[-97.227,30.125],[-97.215,30.138333333333335]],[[-97.2,30.13475],[-97.215,30.138333333333335]],[[-97.515,30.15457142857143],[-97.51534090909091,30.155]],[[-97.51411764705882,30.155],[-97.515,30.15457142857143]],[[-97.455,30.151447368421053],[-97.45897058823529,30.155]],[[-97.44,30.14346153846154],[-97.455,30.151447368421053]],[[-97.425,30.143],[-97.44,30.14346153846154]],[[-97.41,30.1475],[-97.425,30.143]],[[-97.40015625,30.14],[-97.41,30.1475]],[[-97.32,30.150000000000002],[-97.32749999999999,30.155]],[[-97.305,30.153636363636366],[-97.32,30.150000000000002]],[[-97.2968918918919,30.14],[-97.29,30.15214285714286]],[[-97.28142857142858,30.155],[-97.29,30.15214285714286]],[[-97.2323076923077,30.14],[-97.23,30.141111111111112]],[[-97.215,30.143],[-97.23,30.141111111111112]],[[-97.2,30.155],[-97.215,30.143]],[[-97.59,30.164375],[-97.59642857142858,30.17]],[[-97.575,30.164473684210527],[-97.59,30.164375]],[[-97.56,30.164375],[-97.575,30.164473684210527]],[[-97.545,30.156875],[-97.56,30.164375]],[[-97.53,30.17],[-97.545,30.156875]],[[-97.51534090909091,30.155],[-97.53,30.17]],[[-97.51411764705882,30.155],[-97.5,30.162741935483872]],[[-97.48928571428571,30.17],[-97.5,30.162741935483872]],[[-97.45897058823529,30.155],[-97.455,30.162105263157898]],[[-97.4498275862069,30.17],[-97.455,30.162105263157898]],[[-97.32749999999999,30.155],[-97.33090909090909,30.17]],[[-97.30000000000001,30.155],[-97.29642857142858,30.17]],[[-97.28142857142858,30.155],[-97.281,30.17]],[[-97.62,30.177500000000002],[-97.62666666666667,30.185]],[[-97.61500000000001,30.185],[-97.62,30.177500000000002]],[[-97.59642857142858,30.17],[-97.59,30.179]],[[-97.575,30.179545454545455],[-97.59,30.179]],[[-97.56,30.1784375],[-97.575,30.179545454545455]],[[-97.55250000000001,30.185],[-97.56,30.1784375]],[[-97.53,30.17],[-97.53,30.17]],[[-97.53,30.17],[-97.53,30.17]],[[-97.48928571428571,30.17],[-97.485,30.17409090909091]],[[-97.47,30.17409090909091],[-97.485,30.17409090909091]],[[-97.455,30.175357142857145],[-97.47,30.17409090909091]],[[-97.4498275862069,30.17],[-97.455,30.175357142857145]],[[-97.33090909090909,30.17],[-97.328125,30.185]],[[-97.29642857142858,30.17],[-97.293,30.185]],[[-97.281,30.17],[-97.281,30.185]],[[-97.635,30.195714285714285],[-97.63928571428572,30.2]],[[-97.62666666666667,30.185],[-97.635,30.195714285714285]],[[-97.61500000000001,30.185],[-97.605,30.191]],[[-97.59,30.1875],[-97.605,30.191]],[[-97.575,30.187727272727273],[-97.59,30.1875]],[[-97.56,30.196666666666665],[-97.575,30.187727272727273]],[[-97.55250000000001,30.185],[-97.56,30.196666666666665]],[[-97.365,30.198],[-97.36699999999999,30.2]],[[-97.36392857142857,30.2],[-97.365,30.198]],[[-97.328125,30.185],[-97.32555555555555,30.2]],[[-97.293,30.185],[-97.29,30.189999999999998]],[[-97.281,30.185],[-97.275,30.189285714285713]],[[-97.26923076923077,30.2],[-97.275,30.189285714285713]],[[-97.65,30.20625],[-97.65525000000001,30.215]],[[-97.63928571428572,30.2],[-97.65,30.20625]],[[-97.44,30.205454545454543],[-97.44777777777777,30.215]],[[-97.425,30.2103125],[-97.44,30.205454545454543]],[[-97.4225,30.215],[-97.425,30.2103125]],[[-97.36699999999999,30.2],[-97.37666666666667,30.215]],[[-97.36392857142857,30.2],[-97.36022727272727,30.215]],[[-97.335,30.214166666666667],[-97.3359375,30.215]],[[-97.32555555555555,30.2],[-97.32,30.213636363636365]],[[-97.3185,30.215],[-97.32,30.213636363636365]],[[-97.28181818181818,30.2],[-97.275,30.2046875]],[[-97.26923076923077,30.2],[-97.275,30.2046875]],[[-97.665,30.223478260869566],[-97.67863636363637,30.23]],[[-97.65525000000001,30.215],[-97.665,30.223478260869566]],[[-97.47,30.225434782608694],[-97.48166666666667,30.23]],[[-97.455,30.228928571428572],[-97.47,30.225434782608694]],[[-97.44777777777777,30.215],[-97.455,30.228928571428572]],[[-97.425,30.21741935483871],[-97.4371875,30.23]],[[-97.4225,30.215],[-97.425,30.21741935483871]],[[-97.38,30.21676470588235],[-97.39184210526315,30.23]],[[-97.37666666666667,30.215],[-97.38,30.21676470588235]],[[-97.36022727272727,30.215],[-97.35,30.2275]],[[-97.3359375,30.215],[-97.335,30.215833333333332]],[[-97.32749999999999,30.215],[-97.335,30.215833333333332]],[[-97.3185,30.215],[-97.3096875,30.23]],[[-97.725,30.239310344827587],[-97.729125,30.245]],[[-97.71,30.241470588235295],[-97.725,30.239310344827587]],[[-97.695,30.236136363636366],[-97.71,30.241470588235295]],[[-97.68,30.2375],[-97.695,30.236136363636366]],[[-97.67863636363637,30.23],[-97.68,30.2375]],[[-97.59,30.24269230769231],[-97.593,30.245]],[[-97.587,30.245],[-97.59,30.24269230769231]],[[-97.5,30.245],[-97.5,30.245]],[[-97.485,30.232307692307693],[-97.5,30.245]],[[-97.48166666666667,30.23],[-97.485,30.232307692307693]],[[-97.44,30.24125],[-97.44375,30.245]],[[-97.4371875,30.23],[-97.44,30.24125]],[[-97.395,30.235454545454544],[-97.408125,30.245]],[[-97.39184210526315,30.23],[-97.395,30.235454545454544]],[[-97.35,30.23375],[-97.35421875,30.245]],[[-97.34774999999999,30.23],[-97.35,30.23375]],[[-97.32,30.23825],[-97.32964285714286,30.245]],[[-97.3096875,30.23],[-97.32,30.23825]],[[-97.755,30.259],[-97.75625,30.26]],[[-97.75,30.26],[-97.755,30.259]],[[-97.729125,30.245],[-97.725,30.254166666666666]],[[-97.71,30.25357142857143],[-97.725,30.254166666666666]],[[-97.695,30.258928571428573],[-97.71,30.25357142857143]],[[-97.69125,30.26],[-97.695,30.258928571428573]],[[-97.62,30.25365384615385],[-97.6275,30.26]],[[-97.605,30.250454545454545],[-97.62,30.25365384615385]],[[-97.593,30.245],[-97.605,30.250454545454545]],[[-97.587,30.245],[-97.575,30.252058823529413]],[[-97.56857142857143,30.26],[-97.575,30.252058823529413]],[[-97.515,30.259062500000002],[-97.51875,30.26]],[[-97.5,30.245],[-97.515,30.259062500000002]],[[-97.44375,30.245],[-97.44749999999999,30.26]],[[-97.41,30.247142857142858],[-97.4145,30.26]],[[-97.408125,30.245],[-97.41,30.247142857142858]],[[-97.35421875,30.245],[-97.35,30.25294117647059]],[[-97.3442857142857,30.26],[-97.35,30.25294117647059]],[[-97.32964285714286,30.245],[-97.32,30.2585]],[[-97.31892857142857,30.26],[-97.32,30.2585]],[[-97.75625,30.26],[-97.755,30.26103448275862]],[[-97.75,30.26],[-97.755,30.26103448275862]],[[-97.69125,30.26],[-97.68,30.263461538461538]],[[-97.665,30.264444444444447],[-97.68,30.263461538461538]],[[-97.653125,30.275],[-97.665,30.264444444444447]],[[-97.635,30.264342105263157],[-97.64765625000001,30.275]],[[-97.6275,30.26],[-97.635,30.264342105263157]],[[-97.56857142857143,30.26],[-97.56,30.27285714285714]],[[-97.545,30.271666666666665],[-97.56,30.27285714285714]],[[-97.53,30.26125],[-97.545,30.271666666666665]],[[-97.51875,30.26],[-97.53,30.26125]],[[-97.44749999999999,30.26],[-97.44865384615385,30.275]],[[-97.425,30.2705],[-97.42928571428571,30.275]],[[-97.4145,30.26],[-97.425,30.2705]],[[-97.38,30.27344827586207],[-97.383,30.275]],[[-97.37795454545454,30.275],[-97.38,30.27344827586207]],[[-97.3442857142857,30.26],[-97.335,30.266964285714288]],[[-97.32,30.2675],[-97.335,30.266964285714288]],[[-97.31892857142857,30.26],[-97.305,30.268478260869564]],[[-97.29346153846154,30.275],[-97.305,30.268478260869564]],[[-97.785,30.287966101694913],[-97.78666666666666,30.29]],[[-97.78214285714286,30.29],[-97.785,30.287966101694913]],[[-97.653125,30.275],[-97.65,30.28333333333333]],[[-97.64765625000001,30.275],[-97.65,30.28333333333333]],[[-97.56,30.285],[-97.56046875,30.29]],[[-97.55960526315789,30.29],[-97.56,30.285]],[[-97.44865384615385,30.275],[-97.446,30.29]],[[-97.42928571428571,30.275],[-97.425,30.28142857142857]],[[-97.41868421052631,30.29],[-97.425,30.28142857142857]],[[-97.383,30.275],[-97.38107142857143,30.29]],[[-97.37795454545454,30.275],[-97.37899999999999,30.29]],[[-97.31863636363636,30.275],[-97.305,30.285]],[[-97.29346153846154,30.275],[-97.305,30.285]],[[-97.78666666666666,30.29],[-97.785,30.292608695652174]],[[-97.78214285714286,30.29],[-97.785,30.292608695652174]],[[-97.56046875,30.29],[-97.56,30.291363636363634]],[[-97.55960526315789,30.29],[-97.56,30.291363636363634]],[[-97.455,30.299310344827585],[-97.4605,30.305]],[[-97.446,30.29],[-97.455,30.299310344827585]],[[-97.425,30.298571428571428],[-97.43142857142857,30.305]],[[-97.41868421052631,30.29],[-97.425,30.298571428571428]],[[-97.38107142857143,30.29],[-97.38,30.291363636363634]],[[-97.37899999999999,30.29],[-97.38,30.291363636363634]],[[-97.29,30.294999999999998],[-97.29545454545455,30.305]],[[-97.28571428571429,30.305],[-97.29,30.294999999999998]],[[-97.485,30.319117647058825],[-97.49,30.32]],[[-97.47,30.315555555555555],[-97.485,30.319117647058825]],[[-97.4605,30.305],[-97.47,30.315555555555555]],[[-97.44,30.3125],[-97.44923076923077,30.32]],[[-97.43142857142857,30.305],[-97.44,30.3125]],[[-97.29545454545455,30.305],[-97.29,30.317]],[[-97.28571428571429,30.305],[-97.29,30.317]],[[-97.49,30.32],[-97.485,30.324285714285715]],[[-97.47,30.330909090909092],[-97.485,30.324285714285715]],[[-97.455,30.328333333333333],[-97.47,30.330909090909092]],[[-97.44923076923077,30.32],[-97.455,30.328333333333333]],[[-97.26,30.341617647058825],[-97.26662790697675,30.35]],[[-97.25337209302326,30.35],[-97.26,30.341617647058825]],[[-97.26662790697675,30.35],[-97.26,30.357916666666668]],[[-97.25337209302326,30.35],[-97.245,30.36090909090909]],[[-97.23272727272727,30.365],[-97.245,30.36090909090909]],[[-97.25019230769232,30.365],[-97.245,30.369999999999997]],[[-97.23272727272727,30.365],[-97.245,30.369999999999997]],[[-97.215,30.370624999999997],[-97.22333333333334,30.38]],[[-97.20964285714285,30.38],[-97.215,30.370624999999997]],[[-97.22333333333334,30.38],[-97.215,30.3925]],[[-97.20964285714285,30.38],[-97.2,30.387105263157896]],[[-97.23,30.4085],[-97.23166666666667,30.41]],[[-97.215,30.397142857142857],[-97.23,30.4085]],[[-97.21363636363637,30.395],[-97.215,30.397142857142857]],[[-97.23166666666667,30.41],[-97.23375,30.425]],[[-97.215,30.4136],[-97.22925000000001,30.425]],[[-97.2,30.414655172413795],[-97.215,30.4136]],[[-97.23375,30.425],[-97.23,30.425714285714285]],[[-97.22925000000001,30.425],[-97.23,30.425714285714285]]]}},{"type":"Feature","properties":{"contour":160.0,"unit":"m"},"geometry":{"type":"MultiLineString","coordinates":[[[-97.64250000000001,30.05],[-97.635,30.060000000000002]],[[-97.62,30.056206896551725],[-97.635,30.060000000000002]],[[-97.605,30.060909090909092],[-97.62,30.056206896551725]],[[-97.59807692307693,30.065],[-97.605,30.060909090909092]],[[-97.5782142857143,30.05],[-97.575,30.052142857142858]],[[-97.5675,30.05],[-97.575,30.052142857142858]],[[-97.55678571428572,30.05],[-97.545,30.05825]],[[-97.53,30.055400000000002],[-97.545,30.05825]],[[-97.51650000000001,30.05],[-97.53,30.055400000000002]],[[-97.5075,30.05],[-97.5,30.0515]],[[-97.498125,30.05],[-97.5,30.0515]],[[-97.59807692307693,30.065],[-97.59,30.07025]],[[-97.57973684210526,30.08],[-97.59,30.07025]],[[-97.57973684210526,30.08],[-97.575,30.085625]],[[-97.56,30.091842105263158],[-97.575,30.085625]],[[-97.545,30.09326923076923],[-97.56,30.091842105263158]],[[-97.539375,30.095],[-97.545,30.09326923076923]],[[-97.539375,30.095],[-97.53225,30.11]],[[-97.26,30.097142857142856],[-97.265625,30.11]],[[-97.2525,30.11],[-97.26,30.097142857142856]],[[-97.575,30.12171875],[-97.5855,30.125]],[[-97.561875,30.125],[-97.575,30.12171875]],[[-97.545,30.12159090909091],[-97.5575,30.125]],[[-97.53225,30.11],[-97.545,30.12159090909091]],[[-97.515,30.11978260869565],[-97.5220588235294,30.125]],[[-97.50166666666667,30.125],[-97.515,30.11978260869565]],[[-97.485,30.119705882352942],[-97.49785714285714,30.125]],[[-97.47807692307693,30.125],[-97.485,30.119705882352942]],[[-97.455,30.12375],[-97.456875,30.125]],[[-97.45285714285714,30.125],[-97.455,30.12375]],[[-97.305,30.125],[-97.305,30.125]],[[-97.29,30.11375],[-97.305,30.125]],[[-97.275,30.120714285714286],[-97.29,30.11375]],[[-97.265625,30.11],[-97.275,30.120714285714286]],[[-97.2525,30.11],[-97.24863636363636,30.125]],[[-97.665,30.127142857142857],[-97.67192307692308,30.14]],[[-97.65,30.130714285714287],[-97.665,30.127142857142857]],[[-97.635,30.138548387096776],[-97.65,30.130714285714287]],[[-97.63275,30.14],[-97.635,30.138548387096776]],[[-97.5855,30.125],[-97.575,30.129375]],[[-97.561875,30.125],[-97.575,30.129375]],[[-97.5575,30.125],[-97.545,30.1296875]],[[-97.53,30.13625],[-97.545,30.1296875]],[[-97.5220588235294,30.125],[-97.53,30.13625]],[[-97.50166666666667,30.125],[-97.50264705882353,30.14]],[[-97.49785714285714,30.125],[-97.49678571428572,30.14]],[[-97.47807692307693,30.125],[-97.47,30.133076923076924]],[[-97.456875,30.125],[-97.47,30.133076923076924]],[[-97.45285714285714,30.125],[-97.4491304347826,30.14]],[[-97.41,30.138333333333335],[-97.41125,30.14]],[[-97.40953125,30.14],[-97.41,30.138333333333335]],[[-97.305,30.125],[-97.305,30.125]],[[-97.29,30.1325],[-97.305,30.125]],[[-97.275,30.13],[-97.29,30.1325]],[[-97.26928571428572,30.14],[-97.275,30.13]],[[-97.24863636363636,30.125],[-97.25113636363636,30.14]],[[-97.67192307692308,30.14],[-97.665,30.1475]],[[-97.6575,30.155],[-97.665,30.1475]],[[-97.63275,30.14],[-97.62,30.1502]],[[-97.605,30.150263157894738],[-97.62,30.1502]],[[-97.59,30.146346153846153],[-97.605,30.150263157894738]],[[-97.575,30.1502],[-97.59,30.146346153846153]],[[-97.56,30.14818181818182],[-97.575,30.1502]],[[-97.545,30.145689655172415],[-97.56,30.14818181818182]],[[-97.53841463414635,30.155],[-97.545,30.145689655172415]],[[-97.515,30.146],[-97.52215909090908,30.155]],[[-97.50264705882353,30.14],[-97.515,30.146]],[[-97.49678571428572,30.14],[-97.49714285714286,30.155]],[[-97.455,30.14355263157895],[-97.46779411764706,30.155]],[[-97.4491304347826,30.14],[-97.455,30.14355263157895]],[[-97.41125,30.14],[-97.41,30.140357142857145]],[[-97.40953125,30.14],[-97.41,30.140357142857145]],[[-97.26928571428572,30.14],[-97.26285714285714,30.155]],[[-97.25113636363636,30.14],[-97.245,30.149]],[[-97.23,30.152222222222225],[-97.245,30.149]],[[-97.22558823529413,30.155],[-97.23,30.152222222222225]],[[-97.68,30.160625000000003],[-97.68882352941176,30.17]],[[-97.665,30.15875],[-97.68,30.160625000000003]],[[-97.6575,30.155],[-97.665,30.15875]],[[-97.53841463414635,30.155],[-97.53,30.163023255813954]],[[-97.52215909090908,30.155],[-97.53,30.163023255813954]],[[-97.49714285714286,30.155],[-97.485,30.163225806451614]],[[-97.47,30.1596875],[-97.485,30.163225806451614]],[[-97.46779411764706,30.155],[-97.47,30.1596875]],[[-97.26285714285714,30.155],[-97.26,30.15875]],[[-97.25307692307693,30.17],[-97.26,30.15875]],[[-97.22558823529413,30.155],[-97.2225,30.17]],[[-97.68882352941176,30.17],[-97.695,30.185]],[[-97.25307692307693,30.17],[-97.25307692307693,30.185]],[[-97.2225,30.17],[-97.215,30.178571428571427]],[[-97.21125,30.185],[-97.215,30.178571428571427]],[[-97.695,30.185],[-97.68954545454545,30.2]],[[-97.25307692307693,30.185],[-97.24615384615385,30.2]],[[-97.21125,30.185],[-97.2105,30.2]],[[-97.68954545454545,30.2],[-97.68,30.2105]],[[-97.6755,30.215],[-97.68,30.2105]],[[-97.24615384615385,30.2],[-97.25117647058823,30.215]],[[-97.2105,30.2],[-97.2,30.213124999999998]],[[-97.725,30.229117647058825],[-97.72619999999999,30.23]],[[-97.71,30.226911764705882],[-97.725,30.229117647058825]],[[-97.695,30.222142857142856],[-97.71,30.226911764705882]],[[-97.68,30.217045454545456],[-97.695,30.222142857142856]],[[-97.6755,30.215],[-97.68,30.217045454545456]],[[-97.25117647058823,30.215],[-97.25368421052632,30.23]],[[-97.72619999999999,30.23],[-97.73662499999999,30.245]],[[-97.47,30.2378],[-97.47857142857143,30.245]],[[-97.46307692307693,30.245],[-97.47,30.2378]],[[-97.38,30.233125],[-97.38890624999999,30.245]],[[-97.365,30.242954545454545],[-97.38,30.233125]],[[-97.36359374999999,30.245],[-97.365,30.242954545454545]],[[-97.25368421052632,30.23],[-97.251,30.245]],[[-97.755,30.249000000000002],[-97.76875,30.26]],[[-97.74,30.250400000000003],[-97.755,30.249000000000002]],[[-97.73662499999999,30.245],[-97.74,30.250400000000003]],[[-97.5,30.255000000000003],[-97.5051724137931,30.26]],[[-97.485,30.250869565217393],[-97.5,30.255000000000003]],[[-97.47857142857143,30.245],[-97.485,30.250869565217393]],[[-97.46307692307693,30.245],[-97.4641935483871,30.26]],[[-97.38890624999999,30.245],[-97.38499999999999,30.26]],[[-97.365,30.24909090909091],[-97.37357142857142,30.26]],[[-97.36359374999999,30.245],[-97.365,30.24909090909091]],[[-97.251,30.245],[-97.25785714285715,30.26]],[[-97.77,30.262],[-97.77443181818181,30.275]],[[-97.76875,30.26],[-97.755,30.271379310344827]],[[-97.74,30.27],[-97.755,30.271379310344827]],[[-97.725,30.268478260869564],[-97.74,30.27]],[[-97.71346153846153,30.275],[-97.725,30.268478260869564]],[[-97.695,30.270555555555553],[-97.70590909090909,30.275]],[[-97.68833333333333,30.275],[-97.695,30.270555555555553]],[[-97.635,30.27223684210526],[-97.63828125,30.275]],[[-97.62333333333333,30.275],[-97.635,30.27223684210526]],[[-97.605,30.266428571428573],[-97.617,30.275]],[[-97.60038461538461,30.275],[-97.605,30.266428571428573]],[[-97.53,30.269583333333333],[-97.53672413793103,30.275]],[[-97.515,30.2675],[-97.53,30.269583333333333]],[[-97.5051724137931,30.26],[-97.515,30.2675]],[[-97.47,30.268571428571427],[-97.47642857142857,30.275]],[[-97.4641935483871,30.26],[-97.47,30.268571428571427]],[[-97.38499999999999,30.26],[-97.38,30.263103448275864]],[[-97.37357142857142,30.26],[-97.38,30.263103448275864]],[[-97.25785714285715,30.26],[-97.245,30.269]],[[-97.24184210526316,30.275],[-97.245,30.269]],[[-97.785,30.2828813559322],[-97.79083333333332,30.29]],[[-97.77443181818181,30.275],[-97.77,30.28222222222222]],[[-97.76025,30.275],[-97.77,30.28222222222222]],[[-97.71346153846153,30.275],[-97.71,30.2775]],[[-97.70590909090909,30.275],[-97.71,30.2775]],[[-97.68833333333333,30.275],[-97.68,30.283823529411762]],[[-97.665,30.277142857142856],[-97.68,30.283823529411762]],[[-97.6609090909091,30.29],[-97.665,30.277142857142856]],[[-97.63828125,30.275],[-97.63909090909091,30.29]],[[-97.62333333333333,30.275],[-97.62,30.276153846153846]],[[-97.617,30.275],[-97.62,30.276153846153846]],[[-97.60038461538461,30.275],[-97.59,30.2858]],[[-97.575,30.281315789473684],[-97.59,30.2858]],[[-97.56984375,30.29],[-97.575,30.281315789473684]],[[-97.545,30.282272727272726],[-97.55171052631579,30.29]],[[-97.53672413793103,30.275],[-97.545,30.282272727272726]],[[-97.47642857142857,30.275],[-97.47107142857143,30.29]],[[-97.35,30.277142857142856],[-97.35749999999999,30.29]],[[-97.335,30.285714285714285],[-97.35,30.277142857142856]],[[-97.329,30.29],[-97.335,30.285714285714285]],[[-97.245,30.279999999999998],[-97.2525,30.29]],[[-97.24184210526316,30.275],[-97.245,30.279999999999998]],[[-97.215,30.276153846153846],[-97.22785714285715,30.29]],[[-97.20807692307693,30.29],[-97.215,30.276153846153846]],[[-97.79083333333332,30.29],[-97.785,30.299130434782608]],[[-97.77499999999999,30.29],[-97.785,30.299130434782608]],[[-97.6609090909091,30.29],[-97.66142857142857,30.305]],[[-97.63909090909091,30.29],[-97.64076923076924,30.305]],[[-97.56984375,30.29],[-97.57000000000001,30.305]],[[-97.55171052631579,30.29],[-97.545,30.305]],[[-97.47107142857143,30.29],[-97.47115384615384,30.305]],[[-97.365,30.302857142857142],[-97.36636363636363,30.305]],[[-97.35749999999999,30.29],[-97.365,30.302857142857142]],[[-97.329,30.29],[-97.32,30.295625]],[[-97.31583333333333,30.305],[-97.32,30.295625]],[[-97.2525,30.29],[-97.25727272727273,30.305]],[[-97.22785714285715,30.29],[-97.215,30.300588235294118]],[[-97.20807692307693,30.29],[-97.215,30.300588235294118]],[[-97.66142857142857,30.305],[-97.65342857142858,30.32]],[[-97.64076923076924,30.305],[-97.64684210526316,30.32]],[[-97.575,30.310357142857143],[-97.57846153846154,30.32]],[[-97.57000000000001,30.305],[-97.575,30.310357142857143]],[[-97.545,30.305],[-97.55142857142857,30.32]],[[-97.53,30.3176],[-97.536,30.32]],[[-97.515,30.314324324324325],[-97.53,30.3176]],[[-97.5,30.3125],[-97.515,30.314324324324325]],[[-97.485,30.310294117647057],[-97.5,30.3125]],[[-97.47115384615384,30.305],[-97.485,30.310294117647057]],[[-97.395,30.31],[-97.40785714285714,30.32]],[[-97.389,30.32],[-97.395,30.31]],[[-97.36636363636363,30.305],[-97.365,30.306874999999998]],[[-97.35799999999999,30.32],[-97.365,30.306874999999998]],[[-97.31583333333333,30.305],[-97.314375,30.32]],[[-97.25727272727273,30.305],[-97.25833333333334,30.32]],[[-97.935,30.33361111111111],[-97.9375,30.335]],[[-97.93094594594595,30.335],[-97.935,30.33361111111111]],[[-97.905,30.333026315789475],[-97.90905405405405,30.335]],[[-97.89964285714285,30.335],[-97.905,30.333026315789475]],[[-97.845,30.33236842105263],[-97.84723880597015,30.335]],[[-97.8418085106383,30.335],[-97.845,30.33236842105263]],[[-97.65342857142858,30.32],[-97.65,30.32857142857143]],[[-97.64684210526316,30.32],[-97.65,30.32857142857143]],[[-97.57846153846154,30.32],[-97.575,30.32346153846154]],[[-97.56093750000001,30.335],[-97.575,30.32346153846154]],[[-97.55142857142857,30.32],[-97.545,30.329]],[[-97.536,30.32],[-97.545,30.329]],[[-97.40785714285714,30.32],[-97.40277777777777,30.335]],[[-97.389,30.32],[-97.38,30.33125]],[[-97.365,30.3275],[-97.38,30.33125]],[[-97.35799999999999,30.32],[-97.365,30.3275]],[[-97.335,30.33453125],[-97.336,30.335]],[[-97.32,30.3275],[-97.335,30.33453125]],[[-97.314375,30.32],[-97.32,30.3275]],[[-97.275,30.335],[-97.275,30.335]],[[-97.275,30.335],[-97.275,30.335]],[[-97.25833333333334,30.32],[-97.25318181818183,30.335]],[[-97.9375,30.335],[-97.935,30.336829268292682]],[[-97.93094594594595,30.335],[-97.92,30.345945945945946]],[[-97.90905405405405,30.335],[-97.905,30.33711267605634]],[[-97.89964285714285,30.335],[-97.905,30.33711267605634]],[[-97.84723880597015,30.335],[-97.845,30.336807228915664]],[[-97.8418085106383,30.335],[-97.845,30.336807228915664]],[[-97.8,30.346886792452832],[-97.80717391304347,30.35]],[[-97.79484375,30.35],[-97.8,30.346886792452832]],[[-97.575,30.349062500000002],[-97.581,30.35]],[[-97.56093750000001,30.335],[-97.56,30.338333333333335]],[[-97.54833333333333,30.35],[-97.56,30.338333333333335]],[[-97.53,30.34625],[-97.5375,30.35]],[[-97.515,30.34357142857143],[-97.53,30.34625]],[[-97.51178571428571,30.35],[-97.515,30.34357142857143]],[[-97.40277777777777,30.335],[-97.40214285714285,30.35]],[[-97.336,30.335],[-97.33833333333332,30.35]],[[-97.32,30.3395],[-97.33166666666666,30.35]],[[-97.305,30.345000000000002],[-97.32,30.3395]],[[-97.298,30.35],[-97.305,30.345000000000002]],[[-97.275,30.335],[-97.28,30.35]],[[-97.275,30.335],[-97.2736046511628,30.35]],[[-97.25318181818183,30.335],[-97.24639534883721,30.35]],[[-97.23,30.346785714285716],[-97.23642857142858,30.35]],[[-97.215,30.34025],[-97.23,30.346785714285716]],[[-97.2,30.349062500000002],[-97.215,30.34025]],[[-97.92182926829268,30.35],[-97.92,30.354545454545455]],[[-97.91788732394366,30.35],[-97.92,30.354545454545455]],[[-97.80717391304347,30.35],[-97.8,30.35423076923077]],[[-97.79484375,30.35],[-97.8,30.35423076923077]],[[-97.581,30.35],[-97.575,30.35125]],[[-97.57166666666667,30.35],[-97.575,30.35125]],[[-97.54833333333333,30.35],[-97.545,30.3575]],[[-97.5375,30.35],[-97.545,30.3575]],[[-97.51178571428571,30.35],[-97.5,30.36375]],[[-97.49921052631579,30.365],[-97.5,30.36375]],[[-97.425,30.360833333333332],[-97.4325,30.365]],[[-97.41,30.361785714285713],[-97.425,30.360833333333332]],[[-97.40214285714285,30.35],[-97.395,30.360714285714284]],[[-97.3925,30.365],[-97.395,30.360714285714284]],[[-97.33833333333332,30.35],[-97.335,30.352307692307694]],[[-97.33166666666666,30.35],[-97.32,30.3605]],[[-97.305,30.363125],[-97.32,30.3605]],[[-97.298,30.35],[-97.29,30.356315789473683]],[[-97.28,30.35],[-97.275,30.356666666666666]],[[-97.2736046511628,30.35],[-97.275,30.356666666666666]],[[-97.24639534883721,30.35],[-97.245,30.35181818181818]],[[-97.23642857142858,30.35],[-97.245,30.35181818181818]],[[-97.2,30.3525],[-97.20340909090909,30.365]],[[-97.5,30.368],[-97.50461538461539,30.38]],[[-97.49921052631579,30.365],[-97.5,30.368]],[[-97.47,30.377],[-97.47272727272727,30.38]],[[-97.4675,30.38],[-97.47,30.377]],[[-97.4325,30.365],[-97.425,30.38]],[[-97.40357142857142,30.365],[-97.395,30.369615384615383]],[[-97.3925,30.365],[-97.395,30.369615384615383]],[[-97.32321428571427,30.365],[-97.32499999999999,30.38]],[[-97.305,30.366249999999997],[-97.3176923076923,30.38]],[[-97.30375000000001,30.365],[-97.305,30.366249999999997]],[[-97.27968750000001,30.365],[-97.275,30.367142857142856]],[[-97.26,30.3725],[-97.275,30.367142857142856]],[[-97.251,30.38],[-97.26,30.3725]],[[-97.20340909090909,30.365],[-97.2,30.369687499999998]],[[-97.50461538461539,30.38],[-97.50857142857143,30.395]],[[-97.47272727272727,30.38],[-97.4825,30.395]],[[-97.4675,30.38],[-97.46166666666666,30.395]],[[-97.425,30.38],[-97.425,30.395]],[[-97.32499999999999,30.38],[-97.32,30.3825]],[[-97.3176923076923,30.38],[-97.32,30.3825]],[[-97.251,30.38],[-97.24603448275863,30.395]],[[-97.23,30.390434782608693],[-97.24166666666667,30.395]],[[-97.22596153846155,30.395],[-97.23,30.390434782608693]],[[-97.50857142857143,30.395],[-97.5,30.401666666666667]],[[-97.485,30.4],[-97.5,30.401666666666667]],[[-97.4825,30.395],[-97.485,30.4]],[[-97.46166666666666,30.395],[-97.455,30.407]],[[-97.452,30.41],[-97.455,30.407]],[[-97.425,30.395],[-97.425,30.395]],[[-97.4125,30.41],[-97.425,30.395]],[[-97.24603448275863,30.395],[-97.245,30.4]],[[-97.24166666666667,30.395],[-97.23,30.3985]],[[-97.22596153846155,30.395],[-97.23,30.3985]],[[-97.485,30.416],[-97.488,30.425]],[[-97.47,30.42],[-97.485,30.416]],[[-97.46653846153846,30.425],[-97.47,30.42]],[[-97.452,30.41],[-97.44,30.416666666666668]],[[-97.43062499999999,30.425],[-97.44,30.416666666666668]],[[-97.4125,30.41],[-97.416,30.425]],[[-97.29,30.418333333333333],[-97.29375,30.425]],[[-97.275,30.419545454545457],[-97.29,30.418333333333333]],[[-97.26,30.419],[-97.275,30.419545454545457]],[[-97.245,30.412857142857142],[-97.26,30.419]],[[-97.24277777777779,30.41],[-97.245,30.412857142857142]],[[-97.2,30.425],[-97.2,30.425]],[[-97.488,30.425],[-97.485,30.43]],[[-97.47,30.434],[-97.485,30.43]],[[-97.46653846153846,30.425],[-97.47,30.434]],[[-97.43062499999999,30.425],[-97.425,30.43625]],[[-97.416,30.425],[-97.425,30.43625]],[[-97.29375,30.425],[-97.29,30.428333333333335]],[[-97.28,30.44],[-97.29,30.428333333333335]],[[-97.23,30.44],[-97.23,30.44]],[[-97.215,30.44],[-97.23,30.44]],[[-97.2,30.425],[-97.215,30.44]],[[-97.41,30.45],[-97.41333333333333,30.455]],[[-97.408,30.455],[-97.41,30.45]],[[-97.28,30.44],[-97.275,30.445526315789476]],[[-97.26115384615385,30.455],[-97.275,30.445526315789476]],[[-97.23,30.44],[-97.23750000000001,30.455]],[[-97.2,30.449375],[-97.20346153846154,30.455]],[[-97.41333333333333,30.455],[-97.41499999999999,30.47]],[[-97.408,30.455],[-97.395,30.465833333333332]],[[-97.38,30.461666666666666],[-97.395,30.465833333333332]],[[-97.37210526315789,30.47],[-97.38,30.461666666666666]],[[-97.32,30.464374999999997],[-97.323,30.47]],[[-97.305,30.456363636363633],[-97.32,30.464374999999997]],[[-97.29136363636364,30.47],[-97.305,30.456363636363633]],[[-97.26115384615385,30.455],[-97.26,30.45575]],[[-97.245,30.458],[-97.26,30.45575]],[[-97.23750000000001,30.455],[-97.245,30.458]],[[-97.215,30.46181818181818],[-97.22625000000001,30.47]],[[-97.20346153846154,30.455],[-97.215,30.46181818181818]],[[-97.41499999999999,30.47],[-97.41,30.473]],[[-97.40142857142857,30.485],[-97.41,30.473]],[[-97.38,30.485],[-97.38,30.485]],[[-97.37210526315789,30.47],[-97.365,30.477105263157895]],[[-97.35710526315789,30.485],[-97.365,30.477105263157895]],[[-97.335,30.479473684210525],[-97.3415625,30.485]],[[-97.323,30.47],[-97.32,30.4745]],[[-97.31192307692308,30.485],[-97.32,30.4745]],[[-97.29136363636364,30.47],[-97.29,30.470882352941175]],[[-97.27666666666667,30.485],[-97.29,30.470882352941175]],[[-97.22625000000001,30.47],[-97.215,30.478571428571428]],[[-97.20272727272727,30.485],[-97.215,30.478571428571428]],[[-97.40142857142857,30.485],[-97.395,30.49]],[[-97.38,30.485],[-97.395,30.49]],[[-97.38,30.485],[-97.38,30.5]],[[-97.35710526315789,30.485],[-97.356,30.5]],[[-97.3415625,30.485],[-97.3425,30.5]],[[-97.32749999999999,30.485],[-97.32,30.490833333333335]],[[-97.31192307692308,30.485],[-97.305,30.497857142857143]],[[-97.30350000000001,30.5],[-97.305,30.497857142857143]],[[-97.27666666666667,30.485],[-97.275,30.4875]],[[-97.26,30.489285714285714],[-97.275,30.4875]],[[-97.245,30.496785714285714],[-97.26,30.489285714285714]],[[-97.24178571428573,30.5],[-97.245,30.496785714285714]],[[-97.215,30.4985],[-97.21625,30.5]],[[-97.20272727272727,30.485],[-97.2,30.5]]]}},{"type":"Feature","properties":{"contour":180.0,"unit":"m"},"geometry":{"type":"MultiLineString","coordinates":[[[-97.67076923076924,30.05],[-97.665,30.052343750000002]],[[-97.65234375,30.065],[-97.665,30.052343750000002]],[[-97.68,30.07785714285714],[-97.68576923076924,30.08]],[[-97.67500000000001,30.08],[-97.68,30.07785714285714]],[[-97.65234375,30.065],[-97.65785714285715,30.08]],[[-97.62,30.071428571428573],[-97.62428571428572,30.08]],[[-97.61454545454546,30.08],[-97.62,30.071428571428573]],[[-97.68576923076924,30.08],[-97.68,30.08833333333333]],[[-97.67500000000001,30.08],[-97.665,30.090714285714284]],[[-97.65785714285715,30.08],[-97.665,30.090714285714284]],[[-97.62428571428572,30.08],[-97.62,30.0875]],[[-97.61454545454546,30.08],[-97.605,30.088749999999997]],[[-97.59,30.088076923076922],[-97.605,30.088749999999997]],[[-97.58437500000001,30.095],[-97.59,30.088076923076922]],[[-97.725,30.108],[-97.726,30.11]],[[-97.7175,30.11],[-97.725,30.108]],[[-97.68,30.1025],[-97.68461538461538,30.11]],[[-97.67250000000001,30.095],[-97.68,30.1025]],[[-97.61333333333334,30.095],[-97.605,30.09840909090909]],[[-97.59,30.10142857142857],[-97.605,30.09840909090909]],[[-97.58437500000001,30.095],[-97.575,30.105]],[[-97.56,30.11],[-97.575,30.105]],[[-97.56,30.11],[-97.56,30.11]],[[-97.726,30.11],[-97.725,30.11111111111111]],[[-97.7175,30.11],[-97.71,30.114285714285714]],[[-97.695,30.12125],[-97.71,30.114285714285714]],[[-97.68461538461538,30.11],[-97.695,30.12125]],[[-97.635,30.117],[-97.641,30.125]],[[-97.62954545454546,30.125],[-97.635,30.117]],[[-97.58076923076923,30.11],[-97.575,30.11234375]],[[-97.56,30.11],[-97.575,30.11234375]],[[-97.56,30.11],[-97.56,30.11]],[[-97.26,30.121052631578948],[-97.26357142857144,30.125]],[[-97.25772727272728,30.125],[-97.26,30.121052631578948]],[[-97.785,30.137],[-97.78699999999999,30.14]],[[-97.78071428571428,30.14],[-97.785,30.137]],[[-97.71249999999999,30.125],[-97.71642857142857,30.14]],[[-97.641,30.125],[-97.635,30.128870967741936]],[[-97.62954545454546,30.125],[-97.635,30.128870967741936]],[[-97.26357142857144,30.125],[-97.26,30.13125]],[[-97.25772727272728,30.125],[-97.26,30.13125]],[[-97.78699999999999,30.14],[-97.785,30.142142857142858]],[[-97.78071428571428,30.14],[-97.77,30.148333333333333]],[[-97.755,30.15142857142857],[-97.77,30.148333333333333]],[[-97.74,30.14375],[-97.755,30.15142857142857]],[[-97.7355,30.155],[-97.74,30.14375]],[[-97.71642857142857,30.14],[-97.71,30.149]],[[-97.7076923076923,30.155],[-97.71,30.149]],[[-97.53,30.15275],[-97.53109756097561,30.155]],[[-97.52897727272727,30.155],[-97.53,30.15275]],[[-97.77374999999999,30.155],[-97.77096774193548,30.17]],[[-97.7355,30.155],[-97.73307692307692,30.17]],[[-97.71,30.157500000000002],[-97.71483870967741,30.17]],[[-97.7076923076923,30.155],[-97.71,30.157500000000002]],[[-97.53109756097561,30.155],[-97.53,30.15604651162791]],[[-97.52897727272727,30.155],[-97.53,30.15604651162791]],[[-97.77096774193548,30.17],[-97.77,30.17107142857143]],[[-97.75655172413792,30.185],[-97.77,30.17107142857143]],[[-97.73307692307692,30.17],[-97.725,30.17768292682927]],[[-97.71483870967741,30.17],[-97.725,30.17768292682927]],[[-97.23,30.176206896551726],[-97.24108695652174,30.185]],[[-97.22177419354838,30.185],[-97.23,30.176206896551726]],[[-97.75655172413792,30.185],[-97.755,30.188214285714285]],[[-97.74,30.19134615384615],[-97.755,30.188214285714285]],[[-97.73062499999999,30.2],[-97.74,30.19134615384615]],[[-97.24108695652174,30.185],[-97.23609375000001,30.2]],[[-97.22177419354838,30.185],[-97.2235,30.2]],[[-97.73062499999999,30.2],[-97.725,30.20642857142857]],[[-97.71,30.2045],[-97.725,30.20642857142857]],[[-97.70382352941176,30.215],[-97.71,30.2045]],[[-97.23609375000001,30.2],[-97.236875,30.215]],[[-97.2235,30.2],[-97.22312500000001,30.215]],[[-97.725,30.220294117647057],[-97.73819999999999,30.23]],[[-97.71,30.21808823529412],[-97.725,30.220294117647057]],[[-97.70382352941176,30.215],[-97.71,30.21808823529412]],[[-97.236875,30.215],[-97.23937500000001,30.23]],[[-97.22312500000001,30.215],[-97.215,30.223125]],[[-97.2,30.22517857142857],[-97.215,30.223125]],[[-97.77,30.240344827586206],[-97.77465517241379,30.245]],[[-97.755,30.239375000000003],[-97.77,30.240344827586206]],[[-97.74,30.233214285714286],[-97.755,30.239375000000003]],[[-97.73819999999999,30.23],[-97.74,30.233214285714286]],[[-97.23937500000001,30.23],[-97.23,30.239782608695652]],[[-97.22076923076924,30.245],[-97.23,30.239782608695652]],[[-97.2,30.237105263157897],[-97.21000000000001,30.245]],[[-97.785,30.25310810810811],[-97.78981132075471,30.26]],[[-97.77465517241379,30.245],[-97.785,30.25310810810811]],[[-97.23,30.257],[-97.231875,30.26]],[[-97.22076923076924,30.245],[-97.215,30.254375000000003]],[[-97.21000000000001,30.245],[-97.2,30.25653846153846]],[[-97.78981132075471,30.26],[-97.785,30.26910714285714]],[[-97.78125,30.275],[-97.785,30.26910714285714]],[[-97.231875,30.26],[-97.23,30.264285714285716]],[[-97.224,30.26],[-97.23,30.264285714285716]],[[-97.20750000000001,30.26],[-97.2,30.262045454545454]],[[-97.785,30.27779661016949],[-97.795,30.29]],[[-97.78125,30.275],[-97.785,30.27779661016949]],[[-97.755,30.283125],[-97.76470588235294,30.29]],[[-97.74,30.284],[-97.755,30.283125]],[[-97.725,30.284374999999997],[-97.74,30.284]],[[-97.71681818181817,30.29],[-97.725,30.284374999999997]],[[-97.62,30.287692307692307],[-97.62333333333333,30.29]],[[-97.6164705882353,30.29],[-97.62,30.287692307692307]],[[-97.795,30.29],[-97.78585714285714,30.305]],[[-97.76470588235294,30.29],[-97.76277777777777,30.305]],[[-97.71681818181817,30.29],[-97.71,30.29394736842105]],[[-97.695,30.294999999999998],[-97.71,30.29394736842105]],[[-97.68,30.301470588235293],[-97.695,30.294999999999998]],[[-97.67684210526316,30.305],[-97.68,30.301470588235293]],[[-97.62333333333333,30.29],[-97.62,30.296666666666667]],[[-97.6164705882353,30.29],[-97.62,30.296666666666667]],[[-97.59,30.299285714285713],[-97.60000000000001,30.305]],[[-97.58478260869566,30.305],[-97.59,30.299285714285713]],[[-97.53,30.304],[-97.53071428571428,30.305]],[[-97.515,30.296],[-97.53,30.304]],[[-97.50857142857143,30.305],[-97.515,30.296]],[[-97.35,30.299545454545456],[-97.35444444444444,30.305]],[[-97.3390909090909,30.305],[-97.35,30.299545454545456]],[[-97.78585714285714,30.305],[-97.785,30.3125]],[[-97.77,30.309642857142858],[-97.785,30.3125]],[[-97.76277777777777,30.305],[-97.77,30.309642857142858]],[[-97.68,30.31357142857143],[-97.68225000000001,30.32]],[[-97.67684210526316,30.305],[-97.665,30.315227272727274]],[[-97.662,30.32],[-97.665,30.315227272727274]],[[-97.635,30.3125],[-97.63894736842106,30.32]],[[-97.62,30.30875],[-97.635,30.3125]],[[-97.60815789473685,30.32],[-97.62,30.30875]],[[-97.60000000000001,30.305],[-97.60071428571429,30.32]],[[-97.58478260869566,30.305],[-97.58615384615385,30.32]],[[-97.53071428571428,30.305],[-97.53,30.3056]],[[-97.515,30.306216216216217],[-97.53,30.3056]],[[-97.50857142857143,30.305],[-97.515,30.306216216216217]],[[-97.35444444444444,30.305],[-97.35,30.311]],[[-97.3390909090909,30.305],[-97.335,30.308214285714286]],[[-97.32910714285714,30.32],[-97.335,30.308214285714286]],[[-97.2,30.312916666666666],[-97.21275,30.32]],[[-97.935,30.330833333333334],[-97.9425,30.335]],[[-97.92283783783785,30.335],[-97.935,30.330833333333334]],[[-97.905,30.329078947368423],[-97.91716216216216,30.335]],[[-97.89,30.334423076923077],[-97.905,30.329078947368423]],[[-97.88943396226415,30.335],[-97.89,30.334423076923077]],[[-97.845,30.327105263157897],[-97.85171641791045,30.335]],[[-97.8354255319149,30.335],[-97.845,30.327105263157897]],[[-97.785,30.321666666666665],[-97.79131578947369,30.335]],[[-97.78130769230769,30.335],[-97.785,30.321666666666665]],[[-97.68225000000001,30.32],[-97.68,30.326428571428572]],[[-97.6755,30.32],[-97.68,30.326428571428572]],[[-97.662,30.32],[-97.65954545454547,30.335]],[[-97.63894736842106,30.32],[-97.63833333333334,30.335]],[[-97.60815789473685,30.32],[-97.605,30.324285714285715]],[[-97.60071428571429,30.32],[-97.605,30.324285714285715]],[[-97.58615384615385,30.32],[-97.575,30.331153846153846]],[[-97.5703125,30.335],[-97.575,30.331153846153846]],[[-97.34217391304347,30.32],[-97.335,30.32515625]],[[-97.32910714285714,30.32],[-97.335,30.32515625]],[[-97.21275,30.32],[-97.2,30.33159090909091]],[[-97.9425,30.335],[-97.935,30.340487804878048]],[[-97.92283783783785,30.335],[-97.92,30.33783783783784]],[[-97.91716216216216,30.335],[-97.905,30.341338028169016]],[[-97.89,30.335882352941177],[-97.905,30.341338028169016]],[[-97.88943396226415,30.335],[-97.89,30.335882352941177]],[[-97.85171641791045,30.335],[-97.845,30.34042168674699]],[[-97.8354255319149,30.335],[-97.845,30.34042168674699]],[[-97.815,30.34692307692308],[-97.81696721311475,30.35]],[[-97.8,30.34122641509434],[-97.815,30.34692307692308]],[[-97.79131578947369,30.335],[-97.785,30.349117647058826]],[[-97.78130769230769,30.335],[-97.785,30.349117647058826]],[[-97.65954545454547,30.335],[-97.65409090909091,30.35]],[[-97.63833333333334,30.335],[-97.63875,30.35]],[[-97.605,30.343333333333334],[-97.6113157894737,30.35]],[[-97.59,30.335833333333333],[-97.605,30.343333333333334]],[[-97.575,30.3396875],[-97.59,30.335833333333333]],[[-97.5703125,30.335],[-97.575,30.3396875]],[[-97.92548780487805,30.35],[-97.92,30.363636363636363]],[[-97.91366197183099,30.35],[-97.92,30.363636363636363]],[[-97.81696721311475,30.35],[-97.815,30.35104347826087]],[[-97.8,30.361923076923077],[-97.815,30.35104347826087]],[[-97.78546874999999,30.35],[-97.785,30.35214285714286]],[[-97.78398876404493,30.365],[-97.785,30.35214285714286]],[[-97.65409090909091,30.35],[-97.65,30.3536]],[[-97.63875,30.35],[-97.65,30.3536]],[[-97.62,30.361785714285713],[-97.6225,30.365]],[[-97.6113157894737,30.35],[-97.62,30.361785714285713]],[[-97.575,30.36375],[-97.57772727272727,30.365]],[[-97.5725,30.365],[-97.575,30.36375]],[[-97.38,30.365],[-97.38,30.365]],[[-97.365,30.365],[-97.38,30.365]],[[-97.365,30.365],[-97.365,30.365]],[[-97.79142857142857,30.365],[-97.785,30.36846153846154]],[[-97.78398876404493,30.365],[-97.785,30.36846153846154]],[[-97.6225,30.365],[-97.62,30.370624999999997]],[[-97.605,30.375],[-97.62,30.370624999999997]],[[-97.60166666666667,30.38],[-97.605,30.375]],[[-97.57772727272727,30.365],[-97.575,30.375]],[[-97.5725,30.365],[-97.575,30.375]],[[-97.38,30.365],[-97.38,30.365]],[[-97.36840909090908,30.38],[-97.38,30.365]],[[-97.365,30.365],[-97.35666666666665,30.38]],[[-97.275,30.375714285714285],[-97.28500000000001,30.38]],[[-97.26944444444445,30.38],[-97.275,30.375714285714285]],[[-97.60166666666667,30.38],[-97.59,30.389545454545456]],[[-97.575,30.381666666666664],[-97.59,30.389545454545456]],[[-97.56409090909091,30.395],[-97.575,30.381666666666664]],[[-97.36840909090908,30.38],[-97.365,30.395]],[[-97.35666666666665,30.38],[-97.365,30.395]],[[-97.29,30.3846875],[-97.29970588235295,30.395]],[[-97.28500000000001,30.38],[-97.29,30.3846875]],[[-97.26944444444445,30.38],[-97.26,30.390625]],[[-97.25637931034483,30.395],[-97.26,30.390625]],[[-97.56409090909091,30.395],[-97.56,30.39846153846154]],[[-97.550625,30.41],[-97.56,30.39846153846154]],[[-97.365,30.395],[-97.365,30.395]],[[-97.365,30.395],[-97.35,30.4075]],[[-97.3425,30.41],[-97.35,30.4075]],[[-97.32,30.408636363636365],[-97.32749999999999,30.41]],[[-97.31833333333333,30.41],[-97.32,30.408636363636365]],[[-97.29970588235295,30.395],[-97.29,30.401346153846152]],[[-97.275,30.399736842105263],[-97.29,30.401346153846152]],[[-97.26,30.399375],[-97.275,30.399736842105263]],[[-97.25637931034483,30.395],[-97.26,30.399375]],[[-97.550625,30.41],[-97.54666666666667,30.425]],[[-97.53,30.42],[-97.54,30.425]],[[-97.528125,30.425],[-97.53,30.42]],[[-97.38,30.415],[-97.38571428571429,30.425]],[[-97.36999999999999,30.425],[-97.38,30.415]],[[-97.35499999999999,30.41],[-97.35,30.4115]],[[-97.3425,30.41],[-97.35,30.4115]],[[-97.32749999999999,30.41],[-97.32,30.425]],[[-97.31833333333333,30.41],[-97.32,30.425]],[[-97.54666666666667,30.425],[-97.545,30.426875000000003]],[[-97.54,30.425],[-97.53,30.431]],[[-97.528125,30.425],[-97.515,30.439]],[[-97.51375,30.44],[-97.515,30.439]],[[-97.38571428571429,30.425],[-97.38,30.43423076923077]],[[-97.36999999999999,30.425],[-97.365,30.4325]],[[-97.36147058823529,30.44],[-97.365,30.4325]],[[-97.32,30.425],[-97.32,30.425]],[[-97.32,30.425],[-97.32,30.425]],[[-97.53450000000001,30.44],[-97.53,30.447499999999998]],[[-97.51875,30.44],[-97.53,30.447499999999998]],[[-97.51375,30.44],[-97.508,30.455]],[[-97.485,30.453999999999997],[-97.48666666666666,30.455]],[[-97.48375,30.455],[-97.485,30.453999999999997]],[[-97.44,30.455],[-97.44,30.455]],[[-97.44,30.455],[-97.44,30.455]],[[-97.37166666666666,30.44],[-97.365,30.444285714285716]],[[-97.36147058823529,30.44],[-97.35,30.455]],[[-97.35,30.455],[-97.35,30.455]],[[-97.508,30.455],[-97.5,30.463571428571427]],[[-97.48666666666666,30.455],[-97.5,30.463571428571427]],[[-97.48375,30.455],[-97.48153846153846,30.47]],[[-97.44,30.455],[-97.44,30.455]],[[-97.44,30.455],[-97.44,30.455]],[[-97.35,30.455],[-97.35,30.455]],[[-97.35,30.455],[-97.35,30.455]],[[-97.5,30.47642857142857],[-97.50444444444445,30.485]],[[-97.485,30.4728125],[-97.5,30.47642857142857]],[[-97.48153846153846,30.47],[-97.485,30.4728125]],[[-97.53,30.49590909090909],[-97.53236842105264,30.5]],[[-97.515,30.49925],[-97.53,30.49590909090909]],[[-97.50444444444445,30.485],[-97.515,30.49925]]]}},{"type":"Feature","properties":{"contour":200.0,"unit":"m"},"geometry":{"type":"MultiLineString","coordinates":[[[-97.725,30.062272727272727],[-97.735,30.065]],[[-97.7175,30.065],[-97.725,30.062272727272727]],[[-97.71,30.05],[-97.7075,30.065]],[[-97.68,30.05818181818182],[-97.6875,30.065]],[[-97.665,30.06171875],[-97.68,30.05818181818182]],[[-97.66171875,30.065],[-97.665,30.06171875]],[[-97.755,30.077692307692306],[-97.75676470588235,30.08]],[[-97.74,30.067500000000003],[-97.755,30.077692307692306]],[[-97.735,30.065],[-97.74,30.067500000000003]],[[-97.7175,30.065],[-97.71,30.068]],[[-97.7075,30.065],[-97.71,30.068]],[[-97.6875,30.065],[-97.68,30.069285714285716]],[[-97.665,30.071176470588235],[-97.68,30.069285714285716]],[[-97.66171875,30.065],[-97.665,30.071176470588235]],[[-97.75676470588235,30.08],[-97.755,30.0812]],[[-97.74,30.092499999999998],[-97.755,30.0812]],[[-97.738125,30.095],[-97.74,30.092499999999998]],[[-97.77,30.101],[-97.78125,30.11]],[[-97.7667857142857,30.11],[-97.77,30.101]],[[-97.738125,30.095],[-97.73599999999999,30.11]],[[-97.815,30.1225],[-97.83,30.125]],[[-97.81425,30.125],[-97.815,30.1225]],[[-97.785,30.111153846153847],[-97.7908064516129,30.125]],[[-97.78125,30.11],[-97.785,30.111153846153847]],[[-97.7667857142857,30.11],[-97.76785714285714,30.125]],[[-97.74,30.11857142857143],[-97.7475,30.125]],[[-97.73599999999999,30.11],[-97.725,30.122222222222224]],[[-97.7225,30.125],[-97.725,30.122222222222224]],[[-97.83,30.125],[-97.8175,30.14]],[[-97.81425,30.125],[-97.8,30.13596153846154]],[[-97.7908064516129,30.125],[-97.8,30.13596153846154]],[[-97.76785714285714,30.125],[-97.755,30.134]],[[-97.7475,30.125],[-97.755,30.134]],[[-97.73181818181817,30.125],[-97.725,30.12857142857143]],[[-97.7225,30.125],[-97.725,30.12857142857143]],[[-97.8175,30.14],[-97.815,30.1475]],[[-97.812,30.155],[-97.815,30.1475]],[[-97.812,30.155],[-97.8,30.164473684210527]],[[-97.785,30.162058823529414],[-97.8,30.164473684210527]],[[-97.78064516129032,30.17],[-97.785,30.162058823529414]],[[-97.725,30.168928571428573],[-97.72538461538461,30.17]],[[-97.72451612903225,30.17],[-97.725,30.168928571428573]],[[-97.785,30.18125],[-97.78821428571428,30.185]],[[-97.78064516129032,30.17],[-97.77,30.181785714285713]],[[-97.76689655172413,30.185],[-97.77,30.181785714285713]],[[-97.72538461538461,30.17],[-97.725,30.170365853658538]],[[-97.72451612903225,30.17],[-97.725,30.170365853658538]],[[-97.78821428571428,30.185],[-97.785,30.1895]],[[-97.78,30.185],[-97.77,30.19625]],[[-97.76689655172413,30.185],[-97.77,30.19625]],[[-97.785,30.209545454545456],[-97.78961538461539,30.215]],[[-97.77333333333333,30.2],[-97.77,30.215]],[[-97.755,30.209642857142857],[-97.77,30.215]],[[-97.74562499999999,30.215],[-97.755,30.209642857142857]],[[-97.78961538461539,30.215],[-97.785,30.219]],[[-97.77,30.215],[-97.785,30.219]],[[-97.74562499999999,30.215],[-97.755,30.23]],[[-97.815,30.24125],[-97.81821428571428,30.245]],[[-97.8,30.2375],[-97.815,30.24125]],[[-97.785,30.245],[-97.8,30.2375]],[[-97.77,30.23],[-97.785,30.245]],[[-97.755,30.23],[-97.77,30.23]],[[-97.755,30.23],[-97.755,30.23]],[[-97.81821428571428,30.245],[-97.815,30.251]],[[-97.8,30.25111111111111],[-97.815,30.251]],[[-97.785,30.245],[-97.785,30.245]],[[-97.785,30.245],[-97.785,30.245]],[[-97.845,30.27430769230769],[-97.84591836734694,30.275]],[[-97.8425,30.275],[-97.845,30.27430769230769]],[[-97.7954716981132,30.26],[-97.8,30.275]],[[-97.84591836734694,30.275],[-97.845,30.2825]],[[-97.8425,30.275],[-97.845,30.2825]],[[-97.8,30.275],[-97.79916666666666,30.29]],[[-97.79916666666666,30.29],[-97.79442857142857,30.305]],[[-97.79442857142857,30.305],[-97.79142857142857,30.32]],[[-97.77,30.316785714285714],[-97.77499999999999,30.32]],[[-97.755,30.3125],[-97.77,30.316785714285714]],[[-97.74,30.3155],[-97.755,30.3125]],[[-97.725,30.31653846153846],[-97.74,30.3155]],[[-97.71,30.313181818181818],[-97.725,30.31653846153846]],[[-97.70062499999999,30.32],[-97.71,30.313181818181818]],[[-97.935,30.328055555555554],[-97.9475,30.335]],[[-97.92,30.331517857142856],[-97.935,30.328055555555554]],[[-97.905,30.325131578947367],[-97.92,30.331517857142856]],[[-97.89,30.32865384615385],[-97.905,30.325131578947367]],[[-97.88377358490565,30.335],[-97.89,30.32865384615385]],[[-97.845,30.32184210526316],[-97.85619402985074,30.335]],[[-97.83,30.334307692307693],[-97.845,30.32184210526316]],[[-97.8267857142857,30.335],[-97.83,30.334307692307693]],[[-97.79142857142857,30.32],[-97.79921052631579,30.335]],[[-97.77499999999999,30.32],[-97.7766923076923,30.335]],[[-97.70062499999999,30.32],[-97.695,30.325625000000002]],[[-97.69142857142857,30.335],[-97.695,30.325625000000002]],[[-97.9475,30.335],[-97.935,30.344146341463414]],[[-97.92914634146342,30.35],[-97.935,30.344146341463414]],[[-97.905,30.345563380281693],[-97.9094366197183,30.35]],[[-97.89,30.344705882352944],[-97.905,30.345563380281693]],[[-97.88377358490565,30.335],[-97.875,30.348676470588238]],[[-97.86,30.343793103448277],[-97.875,30.348676470588238]],[[-97.85619402985074,30.335],[-97.845,30.344036144578315]],[[-97.83,30.33625],[-97.845,30.344036144578315]],[[-97.8267857142857,30.335],[-97.815,30.33923076923077]],[[-97.8,30.33556603773585],[-97.815,30.33923076923077]],[[-97.79921052631579,30.335],[-97.8,30.33556603773585]],[[-97.7766923076923,30.335],[-97.7804761904762,30.35]],[[-97.69142857142857,30.335],[-97.68,30.349117647058826]],[[-97.677,30.35],[-97.68,30.349117647058826]],[[-97.92914634146342,30.35],[-97.9243220338983,30.365]],[[-97.9094366197183,30.35],[-97.91509615384615,30.365]],[[-97.878,30.35],[-97.875,30.351125]],[[-97.86,30.359473684210524],[-97.875,30.351125]],[[-97.856,30.35],[-97.86,30.359473684210524]],[[-97.82188524590164,30.35],[-97.815,30.353652173913044]],[[-97.80181818181818,30.365],[-97.815,30.353652173913044]],[[-97.7804761904762,30.35],[-97.78061797752808,30.365]],[[-97.677,30.35],[-97.66625,30.365]],[[-97.9243220338983,30.365],[-97.9248,30.38]],[[-97.91509615384615,30.365],[-97.9129411764706,30.38]],[[-97.80181818181818,30.365],[-97.8,30.367168674698792]],[[-97.785,30.38],[-97.8,30.367168674698792]],[[-97.78061797752808,30.365],[-97.785,30.38]],[[-97.66625,30.365],[-97.67136363636364,30.38]],[[-97.65,30.365937499999998],[-97.65775862068966,30.38]],[[-97.635,30.37125],[-97.65,30.365937499999998]],[[-97.63022727272728,30.38],[-97.635,30.37125]],[[-97.94693181818182,30.395],[-97.95,30.392452830188677]],[[-97.9248,30.38],[-97.92,30.382758620689653]],[[-97.9129411764706,30.38],[-97.92,30.382758620689653]],[[-97.89,30.39090909090909],[-97.8958695652174,30.395]],[[-97.88625,30.395],[-97.89,30.39090909090909]],[[-97.68,30.392954545454543],[-97.68225000000001,30.395]],[[-97.67136363636364,30.38],[-97.665,30.388749999999998]],[[-97.65775862068966,30.38],[-97.665,30.388749999999998]],[[-97.63022727272728,30.38],[-97.63000000000001,30.395]],[[-97.94693181818182,30.395],[-97.95,30.402105263157896]],[[-97.905,30.40413043478261],[-97.90793478260869,30.41]],[[-97.8958695652174,30.395],[-97.905,30.40413043478261]],[[-97.88625,30.395],[-97.88884615384616,30.41]],[[-97.68225000000001,30.395],[-97.68,30.39846153846154]],[[-97.67653846153847,30.395],[-97.68,30.39846153846154]],[[-97.63000000000001,30.395],[-97.62,30.40076923076923]],[[-97.60588235294118,30.41],[-97.62,30.40076923076923]],[[-97.94735294117648,30.425],[-97.95,30.417894736842104]],[[-97.90793478260869,30.41],[-97.9104,30.425]],[[-97.88884615384616,30.41],[-97.88614285714286,30.425]],[[-97.60588235294118,30.41],[-97.60583333333334,30.425]],[[-97.94735294117648,30.425],[-97.935,30.43735294117647]],[[-97.92,30.4346],[-97.935,30.43735294117647]],[[-97.9104,30.425],[-97.905,30.42764705882353]],[[-97.89,30.426436170212767],[-97.905,30.42764705882353]],[[-97.88614285714286,30.425],[-97.89,30.426436170212767]],[[-97.60583333333334,30.425],[-97.605,30.4259375]],[[-97.59176470588235,30.44],[-97.605,30.4259375]],[[-97.935,30.44228813559322],[-97.95,30.4405]],[[-97.92,30.442647058823532],[-97.935,30.44228813559322]],[[-97.91735294117647,30.44],[-97.92,30.442647058823532]],[[-97.59176470588235,30.44],[-97.59,30.441764705882353]],[[-97.575,30.451999999999998],[-97.59,30.441764705882353]],[[-97.57227272727273,30.455],[-97.575,30.451999999999998]],[[-97.57227272727273,30.455],[-97.5628125,30.47]],[[-97.92,30.484099999999998],[-97.9205625,30.485]],[[-97.91911764705883,30.485],[-97.92,30.484099999999998]],[[-97.5628125,30.47],[-97.56,30.472368421052632]],[[-97.5495652173913,30.485],[-97.56,30.472368421052632]],[[-97.9205625,30.485],[-97.92,30.485608108108107]],[[-97.91911764705883,30.485],[-97.92,30.485608108108107]],[[-97.5495652173913,30.485],[-97.551,30.5]]]}},{"type":"Feature","properties":{"contour":220.0,"unit":"m"},"geometry":{"type":"MultiLineString","coordinates":[[[-97.84166666666667,30.05],[-97.83,30.057000000000002]],[[-97.8195,30.05],[-97.83,30.057000000000002]],[[-97.81125,30.05],[-97.81184210526315,30.065]],[[-97.7440909090909,30.05],[-97.74,30.052045454545457]],[[-97.7367857142857,30.05],[-97.74,30.052045454545457]],[[-97.81184210526315,30.065],[-97.8,30.076249999999998]],[[-97.785,30.076590909090907],[-97.8,30.076249999999998]],[[-97.7775,30.08],[-97.785,30.076590909090907]],[[-97.83,30.08375],[-97.84125,30.095]],[[-97.815,30.084285714285713],[-97.83,30.08375]],[[-97.80666666666666,30.095],[-97.815,30.084285714285713]],[[-97.7775,30.08],[-97.785,30.095]],[[-97.755,30.0932],[-97.75714285714285,30.095]],[[-97.75295454545454,30.095],[-97.755,30.0932]],[[-97.84125,30.095],[-97.84038461538461,30.11]],[[-97.80666666666666,30.095],[-97.8009375,30.11]],[[-97.785,30.095],[-97.79925,30.11]],[[-97.785,30.095],[-97.785,30.095]],[[-97.75714285714285,30.095],[-97.755,30.09875]],[[-97.75295454545454,30.095],[-97.755,30.09875]],[[-97.86,30.120454545454546],[-97.86833333333334,30.125]],[[-97.845,30.112727272727273],[-97.86,30.120454545454546]],[[-97.84038461538461,30.11],[-97.845,30.112727272727273]],[[-97.8009375,30.11],[-97.8,30.1175]],[[-97.79925,30.11],[-97.8,30.1175]],[[-97.86833333333334,30.125],[-97.86428571428571,30.14]],[[-97.86428571428571,30.14],[-97.86,30.144285714285715]],[[-97.845,30.146428571428572],[-97.86,30.144285714285715]],[[-97.8378,30.155],[-97.845,30.146428571428572]],[[-97.8378,30.155],[-97.835625,30.17]],[[-97.835625,30.17],[-97.83,30.1715]],[[-97.815,30.176428571428573],[-97.83,30.1715]],[[-97.80794117647059,30.185],[-97.815,30.176428571428573]],[[-97.80794117647059,30.185],[-97.80227272727272,30.2]],[[-97.80227272727272,30.2],[-97.815,30.215]],[[-97.815,30.215],[-97.81928571428571,30.23]],[[-97.815,30.215],[-97.815,30.215]],[[-97.81928571428571,30.23],[-97.82892857142858,30.245]],[[-97.82892857142858,30.245],[-97.82368421052631,30.26]],[[-97.845,30.269692307692306],[-97.85204081632654,30.275]],[[-97.83,30.26923076923077],[-97.845,30.269692307692306]],[[-97.82368421052631,30.26],[-97.815,30.26589285714286]],[[-97.8081081081081,30.275],[-97.815,30.26589285714286]],[[-97.85204081632654,30.275],[-97.84990384615385,30.29]],[[-97.83,30.276190476190475],[-97.8416,30.29]],[[-97.82659090909091,30.275],[-97.83,30.276190476190475]],[[-97.8081081081081,30.275],[-97.80338028169014,30.29]],[[-97.84990384615385,30.29],[-97.845,30.293863636363636]],[[-97.8416,30.29],[-97.845,30.293863636363636]],[[-97.815,30.302692307692308],[-97.81758620689655,30.305]],[[-97.80338028169014,30.29],[-97.815,30.302692307692308]],[[-97.845,30.316854838709677],[-97.85013157894737,30.32]],[[-97.84145454545454,30.32],[-97.845,30.316854838709677]],[[-97.81758620689655,30.305],[-97.815,30.309838709677418]],[[-97.8,30.314545454545456],[-97.815,30.309838709677418]],[[-97.79857142857142,30.32],[-97.8,30.314545454545456]],[[-97.935,30.325277777777778],[-97.95,30.333275862068966]],[[-97.92,30.326160714285713],[-97.935,30.325277777777778]],[[-97.905,30.321184210526315],[-97.92,30.326160714285713]],[[-97.89,30.322884615384616],[-97.905,30.321184210526315]],[[-97.87811320754717,30.335],[-97.89,30.322884615384616]],[[-97.86,30.333392857142858],[-97.86321428571429,30.335]],[[-97.85013157894737,30.32],[-97.86,30.333392857142858]],[[-97.84145454545454,30.32],[-97.83,30.32969230769231]],[[-97.815,30.3305],[-97.83,30.32969230769231]],[[-97.8,30.322727272727274],[-97.815,30.3305]],[[-97.79857142857142,30.32],[-97.8,30.322727272727274]],[[-97.77,30.32825],[-97.77207692307692,30.335]],[[-97.75874999999999,30.335],[-97.77,30.32825]],[[-97.71,30.33125],[-97.72071428571428,30.335]],[[-97.70625,30.335],[-97.71,30.33125]],[[-97.935,30.34780487804878],[-97.95,30.337727272727275]],[[-97.93280487804878,30.35],[-97.935,30.34780487804878]],[[-97.905,30.34978873239437],[-97.90521126760564,30.35]],[[-97.90333333333334,30.35],[-97.905,30.34978873239437]],[[-97.87811320754717,30.335],[-97.875,30.33985294117647]],[[-97.86321428571429,30.335],[-97.875,30.33985294117647]],[[-97.845,30.34765060240964],[-97.84933333333333,30.35]],[[-97.83,30.344583333333336],[-97.845,30.34765060240964]],[[-97.82680327868852,30.35],[-97.83,30.344583333333336]],[[-97.77207692307692,30.335],[-97.77571428571429,30.35]],[[-97.75874999999999,30.335],[-97.755,30.33640625]],[[-97.74291666666666,30.35],[-97.755,30.33640625]],[[-97.725,30.337142857142858],[-97.73447368421053,30.35]],[[-97.72071428571428,30.335],[-97.725,30.337142857142858]],[[-97.70625,30.335],[-97.7058,30.35]],[[-97.93280487804878,30.35],[-97.92940677966102,30.365]],[[-97.90521126760564,30.35],[-97.90932692307692,30.365]],[[-97.90333333333334,30.35],[-97.89,30.353529411764708]],[[-97.875,30.358625],[-97.89,30.353529411764708]],[[-97.8665,30.365],[-97.875,30.358625]],[[-97.84933333333333,30.35],[-97.85704545454546,30.365]],[[-97.82680327868852,30.35],[-97.815,30.35626086956522]],[[-97.80484848484848,30.365],[-97.815,30.35626086956522]],[[-97.77571428571429,30.35],[-97.77724719101123,30.365]],[[-97.74291666666666,30.35],[-97.74,30.3605]],[[-97.73447368421053,30.35],[-97.74,30.3605]],[[-97.71,30.35875],[-97.71535714285713,30.365]],[[-97.7058,30.35],[-97.71,30.35875]],[[-97.68,30.35890625],[-97.68847826086956,30.365]],[[-97.67458333333335,30.365],[-97.68,30.35890625]],[[-97.92940677966102,30.365],[-97.9308,30.38]],[[-97.90932692307692,30.365],[-97.905,30.378235294117648]],[[-97.9,30.38],[-97.905,30.378235294117648]],[[-97.8665,30.365],[-97.86,30.36861111111111]],[[-97.85704545454546,30.365],[-97.86,30.36861111111111]],[[-97.80484848484848,30.365],[-97.8,30.370783132530118]],[[-97.78922535211267,30.38],[-97.8,30.370783132530118]],[[-97.77724719101123,30.365],[-97.77428571428571,30.38]],[[-97.71535714285713,30.365],[-97.71,30.3725]],[[-97.695,30.371521739130433],[-97.71,30.3725]],[[-97.68847826086956,30.365],[-97.68,30.37892857142857]],[[-97.67458333333335,30.365],[-97.68,30.37892857142857]],[[-97.94011363636363,30.395],[-97.95,30.38679245283019]],[[-97.9308,30.38],[-97.92,30.386206896551723]],[[-97.90657894736842,30.395],[-97.92,30.386206896551723]],[[-97.9,30.38],[-97.89,30.38181818181818]],[[-97.87791666666666,30.395],[-97.89,30.38181818181818]],[[-97.78922535211267,30.38],[-97.785,30.388108108108106]],[[-97.77428571428571,30.38],[-97.77,30.386]],[[-97.76723076923076,30.395],[-97.77,30.386]],[[-97.695,30.3921875],[-97.69704545454545,30.395]],[[-97.68107142857143,30.38],[-97.695,30.3921875]],[[-97.94011363636363,30.395],[-97.94444444444444,30.41]],[[-97.90657894736842,30.395],[-97.91445652173913,30.41]],[[-97.87791666666666,30.395],[-97.88628205128205,30.41]],[[-97.77620689655173,30.395],[-97.77,30.398050847457625]],[[-97.76723076923076,30.395],[-97.77,30.398050847457625]],[[-97.71,30.406875],[-97.71340909090908,30.41]],[[-97.69704545454545,30.395],[-97.695,30.4025]],[[-97.69153846153846,30.41],[-97.695,30.4025]],[[-97.65,30.39730769230769],[-97.66375000000001,30.41]],[[-97.64282608695653,30.41],[-97.65,30.39730769230769]],[[-97.94444444444444,30.41],[-97.94147058823529,30.425]],[[-97.92,30.42214285714286],[-97.9223076923077,30.425]],[[-97.91445652173913,30.41],[-97.92,30.42214285714286]],[[-97.88628205128205,30.41],[-97.87757142857143,30.425]],[[-97.71340909090908,30.41],[-97.71,30.4146875]],[[-97.70062499999999,30.41],[-97.71,30.4146875]],[[-97.69153846153846,30.41],[-97.68,30.416]],[[-97.665,30.41078947368421],[-97.68,30.416]],[[-97.66375000000001,30.41],[-97.665,30.41078947368421]],[[-97.64282608695653,30.41],[-97.635,30.422]],[[-97.6275,30.425],[-97.635,30.422]],[[-97.94147058823529,30.425],[-97.935,30.431470588235296]],[[-97.9223076923077,30.425],[-97.935,30.431470588235296]],[[-97.905,30.433529411764706],[-97.91147058823529,30.44]],[[-97.89,30.429627659574468],[-97.905,30.433529411764706]],[[-97.87757142857143,30.425],[-97.89,30.429627659574468]],[[-97.6275,30.425],[-97.62,30.44]],[[-97.62,30.44],[-97.62,30.44]],[[-97.935,30.447372881355932],[-97.95,30.4455]],[[-97.92,30.448529411764707],[-97.935,30.447372881355932]],[[-97.91147058823529,30.44],[-97.92,30.448529411764707]],[[-97.62,30.44],[-97.611,30.455]],[[-97.611,30.455],[-97.605,30.458]],[[-97.59700000000001,30.47],[-97.605,30.458]],[[-97.92,30.478099999999998],[-97.9243125,30.485]],[[-97.91323529411765,30.485],[-97.92,30.478099999999998]],[[-97.59700000000001,30.47],[-97.59214285714286,30.485]],[[-97.575,30.481666666666666],[-97.58,30.485]],[[-97.57000000000001,30.485],[-97.575,30.481666666666666]],[[-97.9243125,30.485],[-97.92,30.489662162162162]],[[-97.91323529411765,30.485],[-97.92,30.489662162162162]],[[-97.65,30.49590909090909],[-97.655625,30.5]],[[-97.63714285714286,30.5],[-97.65,30.49590909090909]],[[-97.59214285714286,30.485],[-97.59,30.487727272727273]],[[-97.58,30.485],[-97.59,30.487727272727273]],[[-97.57000000000001,30.485],[-97.57235294117648,30.5]]]}},{"type":"Feature","properties":{"contour":240.0,"unit":"m"},"geometry":{"type":"MultiLineString","coordinates":[[[-97.905,30.05075],[-97.91596153846154,30.065]],[[-97.90375,30.05],[-97.89,30.063750000000002]],[[-97.879,30.05],[-97.875,30.053333333333335]],[[-97.87125,30.05],[-97.875,30.053333333333335]],[[-97.91596153846154,30.065],[-97.90928571428572,30.08]],[[-97.89075,30.065],[-97.899,30.08]],[[-97.889,30.065],[-97.887,30.08]],[[-97.90928571428572,30.08],[-97.905,30.081999999999997]],[[-97.899,30.08],[-97.905,30.081999999999997]],[[-97.887,30.08],[-97.87818181818182,30.095]],[[-97.87818181818182,30.095],[-97.875,30.102]],[[-97.86,30.1071875],[-97.875,30.102]],[[-97.85763157894736,30.11],[-97.86,30.1071875]],[[-97.875,30.116],[-97.88166666666666,30.125]],[[-97.86,30.111363636363635],[-97.875,30.116]],[[-97.85763157894736,30.11],[-97.86,30.111363636363635]],[[-97.89,30.135227272727274],[-97.89375,30.14]],[[-97.88166666666666,30.125],[-97.89,30.135227272727274]],[[-97.89375,30.14],[-97.89,30.147000000000002]],[[-97.87666666666667,30.155],[-97.89,30.147000000000002]],[[-97.87666666666667,30.155],[-97.875,30.16]],[[-97.87227272727273,30.17],[-97.875,30.16]],[[-97.87227272727273,30.17],[-97.86,30.18125]],[[-97.85357142857143,30.185],[-97.86,30.18125]],[[-97.83,30.1815],[-97.83954545454546,30.185]],[[-97.82447368421053,30.185],[-97.83,30.1815]],[[-97.85357142857143,30.185],[-97.84649999999999,30.2]],[[-97.83954545454546,30.185],[-97.843125,30.2]],[[-97.82447368421053,30.185],[-97.815,30.194]],[[-97.81136363636364,30.2],[-97.815,30.194]],[[-97.86,30.2135],[-97.86075,30.215]],[[-97.84649999999999,30.2],[-97.86,30.2135]],[[-97.843125,30.2],[-97.83,30.20403846153846]],[[-97.815,30.204285714285714],[-97.83,30.20403846153846]],[[-97.81136363636364,30.2],[-97.815,30.204285714285714]],[[-97.86075,30.215],[-97.86,30.21578947368421]],[[-97.84772727272727,30.23],[-97.86,30.21578947368421]],[[-97.84772727272727,30.23],[-97.845,30.240000000000002]],[[-97.8435,30.245],[-97.845,30.240000000000002]],[[-97.8435,30.245],[-97.83529411764705,30.26]],[[-97.875,30.274099999999997],[-97.87640625,30.275]],[[-97.87,30.275],[-97.875,30.274099999999997]],[[-97.845,30.265076923076922],[-97.85816326530612,30.275]],[[-97.83529411764705,30.26],[-97.845,30.265076923076922]],[[-97.89,30.289032258064516],[-97.895,30.29]],[[-97.87640625,30.275],[-97.875,30.27764705882353]],[[-97.87,30.275],[-97.875,30.27764705882353]],[[-97.85816326530612,30.275],[-97.85567307692308,30.29]],[[-97.83,30.280952380952378],[-97.8376,30.29]],[[-97.815,30.276184210526313],[-97.83,30.280952380952378]],[[-97.80760563380281,30.29],[-97.815,30.276184210526313]],[[-97.895,30.29],[-97.89,30.291153846153847]],[[-97.888125,30.29],[-97.89,30.291153846153847]],[[-97.86,30.298653846153847],[-97.8666,30.305]],[[-97.85567307692308,30.29],[-97.845,30.29840909090909]],[[-97.8376,30.29],[-97.845,30.29840909090909]],[[-97.815,30.298076923076923],[-97.82275862068965,30.305]],[[-97.80760563380281,30.29],[-97.815,30.298076923076923]],[[-97.905,30.30894736842105],[-97.91735294117647,30.32]],[[-97.89,30.31558823529412],[-97.905,30.30894736842105]],[[-97.88117647058823,30.32],[-97.89,30.31558823529412]],[[-97.8666,30.305],[-97.86,30.3153125]],[[-97.855875,30.305],[-97.845,30.31201612903226]],[[-97.836,30.32],[-97.845,30.31201612903226]],[[-97.82275862068965,30.305],[-97.815,30.31951612903226]],[[-97.81411764705882,30.32],[-97.815,30.31951612903226]],[[-97.935,30.3225],[-97.95,30.329827586206896]],[[-97.92,30.32080357142857],[-97.935,30.3225]],[[-97.91735294117647,30.32],[-97.92,30.32080357142857]],[[-97.88117647058823,30.32],[-97.875,30.3265625]],[[-97.86,30.322678571428572],[-97.875,30.3265625]],[[-97.85802631578947,30.32],[-97.86,30.322678571428572]],[[-97.836,30.32],[-97.83,30.325076923076924]],[[-97.815,30.3205],[-97.83,30.325076923076924]],[[-97.81411764705882,30.32],[-97.815,30.3205]],[[-97.93863636363636,30.35],[-97.95,30.34318181818182]],[[-97.77,30.346],[-97.77095238095238,30.35]],[[-97.755,30.34578125],[-97.77,30.346]],[[-97.75125,30.35],[-97.755,30.34578125]],[[-97.93863636363636,30.35],[-97.935,30.362]],[[-97.93449152542374,30.365],[-97.935,30.362]],[[-97.89,30.362352941176468],[-97.89818181818183,30.365]],[[-97.88,30.365],[-97.89,30.362352941176468]],[[-97.845,30.352625],[-97.85249999999999,30.365]],[[-97.83,30.352441860465117],[-97.845,30.352625]],[[-97.815,30.35886956521739],[-97.83,30.352441860465117]],[[-97.80787878787879,30.365],[-97.815,30.35886956521739]],[[-97.77095238095238,30.35],[-97.77387640449437,30.365]],[[-97.75125,30.35],[-97.74689189189189,30.365]],[[-97.935,30.36875],[-97.944,30.38]],[[-97.93449152542374,30.365],[-97.935,30.36875]],[[-97.89818181818183,30.365],[-97.89,30.369090909090907]],[[-97.88,30.365],[-97.875,30.366285714285713]],[[-97.86,30.374166666666664],[-97.875,30.366285714285713]],[[-97.85249999999999,30.365],[-97.86,30.374166666666664]],[[-97.815,30.379099999999998],[-97.81566176470588,30.38]],[[-97.80787878787879,30.365],[-97.8,30.374397590361443]],[[-97.79345070422535,30.38],[-97.8,30.374397590361443]],[[-97.77387640449437,30.365],[-97.77,30.37485714285714]],[[-97.76454545454546,30.38],[-97.77,30.37485714285714]],[[-97.74689189189189,30.365],[-97.74,30.378421052631577]],[[-97.735,30.38],[-97.74,30.378421052631577]],[[-97.944,30.38],[-97.95,30.381132075471697]],[[-97.92,30.389655172413793],[-97.93291666666667,30.395]],[[-97.91184210526316,30.395],[-97.92,30.389655172413793]],[[-97.885,30.38],[-97.875,30.390666666666664]],[[-97.873125,30.395],[-97.875,30.390666666666664]],[[-97.81566176470588,30.38],[-97.815,30.382368421052632]],[[-97.81367647058823,30.38],[-97.815,30.382368421052632]],[[-97.79345070422535,30.38],[-97.785703125,30.395]],[[-97.76454545454546,30.38],[-97.76261538461539,30.395]],[[-97.735,30.38],[-97.725,30.388571428571428]],[[-97.71374999999999,30.395],[-97.725,30.388571428571428]],[[-97.93291666666667,30.395],[-97.92,30.408676470588237]],[[-97.91184210526316,30.395],[-97.92,30.408676470588237]],[[-97.875,30.397407407407407],[-97.88371794871794,30.41]],[[-97.873125,30.395],[-97.875,30.397407407407407]],[[-97.785703125,30.395],[-97.785,30.39764705882353]],[[-97.77,30.403135593220338],[-97.785,30.39764705882353]],[[-97.76261538461539,30.395],[-97.77,30.403135593220338]],[[-97.725,30.4025],[-97.72666666666666,30.41]],[[-97.71374999999999,30.395],[-97.725,30.4025]],[[-97.935,30.419],[-97.93558823529412,30.425]],[[-97.93384615384616,30.425],[-97.935,30.419]],[[-97.88371794871794,30.41],[-97.875,30.422439024390243]],[[-97.87243902439025,30.425],[-97.875,30.422439024390243]],[[-97.72666666666666,30.41],[-97.725,30.4175]],[[-97.72125,30.425],[-97.725,30.4175]],[[-97.93558823529412,30.425],[-97.935,30.425588235294118]],[[-97.93384615384616,30.425],[-97.935,30.425588235294118]],[[-97.905,30.439411764705884],[-97.90558823529412,30.44]],[[-97.89,30.432819148936172],[-97.905,30.439411764705884]],[[-97.875,30.4355],[-97.89,30.432819148936172]],[[-97.87243902439025,30.425],[-97.875,30.4355]],[[-97.72125,30.425],[-97.71,30.437272727272727]],[[-97.695,30.433333333333334],[-97.71,30.437272727272727]],[[-97.68,30.4296875],[-97.695,30.433333333333334]],[[-97.665,30.427500000000002],[-97.68,30.4296875]],[[-97.65,30.43325],[-97.665,30.427500000000002]],[[-97.64250000000001,30.44],[-97.65,30.43325]],[[-97.935,30.452457627118644],[-97.95,30.450499999999998]],[[-97.92,30.45441176470588],[-97.935,30.452457627118644]],[[-97.90558823529412,30.44],[-97.92,30.45441176470588]],[[-97.64250000000001,30.44],[-97.64673913043478,30.455]],[[-97.905,30.468295454545455],[-97.91382352941177,30.47]],[[-97.89964285714285,30.47],[-97.905,30.468295454545455]],[[-97.64673913043478,30.455],[-97.635,30.464642857142856]],[[-97.62923076923077,30.47],[-97.635,30.464642857142856]],[[-97.92,30.472099999999998],[-97.9280625,30.485]],[[-97.91382352941177,30.47],[-97.905,30.47833333333333]],[[-97.89964285714285,30.47],[-97.905,30.47833333333333]],[[-97.71,30.479374999999997],[-97.71499999999999,30.485]],[[-97.70625,30.485],[-97.71,30.479374999999997]],[[-97.65,30.473],[-97.65545454545455,30.485]],[[-97.638,30.485],[-97.65,30.473]],[[-97.62923076923077,30.47],[-97.62,30.483333333333334]],[[-97.605,30.48125],[-97.62,30.483333333333334]],[[-97.60285714285715,30.485],[-97.605,30.48125]],[[-97.9280625,30.485],[-97.92,30.493716216216217]],[[-97.90735294117647,30.485],[-97.905,30.4898]],[[-97.90135714285714,30.5],[-97.905,30.4898]],[[-97.71499999999999,30.485],[-97.71666666666665,30.5]],[[-97.70625,30.485],[-97.695,30.49142857142857]],[[-97.68,30.491363636363637],[-97.695,30.49142857142857]],[[-97.665,30.491176470588236],[-97.68,30.491363636363637]],[[-97.65545454545455,30.485],[-97.665,30.491176470588236]],[[-97.638,30.485],[-97.635,30.48575]],[[-97.62,30.48875],[-97.635,30.48575]],[[-97.605,30.49],[-97.62,30.48875]],[[-97.60285714285715,30.485],[-97.605,30.49]]]}},{"type":"Feature","properties":{"contour":260.0,"unit":"m"},"geometry":{"type":"MultiLineString","coordinates":[[[-97.935,30.057058823529413],[-97.9408695652174,30.065]],[[-97.92,30.053529411764707],[-97.935,30.057058823529413]],[[-97.91739130434783,30.05],[-97.92,30.053529411764707]],[[-97.9408695652174,30.065],[-97.935,30.077272727272724]],[[-97.93323529411765,30.08],[-97.935,30.077272727272724]],[[-97.93323529411765,30.08],[-97.92,30.088035714285713]],[[-97.91025,30.095],[-97.92,30.088035714285713]],[[-97.89,30.09108695652174],[-97.89692307692307,30.095]],[[-97.88727272727273,30.095],[-97.89,30.09108695652174]],[[-97.92,30.104285714285712],[-97.926,30.11]],[[-97.91025,30.095],[-97.92,30.104285714285712]],[[-97.89692307692307,30.095],[-97.89,30.103181818181817]],[[-97.88727272727273,30.095],[-97.89,30.103181818181817]],[[-97.926,30.11],[-97.92,30.11413793103448]],[[-97.91171052631579,30.125],[-97.92,30.11413793103448]],[[-97.91171052631579,30.125],[-97.905,30.139166666666668]],[[-97.90446428571428,30.14],[-97.905,30.139166666666668]],[[-97.90446428571428,30.14],[-97.902,30.155]],[[-97.902,30.155],[-97.89272727272727,30.17]],[[-97.89272727272727,30.17],[-97.89,30.17391304347826]],[[-97.88019230769231,30.185],[-97.89,30.17391304347826]],[[-97.88019230769231,30.185],[-97.88,30.2]],[[-97.88,30.2],[-97.8754054054054,30.215]],[[-97.8754054054054,30.215],[-97.875,30.215652173913043]],[[-97.86125,30.23],[-97.875,30.215652173913043]],[[-97.86125,30.23],[-97.86,30.231363636363636]],[[-97.8521052631579,30.245],[-97.86,30.231363636363636]],[[-97.8521052631579,30.245],[-97.845,30.2585]],[[-97.84411764705882,30.26],[-97.845,30.2585]],[[-97.875,30.2681],[-97.88578125,30.275]],[[-97.86,30.269615384615385],[-97.875,30.2681]],[[-97.845,30.26046153846154],[-97.86,30.269615384615385]],[[-97.84411764705882,30.26],[-97.845,30.26046153846154]],[[-97.92,30.286341463414633],[-97.9251724137931,30.29]],[[-97.905,30.276666666666664],[-97.92,30.286341463414633]],[[-97.89,30.279354838709676],[-97.905,30.276666666666664]],[[-97.88578125,30.275],[-97.89,30.279354838709676]],[[-97.83,30.285714285714285],[-97.8336,30.29]],[[-97.815,30.28407894736842],[-97.83,30.285714285714285]],[[-97.81183098591549,30.29],[-97.815,30.28407894736842]],[[-97.9251724137931,30.29],[-97.92195652173913,30.305]],[[-97.89,30.302692307692308],[-97.89315789473685,30.305]],[[-97.884,30.305],[-97.89,30.302692307692308]],[[-97.845,30.302954545454543],[-97.848375,30.305]],[[-97.8336,30.29],[-97.845,30.302954545454543]],[[-97.815,30.29346153846154],[-97.82793103448276,30.305]],[[-97.81183098591549,30.29],[-97.815,30.29346153846154]],[[-97.935,30.318636363636365],[-97.93576923076924,30.32]],[[-97.92195652173913,30.305],[-97.935,30.318636363636365]],[[-97.89315789473685,30.305],[-97.89,30.30676470588235]],[[-97.884,30.305],[-97.89,30.30676470588235]],[[-97.848375,30.305],[-97.845,30.30717741935484]],[[-97.83054545454546,30.32],[-97.845,30.30717741935484]],[[-97.82793103448276,30.305],[-97.82857142857142,30.32]],[[-97.93576923076924,30.32],[-97.95,30.326379310344826]],[[-97.83054545454546,30.32],[-97.83,30.32046153846154]],[[-97.82857142857142,30.32],[-97.83,30.32046153846154]],[[-97.94772727272728,30.35],[-97.95,30.348636363636366]],[[-97.94772727272728,30.35],[-97.9485,30.365]],[[-97.845,30.360125],[-97.84795454545454,30.365]],[[-97.83,30.35941860465116],[-97.845,30.360125]],[[-97.815,30.361478260869564],[-97.83,30.35941860465116]],[[-97.81090909090909,30.365],[-97.815,30.361478260869564]],[[-97.77,30.36263157894737],[-97.77050561797752,30.365]],[[-97.755,30.365],[-97.77,30.36263157894737]],[[-97.755,30.365],[-97.755,30.365]],[[-97.9485,30.365],[-97.95,30.366666666666664]],[[-97.875,30.37485714285714],[-97.87875,30.38]],[[-97.86,30.37972222222222],[-97.875,30.37485714285714]],[[-97.84795454545454,30.365],[-97.86,30.37972222222222]],[[-97.815,30.373099999999997],[-97.82007352941176,30.38]],[[-97.81090909090909,30.365],[-97.8,30.37801204819277]],[[-97.79767605633802,30.38],[-97.8,30.37801204819277]],[[-97.77050561797752,30.365],[-97.77,30.366285714285713]],[[-97.75545454545454,30.38],[-97.77,30.366285714285713]],[[-97.755,30.365],[-97.75421052631579,30.38]],[[-97.92,30.393103448275863],[-97.92458333333333,30.395]],[[-97.9171052631579,30.395],[-97.92,30.393103448275863]],[[-97.87875,30.38],[-97.875,30.384]],[[-97.87024038461539,30.395],[-97.875,30.384]],[[-97.82007352941176,30.38],[-97.81607142857143,30.395]],[[-97.80485294117646,30.38],[-97.81366666666666,30.395]],[[-97.79767605633802,30.38],[-97.790390625,30.395]],[[-97.75545454545454,30.38],[-97.758,30.395]],[[-97.75421052631579,30.38],[-97.74,30.3908]],[[-97.735625,30.395],[-97.74,30.3908]],[[-97.92458333333333,30.395],[-97.92,30.39985294117647]],[[-97.9171052631579,30.395],[-97.92,30.39985294117647]],[[-97.875,30.40111111111111],[-97.88115384615385,30.41]],[[-97.87024038461539,30.395],[-97.875,30.40111111111111]],[[-97.81607142857143,30.395],[-97.815,30.39681818181818]],[[-97.81366666666666,30.395],[-97.8,30.408666666666665]],[[-97.790390625,30.395],[-97.8,30.408666666666665]],[[-97.77,30.40822033898305],[-97.77807692307692,30.41]],[[-97.758,30.395],[-97.755,30.401290322580646]],[[-97.74272727272727,30.41],[-97.755,30.401290322580646]],[[-97.735625,30.395],[-97.73777777777778,30.41]],[[-97.88115384615385,30.41],[-97.875,30.418780487804877]],[[-97.86878048780488,30.425],[-97.875,30.418780487804877]],[[-97.815,30.418877551020408],[-97.8213829787234,30.425]],[[-97.80181818181818,30.41],[-97.815,30.418877551020408]],[[-97.785,30.425],[-97.785,30.425]],[[-97.77807692307692,30.41],[-97.785,30.425]],[[-97.7658,30.41],[-97.755,30.419]],[[-97.74272727272727,30.41],[-97.755,30.419]],[[-97.73777777777778,30.41],[-97.73714285714286,30.425]],[[-97.89,30.436010638297873],[-97.89872093023256,30.44]],[[-97.88038461538461,30.44],[-97.89,30.436010638297873]],[[-97.86878048780488,30.425],[-97.87011627906976,30.44]],[[-97.8213829787234,30.425],[-97.815,30.433108108108108]],[[-97.8,30.42551724137931],[-97.815,30.433108108108108]],[[-97.785,30.425],[-97.8,30.42551724137931]],[[-97.74,30.4325],[-97.74260869565217,30.44]],[[-97.73714285714286,30.425],[-97.74,30.4325]],[[-97.905,30.44355263157895],[-97.91644736842106,30.455]],[[-97.89872093023256,30.44],[-97.905,30.44355263157895]],[[-97.88038461538461,30.44],[-97.87770491803279,30.455]],[[-97.87011627906976,30.44],[-97.86931034482758,30.455]],[[-97.74260869565217,30.44],[-97.74374999999999,30.455]],[[-97.725,30.45285714285714],[-97.73062499999999,30.455]],[[-97.71,30.455],[-97.725,30.45285714285714]],[[-97.695,30.454117647058823],[-97.71,30.455]],[[-97.68,30.4535],[-97.695,30.454117647058823]],[[-97.67833333333334,30.455],[-97.68,30.4535]],[[-97.935,30.4575],[-97.95,30.455882352941174]],[[-97.92309523809524,30.47],[-97.935,30.4575]],[[-97.91644736842106,30.455],[-97.905,30.464886363636364]],[[-97.89,30.469423076923075],[-97.905,30.464886363636364]],[[-97.87770491803279,30.455],[-97.875,30.458299999999998]],[[-97.86931034482758,30.455],[-97.875,30.458299999999998]],[[-97.755,30.465714285714284],[-97.75973684210526,30.47]],[[-97.74374999999999,30.455],[-97.755,30.465714285714284]],[[-97.73062499999999,30.455],[-97.725,30.47]],[[-97.71,30.455],[-97.725,30.47]],[[-97.695,30.4565],[-97.71,30.455]],[[-97.68,30.4625],[-97.695,30.4565]],[[-97.67833333333334,30.455],[-97.68,30.4625]],[[-97.92309523809524,30.47],[-97.9318125,30.485]],[[-97.89,30.47157894736842],[-97.89879310344827,30.485]],[[-97.88926829268293,30.47],[-97.89,30.47157894736842]],[[-97.75973684210526,30.47],[-97.755,30.482857142857142]],[[-97.7525,30.485],[-97.755,30.482857142857142]],[[-97.725,30.47],[-97.725,30.47]],[[-97.725,30.47],[-97.725,30.47]],[[-97.9318125,30.485],[-97.92,30.49777027027027]],[[-97.9165625,30.5],[-97.92,30.49777027027027]],[[-97.89879310344827,30.485],[-97.89707142857142,30.5]],[[-97.785,30.49775],[-97.79625,30.5]],[[-97.7775,30.5],[-97.785,30.49775]],[[-97.7525,30.485],[-97.74,30.48840909090909]],[[-97.73055555555555,30.5],[-97.74,30.48840909090909]]]}},{"type":"Feature","properties":{"contour":280.0,"unit":"m"},"geometry":{"type":"MultiLineString","coordinates":[[[-97.9375,30.095],[-97.95,30.089642857142856]],[[-97.9375,30.095],[-97.95,30.10076923076923]],[[-97.935,30.125],[-97.95,30.116]],[[-97.92,30.12448275862069],[-97.935,30.125]],[[-97.91960526315789,30.125],[-97.92,30.12448275862069]],[[-97.92,30.12578947368421],[-97.92771428571429,30.14]],[[-97.91960526315789,30.125],[-97.92,30.12578947368421]],[[-97.92771428571429,30.14],[-97.92206896551724,30.155]],[[-97.935,30.16541666666667],[-97.94,30.17]],[[-97.92206896551724,30.155],[-97.935,30.16541666666667]],[[-97.905,30.165625000000002],[-97.91666666666667,30.17]],[[-97.90181818181819,30.17],[-97.905,30.165625000000002]],[[-97.94,30.17],[-97.935,30.178684210526317]],[[-97.92,30.171666666666667],[-97.935,30.178684210526317]],[[-97.91666666666667,30.17],[-97.92,30.171666666666667]],[[-97.90181818181819,30.17],[-97.89346153846154,30.185]],[[-97.89346153846154,30.185],[-97.89870967741936,30.2]],[[-97.89870967741936,30.2],[-97.89,30.207941176470587]],[[-97.88351351351352,30.215],[-97.89,30.207941176470587]],[[-97.88351351351352,30.215],[-97.875,30.228695652173915]],[[-97.87375,30.23],[-97.875,30.228695652173915]],[[-97.89,30.2425],[-97.89193548387097,30.245]],[[-97.88846153846154,30.245],[-97.89,30.2425]],[[-97.87375,30.23],[-97.86,30.245]],[[-97.86,30.245],[-97.86,30.245]],[[-97.89193548387097,30.245],[-97.89,30.25166666666667]],[[-97.88846153846154,30.245],[-97.89,30.25166666666667]],[[-97.86,30.245],[-97.85673913043478,30.26]],[[-97.935,30.2665625],[-97.95,30.26388888888889]],[[-97.92825,30.275],[-97.935,30.2665625]],[[-97.905,30.270573770491804],[-97.91431034482758,30.275]],[[-97.89,30.2646875],[-97.905,30.270573770491804]],[[-97.875,30.2621],[-97.89,30.2646875]],[[-97.86,30.26192307692308],[-97.875,30.2621]],[[-97.85673913043478,30.26],[-97.86,30.26192307692308]],[[-97.93538461538462,30.29],[-97.95,30.280172413793103]],[[-97.92825,30.275],[-97.92,30.2790243902439]],[[-97.91431034482758,30.275],[-97.92,30.2790243902439]],[[-97.93538461538462,30.29],[-97.935,30.305]],[[-97.935,30.305],[-97.935,30.305]],[[-97.935,30.305],[-97.935,30.305]],[[-97.935,30.305],[-97.935,30.305]],[[-97.94346153846153,30.32],[-97.95,30.32293103448276]],[[-97.815,30.36408695652174],[-97.82454545454546,30.365]],[[-97.81393939393939,30.365],[-97.815,30.36408695652174]],[[-97.83,30.36706896551724],[-97.84442307692308,30.38]],[[-97.82454545454546,30.365],[-97.815,30.367099999999997]],[[-97.81393939393939,30.365],[-97.815,30.367099999999997]],[[-97.86,30.384071428571428],[-97.86735576923077,30.395]],[[-97.845,30.380267857142854],[-97.86,30.384071428571428]],[[-97.84442307692308,30.38],[-97.845,30.380267857142854]],[[-97.82448529411765,30.38],[-97.82142857142857,30.395]],[[-97.8,30.3845],[-97.807,30.395]],[[-97.795078125,30.395],[-97.8,30.3845]],[[-97.875,30.404814814814817],[-97.87858974358974,30.41]],[[-97.86735576923077,30.395],[-97.875,30.404814814814817]],[[-97.82142857142857,30.395],[-97.815,30.40590909090909]],[[-97.807,30.395],[-97.8,30.402]],[[-97.795078125,30.395],[-97.8,30.402]],[[-97.87858974358974,30.41],[-97.875,30.41512195121951]],[[-97.8651219512195,30.425],[-97.875,30.41512195121951]],[[-97.815,30.412755102040816],[-97.8277659574468,30.425]],[[-97.81090909090909,30.41],[-97.815,30.412755102040816]],[[-97.77,30.416290322580647],[-97.77710526315789,30.425]],[[-97.75961538461539,30.425],[-97.77,30.416290322580647]],[[-97.89,30.439202127659577],[-97.89174418604651,30.44]],[[-97.88807692307692,30.44],[-97.89,30.439202127659577]],[[-97.8651219512195,30.425],[-97.86313953488371,30.44]],[[-97.8277659574468,30.425],[-97.81621621621622,30.44]],[[-97.8,30.43586206896552],[-97.81090909090909,30.44]],[[-97.785,30.434375000000003],[-97.8,30.43586206896552]],[[-97.77710526315789,30.425],[-97.785,30.434375000000003]],[[-97.75961538461539,30.425],[-97.75649999999999,30.44]],[[-97.905,30.447499999999998],[-97.9125,30.455]],[[-97.89174418604651,30.44],[-97.905,30.447499999999998]],[[-97.88807692307692,30.44],[-97.88262295081967,30.455]],[[-97.86313953488371,30.44],[-97.86,30.452272727272724]],[[-97.845,30.452142857142857],[-97.86,30.452272727272724]],[[-97.843125,30.455],[-97.845,30.452142857142857]],[[-97.81621621621622,30.44],[-97.815,30.441607142857144]],[[-97.81090909090909,30.44],[-97.815,30.441607142857144]],[[-97.77,30.447499999999998],[-97.779,30.455]],[[-97.75649999999999,30.44],[-97.77,30.447499999999998]],[[-97.935,30.4625],[-97.95,30.46470588235294]],[[-97.92785714285715,30.47],[-97.935,30.4625]],[[-97.9125,30.455],[-97.905,30.461477272727272]],[[-97.89,30.463653846153846],[-97.905,30.461477272727272]],[[-97.88262295081967,30.455],[-97.875,30.464299999999998]],[[-97.8636,30.47],[-97.875,30.464299999999998]],[[-97.845,30.456999999999997],[-97.8571875,30.47]],[[-97.843125,30.455],[-97.845,30.456999999999997]],[[-97.785,30.46625],[-97.78928571428571,30.47]],[[-97.779,30.455],[-97.785,30.46625]],[[-97.935,30.483636363636364],[-97.93618421052632,30.485]],[[-97.92785714285715,30.47],[-97.935,30.483636363636364]],[[-97.88195121951219,30.47],[-97.88916666666667,30.485]],[[-97.8636,30.47],[-97.86,30.474285714285713]],[[-97.8571875,30.47],[-97.86,30.474285714285713]],[[-97.815,30.482],[-97.82249999999999,30.485]],[[-97.8114705882353,30.485],[-97.815,30.482]],[[-97.78928571428571,30.47],[-97.7878125,30.485]],[[-97.93618421052632,30.485],[-97.935,30.4878125]],[[-97.92613636363636,30.5],[-97.935,30.4878125]],[[-97.89,30.4878125],[-97.89278571428571,30.5]],[[-97.88916666666667,30.485],[-97.875,30.497142857142858]],[[-97.8714705882353,30.5],[-97.875,30.497142857142858]],[[-97.82249999999999,30.485],[-97.82166666666666,30.5]],[[-97.8114705882353,30.485],[-97.8,30.49109375]],[[-97.7878125,30.485],[-97.8,30.49109375]]]}},{"type":"Feature","properties":{"contour":300.0,"unit":"m"},"geometry":{"type":"MultiLineString","coordinates":[[[-97.936875,30.14],[-97.95,30.12913793103448]],[[-97.936875,30.14],[-97.935,30.145625000000003]],[[-97.93241379310345,30.155],[-97.935,30.145625000000003]],[[-97.94076923076923,30.155],[-97.935,30.157083333333336]],[[-97.93241379310345,30.155],[-97.935,30.157083333333336]],[[-97.94909090909091,30.17],[-97.94045454545454,30.185]],[[-97.94045454545454,30.185],[-97.935,30.190294117647056]],[[-97.92,30.189999999999998],[-97.935,30.190294117647056]],[[-97.912,30.2],[-97.92,30.189999999999998]],[[-97.935,30.214347826086957],[-97.93615384615384,30.215]],[[-97.933125,30.215],[-97.935,30.214347826086957]],[[-97.912,30.2],[-97.91522727272728,30.215]],[[-97.93615384615384,30.215],[-97.935,30.215375]],[[-97.933125,30.215],[-97.92,30.228125]],[[-97.91522727272728,30.215],[-97.905,30.221818181818183]],[[-97.89,30.23],[-97.905,30.221818181818183]],[[-97.89,30.23],[-97.89,30.23]],[[-97.94691176470589,30.245],[-97.95,30.2425]],[[-97.920375,30.23],[-97.92,30.2306]],[[-97.9192105263158,30.23],[-97.92,30.2306]],[[-97.89,30.23],[-97.90161290322581,30.245]],[[-97.89,30.23],[-97.875,30.23818181818182]],[[-97.86857142857143,30.245],[-97.875,30.23818181818182]],[[-97.94691176470589,30.245],[-97.935,30.255125]],[[-97.93035714285715,30.26],[-97.935,30.255125]],[[-97.90161290322581,30.245],[-97.89592105263158,30.26]],[[-97.88076923076923,30.245],[-97.875,30.253035714285716]],[[-97.86857142857143,30.245],[-97.875,30.253035714285716]],[[-97.93035714285715,30.26],[-97.92,30.27144736842105]],[[-97.905,30.26565573770492],[-97.92,30.27144736842105]],[[-97.89592105263158,30.26],[-97.905,30.26565573770492]],[[-97.94307692307693,30.29],[-97.95,30.285344827586204]],[[-97.94307692307693,30.29],[-97.95,30.2954]],[[-97.83,30.377413793103447],[-97.83288461538461,30.38]],[[-97.82889705882353,30.38],[-97.83,30.377413793103447]],[[-97.86,30.388357142857142],[-97.86447115384615,30.395]],[[-97.845,30.385624999999997],[-97.86,30.388357142857142]],[[-97.83288461538461,30.38],[-97.845,30.385624999999997]],[[-97.82889705882353,30.38],[-97.8267857142857,30.395]],[[-97.8,30.3945],[-97.80033333333333,30.395]],[[-97.79976562499999,30.395],[-97.8,30.3945]],[[-97.875,30.40851851851852],[-97.87602564102563,30.41]],[[-97.86447115384615,30.395],[-97.86,30.405813953488373]],[[-97.85181818181817,30.41],[-97.86,30.405813953488373]],[[-97.83,30.402826086956523],[-97.83785714285715,30.41]],[[-97.8267857142857,30.395],[-97.83,30.402826086956523]],[[-97.80033333333333,30.395],[-97.8,30.395333333333333]],[[-97.79976562499999,30.395],[-97.8,30.395333333333333]],[[-97.87602564102563,30.41],[-97.875,30.411463414634145]],[[-97.869,30.41],[-97.86,30.419]],[[-97.85181818181817,30.41],[-97.86,30.419]],[[-97.83785714285715,30.41],[-97.84083333333334,30.425]],[[-97.86146341463414,30.425],[-97.86,30.431315789473686]],[[-97.845,30.434375000000003],[-97.86,30.431315789473686]],[[-97.84083333333334,30.425],[-97.83,30.432222222222222]],[[-97.82432432432432,30.44],[-97.83,30.432222222222222]],[[-97.905,30.45144736842105],[-97.90855263157894,30.455]],[[-97.89,30.448999999999998],[-97.905,30.45144736842105]],[[-97.88754098360656,30.455],[-97.89,30.448999999999998]],[[-97.84235294117647,30.44],[-97.83375,30.455]],[[-97.82432432432432,30.44],[-97.815,30.452321428571427]],[[-97.80964285714285,30.455],[-97.815,30.452321428571427]],[[-97.935,30.467499999999998],[-97.94333333333334,30.47]],[[-97.93261904761906,30.47],[-97.935,30.467499999999998]],[[-97.90855263157894,30.455],[-97.905,30.45806818181818]],[[-97.89,30.457884615384614],[-97.905,30.45806818181818]],[[-97.88754098360656,30.455],[-97.89,30.457884615384614]],[[-97.845,30.467],[-97.8478125,30.47]],[[-97.83375,30.455],[-97.83,30.467]],[[-97.815,30.46333333333333],[-97.83,30.467]],[[-97.80964285714285,30.455],[-97.815,30.46333333333333]],[[-97.94333333333334,30.47],[-97.935,30.474545454545453]],[[-97.93261904761906,30.47],[-97.935,30.474545454545453]],[[-97.875,30.47046875],[-97.88361111111111,30.485]],[[-97.86208333333333,30.485],[-97.875,30.47046875]],[[-97.8478125,30.47],[-97.84928571428571,30.485]],[[-97.83375,30.47],[-97.84333333333333,30.485]],[[-97.94407894736842,30.485],[-97.938,30.5]],[[-97.88361111111111,30.485],[-97.875,30.49238095238095]],[[-97.86208333333333,30.485],[-97.86,30.488125]],[[-97.84928571428571,30.485],[-97.86,30.488125]],[[-97.84333333333333,30.485],[-97.84071428571428,30.5]]]}},{"type":"Feature","properties":{"contour":320.0,"unit":"m"},"geometry":{"type":"MultiLineString","coordinates":[[[-97.949375,30.14],[-97.95,30.13948275862069]],[[-97.949375,30.14],[-97.95,30.14051724137931]],[[-97.94954545454546,30.185],[-97.95,30.184210526315788]],[[-97.94954545454546,30.185],[-97.935,30.199117647058824]],[[-97.93285714285715,30.2],[-97.935,30.199117647058824]],[[-97.93833333333333,30.2],[-97.935,30.201304347826085]],[[-97.93285714285715,30.2],[-97.935,30.201304347826085]],[[-97.935,30.222875000000002],[-97.95,30.22021739130435]],[[-97.927875,30.23],[-97.935,30.222875000000002]],[[-97.93808823529412,30.245],[-97.95,30.235357142857143]],[[-97.927875,30.23],[-97.92,30.2426]],[[-97.9164705882353,30.245],[-97.92,30.2426]],[[-97.93808823529412,30.245],[-97.935,30.247625]],[[-97.9232142857143,30.26],[-97.935,30.247625]],[[-97.9164705882353,30.245],[-97.905,30.2571875]],[[-97.90381578947368,30.26],[-97.905,30.2571875]],[[-97.9232142857143,30.26],[-97.92,30.26355263157895]],[[-97.905,30.260737704918036],[-97.92,30.26355263157895]],[[-97.90381578947368,30.26],[-97.905,30.260737704918036]],[[-97.86,30.392642857142857],[-97.86158653846154,30.395]],[[-97.845,30.39098214285714],[-97.86,30.392642857142857]],[[-97.83521739130434,30.395],[-97.845,30.39098214285714]],[[-97.86158653846154,30.395],[-97.86,30.398837209302325]],[[-97.845,30.404],[-97.86,30.398837209302325]],[[-97.83521739130434,30.395],[-97.845,30.404]],[[-97.875,30.47984375],[-97.87805555555556,30.485]],[[-97.87041666666667,30.485],[-97.875,30.47984375]],[[-97.94657142857143,30.5],[-97.95,30.49076923076923]],[[-97.87805555555556,30.485],[-97.875,30.48761904761905]],[[-97.87041666666667,30.485],[-97.875,30.48761904761905]]]}}],"attribution":"Derived from build-time DEM"}
