{"type":"FeatureCollection","features":[{"type":"Feature","properties":{"id":356815047,"kind":"poi","amenity":"hospital","emergency":"no","name":"Cornerstone Hospital Austin"},"geometry":{"type":"Point","coordinates":[-97.7433271,30.3118919]}},{"type":"Feature","properties":{"id":356854509,"kind":"poi","amenity":"hospital","emergency":"yes","name":"Heart Hospital of Austin"},"geometry":{"type":"Point","coordinates":[-97.7410796,30.30591]}},{"type":"Feature","properties":{"id":368161159,"kind":"poi","amenity":"fire_station","ele":"185","name":"Austin Fire Station Number 10"},"geometry":{"type":"Point","coordinates":[-97.7092,30.2986]}},{"type":"Feature","properties":{"id":368161166,"kind":"poi","amenity":"fire_station","ele":"190","name":"Austin Fire Station Number 9"},"geometry":{"type":"Point","coordinates":[-97.7294719,30.3064663]}},{"type":"Feature","properties":{"id":919327834,"kind":"poi","amenity":"pharmacy","name":"CVS Pharmacy"},"geometry":{"type":"Point","coordinates":[-97.7700166,30.2475017]}},{"type":"Feature","properties":{"id":1484100635,"kind":"poi","amenity":"pharmacy","name":"Peoples Pharmacy"},"geometry":{"type":"Point","coordinates":[-97.741148,30.3089652]}},{"type":"Feature","properties":{"id":1671062889,"kind":"poi","amenity":"drinking_water"},"geometry":{"type":"Point","coordinates":[-97.7393997,30.2725651]}},{"type":"Feature","properties":{"id":1801308037,"kind":"poi","ele":"149","name":"Austin","place":"city"},"geometry":{"type":"Point","coordinates":[-97.7436995,30.2711286]}},{"type":"Feature","properties":{"id":2104820161,"kind":"poi","access":"yes","amenity":"drinking_water"},"geometry":{"type":"Point","coordinates":[-97.7575945,30.2769062]}},{"type":"Feature","properties":{"id":2412694759,"kind":"poi","amenity":"drinking_water"},"geometry":{"type":"Point","coordinates":[-97.7072075,30.2943157]}},{"type":"Feature","properties":{"id":2637711684,"kind":"poi","amenity":"pharmacy","name":"H-E-B Pharmacy"},"geometry":{"type":"Point","coordinates":[-97.7118318,30.2594408]}},{"type":"Feature","properties":{"id":2637713219,"kind":"poi","amenity":"pharmacy","name":"H-E-B Pharmacy"},"geometry":{"type":"Point","coordinates":[-97.7194369,30.3001369]}},{"type":"Feature","properties":{"id":2673754493,"kind":"poi","amenity":"pharmacy","name":"Walgreens"},"geometry":{"type":"Point","coordinates":[-97.7280805,30.2426252]}},{"type":"Feature","properties":{"id":2727377352,"kind":"poi","amenity":"police","name":"Travis County Constable Precinct Five"},"geometry":{"type":"Point","coordinates":[-97.7444498,30.2729128]}},{"type":"Feature","properties":{"id":3140490642,"kind":"poi","amenity":"pharmacy","name":"H-E-B Pharmacy"},"geometry":{"type":"Point","coordinates":[-97.6980571,30.3009965]}},{"type":"Feature","properties":{"id":3676684703,"kind":"poi","amenity":"drinking_water"},"geometry":{"type":"Point","coordinates":[-97.7170048,30.2770588]}},{"type":"Feature","properties":{"id":3676727271,"kind":"poi","amenity":"drinking_water"},"geometry":{"type":"Point","coordinates":[-97.7204849,30.282309]}},{"type":"Feature","properties":{"id":3712045959,"kind":"poi","access":"yes","amenity":"drinking_water","name":"Drinking Fountain 2"},"geometry":{"type":"Point","coordinates":[-97.7491886,30.262513]}},{"type":"Feature","properties":{"id":3712045960,"kind":"poi","amenity":"drinking_water"},"geometry":{"type":"Point","coordinates":[-97.7500012,30.2646055]}},{"type":"Feature","properties":{"id":3712046644,"kind":"poi","access":"yes","amenity":"drinking_water"},"geometry":{"type":"Point","coordinates":[-97.7595085,30.2679213]}},{"type":"Feature","properties":{"id":3825134341,"kind":"poi","access":"yes","amenity":"drinking_water"},"geometry":{"type":"Point","coordinates":[-97.7137308,30.2513716]}},{"type":"Feature","properties":{"id":3825322750,"kind":"poi","amenity":"clinic","name":"Austin Regional Clinic"},"geometry":{"type":"Point","coordinates":[-97.7102356,30.2596339]}},{"type":"Feature","properties":{"id":3852654165,"kind":"poi","amenity":"drinking_water"},"geometry":{"type":"Point","coordinates":[-97.7279014,30.3072093]}},{"type":"Feature","properties":{"id":4160236604,"kind":"poi","access":"yes","amenity":"drinking_water","name":"Barton Springs South Drinking Fountain 1"},"geometry":{"type":"Point","coordinates":[-97.7701314,30.2626664]}},{"type":"Feature","properties":{"id":4166738795,"kind":"poi","access":"yes","amenity":"drinking_water"},"geometry":{"type":"Point","coordinates":[-97.7268608,30.2457585]}},{"type":"Feature","properties":{"id":4174667964,"kind":"poi","access":"yes","amenity":"drinking_water"},"geometry":{"type":"Point","coordinates":[-97.7354702,30.2494737]}},{"type":"Feature","properties":{"id":4304672632,"kind":"poi","amenity":"drinking_water"},"geometry":{"type":"Point","coordinates":[-97.7439392,30.2642997]}},{"type":"Feature","properties":{"id":4304721244,"kind":"poi","access":"no","amenity":"drinking_water","name":"Trail Drinking Fountain 2"},"geometry":{"type":"Point","coordinates":[-97.7518909,30.2650841]}},{"type":"Feature","properties":{"id":4307992565,"kind":"poi","access":"yes","amenity":"drinking_water"},"geometry":{"type":"Point","coordinates":[-97.7553421,30.2660927]}},{"type":"Feature","properties":{"id":4555393302,"kind":"poi","access":"yes","amenity":"drinking_water","name":"Trail Drinking Fountain 1"},"geometry":{"type":"Point","coordinates":[-97.7672671,30.2693471]}},{"type":"Feature","properties":{"id":4555393303,"kind":"poi","access":"yes","amenity":"drinking_water","name":"Trail Drinking Fountain 2"},"geometry":{"type":"Point","coordinates":[-97.7618579,30.2671425]}},{"type":"Feature","properties":{"id":4575752220,"kind":"poi","access":"yes","amenity":"drinking_water"},"geometry":{"type":"Point","coordinates":[-97.7189761,30.2512636]}},{"type":"Feature","properties":{"id":4575752221,"kind":"poi","amenity":"drinking_water"},"geometry":{"type":"Point","coordinates":[-97.7232555,30.2493354]}},{"type":"Feature","properties":{"id":4575903079,"kind":"poi","amenity":"drinking_water"},"geometry":{"type":"Point","coordinates":[-97.7321996,30.25013]}},{"type":"Feature","properties":{"id":4575903081,"kind":"poi","access":"yes","amenity":"drinking_water"},"geometry":{"type":"Point","coordinates":[-97.7286043,30.2487402]}},{"type":"Feature","properties":{"id":4575926779,"kind":"poi","amenity":"drinking_water"},"geometry":{"type":"Point","coordinates":[-97.7392251,30.2542572]}},{"type":"Feature","properties":{"id":4575926780,"kind":"poi","amenity":"drinking_water"},"geometry":{"type":"Point","coordinates":[-97.7398266,30.255582]}},{"type":"Feature","properties":{"id":4583439936,"kind":"poi","access":"yes","amenity":"drinking_water"},"geometry":{"type":"Point","coordinates":[-97.755184,30.262548]}},{"type":"Feature","properties":{"id":4629753599,"kind":"poi","amenity":"drinking_water"},"geometry":{"type":"Point","coordinates":[-97.7151665,30.2726658]}},{"type":"Feature","properties":{"id":4929739473,"kind":"poi","access":"yes","amenity":"drinking_water","name":"Drinking Fountain 3"},"geometry":{"type":"Point","coordinates":[-97.7508122,30.2618193]}},{"type":"Feature","properties":{"id":4966865611,"kind":"poi","amenity":"doctors","name":"Travis County Wellness Clinic: Stewart Lynn N MD"},"geometry":{"type":"Point","coordinates":[-97.7438919,30.2733881]}},{"type":"Feature","properties":{"id":4966865612,"kind":"poi","amenity":"doctors","name":"Premier Health and Wellness"},"geometry":{"type":"Point","coordinates":[-97.753528,30.2743968]}},{"type":"Feature","properties":{"id":4966865613,"kind":"poi","amenity":"doctors","name":"University Physicians Group - Trinity"},"geometry":{"type":"Point","coordinates":[-97.7376331,30.2726575]}},{"type":"Feature","properties":{"id":4966865616,"kind":"poi","amenity":"doctors","name":"Austin Travis County Mental Health: Anupindi Renu MD"},"geometry":{"type":"Point","coordinates":[-97.7479726,30.2576335]}},{"type":"Feature","properties":{"id":4966865617,"kind":"poi","amenity":"doctors","name":"Baylor Scott & White Clinic - Austin Downtown"},"geometry":{"type":"Point","coordinates":[-97.742809,30.2631367]}},{"type":"Feature","properties":{"id":4966873174,"kind":"poi","amenity":"doctors","name":"Austin Ear Nose & Throat Clinic"},"geometry":{"type":"Point","coordinates":[-97.7441546,30.3052385]}},{"type":"Feature","properties":{"id":4966873177,"kind":"poi","amenity":"doctors","name":"Capital Medical Clinic: Aventa Tony MD"},"geometry":{"type":"Point","coordinates":[-97.7467126,30.3060546]}},{"type":"Feature","properties":{"id":4966873178,"kind":"poi","amenity":"doctors","name":"ENT Specialists of Austin"},"geometry":{"type":"Point","coordinates":[-97.742403,30.3018024]}},{"type":"Feature","properties":{"id":4966873179,"kind":"poi","amenity":"doctors","name":"Orthopaedic Specialists of Austin"},"geometry":{"type":"Point","coordinates":[-97.7310524,30.3131005]}},{"type":"Feature","properties":{"id":4966873180,"kind":"poi","amenity":"doctors","name":"Central Texas Pediatric Orthopedics"},"geometry":{"type":"Point","coordinates":[-97.7072645,30.3054863]}},{"type":"Feature","properties":{"id":4966873181,"kind":"poi","amenity":"doctors","name":"Austin Eye Clinic: Wong Mitchel MD"},"geometry":{"type":"Point","coordinates":[-97.7195051,30.2965702]}},{"type":"Feature","properties":{"id":5018964612,"kind":"poi","name":"Travis Heights","place":"neighbourhood"},"geometry":{"type":"Point","coordinates":[-97.7439995,30.2444744]}},{"type":"Feature","properties":{"id":5018964618,"kind":"poi","name":"Zilker","place":"neighbourhood"},"geometry":{"type":"Point","coordinates":[-97.7695806,30.2542361]}},{"type":"Feature","properties":{"id":5018964619,"kind":"poi","name":"Bouldin","place":"neighbourhood"},"geometry":{"type":"Point","coordinates":[-97.7554813,30.255667]}},{"type":"Feature","properties":{"id":5018989154,"kind":"poi","name":"Bluffington","place":"neighbourhood"},"geometry":{"type":"Point","coordinates":[-97.7789005,30.2758312]}},{"type":"Feature","properties":{"id":5018989160,"kind":"poi","name":"Rainey Street Historic District","place":"neighbourhood"},"geometry":{"type":"Point","coordinates":[-97.7387883,30.2582309]}},{"type":"Feature","properties":{"id":5018989161,"kind":"poi","name":"East Cesar Chavez","place":"neighbourhood"},"geometry":{"type":"Point","coordinates":[-97.7317072,30.2558955]}},{"type":"Feature","properties":{"id":5018989163,"kind":"poi","name":"Govalle","place":"neighbourhood"},"geometry":{"type":"Point","coordinates":[-97.7012159,30.2586757]}},{"type":"Feature","properties":{"id":5018989164,"kind":"poi","name":"Downtown","place":"neighbourhood"},"geometry":{"type":"Point","coordinates":[-97.7447642,30.2680536]}},{"type":"Feature","properties":{"id":5019008235,"kind":"poi","name":"Clarksville","place":"neighbourhood"},"geometry":{"type":"Point","coordinates":[-97.7598075,30.2776796]}},{"type":"Feature","properties":{"id":5019008236,"kind":"poi","name":"Westfield","place":"neighbourhood"},"geometry":{"type":"Point","coordinates":[-97.775019,30.2873717]}},{"type":"Feature","properties":{"id":5019008246,"kind":"poi","name":"The Drag","place":"neighbourhood"},"geometry":{"type":"Point","coordinates":[-97.7418997,30.2890795]}},{"type":"Feature","properties":{"id":5019008247,"kind":"poi","name":"West Campus","place":"neighbourhood"},"geometry":{"type":"Point","coordinates":[-97.7473841,30.2902076]}},{"type":"Feature","properties":{"id":5019008248,"kind":"poi","name":"Old West Austin","place":"neighbourhood"},"geometry":{"type":"Point","coordinates":[-97.7548514,30.296822]}},{"type":"Feature","properties":{"id":5019008249,"kind":"poi","name":"Hemphill Park","place":"neighbourhood"},"geometry":{"type":"Point","coordinates":[-97.7399025,30.2967467]}},{"type":"Feature","properties":{"id":5019008250,"kind":"poi","name":"Hancock","place":"neighbourhood"},"geometry":{"type":"Point","coordinates":[-97.7247678,30.2958956]}},{"type":"Feature","properties":{"id":5019008251,"kind":"poi","name":"Cherrywood","place":"neighbourhood"},"geometry":{"type":"Point","coordinates":[-97.7176653,30.2919678]}},{"type":"Feature","properties":{"id":5019008252,"kind":"poi","name":"Chestnut","place":"neighbourhood"},"geometry":{"type":"Point","coordinates":[-97.7137171,30.2792568]}},{"type":"Feature","properties":{"id":5019008253,"kind":"poi","name":"East Austin","place":"neighbourhood"},"geometry":{"type":"Point","coordinates":[-97.7164851,30.2745499]}},{"type":"Feature","properties":{"id":5019008254,"kind":"poi","name":"Central East Austin","place":"neighbourhood"},"geometry":{"type":"Point","coordinates":[-97.726494,30.2727341]}},{"type":"Feature","properties":{"id":5084680418,"kind":"poi","name":"Lakeshore","place":"neighbourhood"},"geometry":{"type":"Point","coordinates":[-97.7230433,30.2433575]}},{"type":"Feature","properties":{"id":5312613462,"kind":"poi","amenity":"drinking_water"},"geometry":{"type":"Point","coordinates":[-97.7348431,30.2510801]}},{"type":"Feature","properties":{"id":5402476036,"kind":"poi","amenity":"doctors","name":"Austin Sports Medicine and Orthopedics"},"geometry":{"type":"Point","coordinates":[-97.7410784,30.3053184]}},{"type":"Feature","properties":{"id":5610493088,"kind":"poi","name":"Enfield","place":"neighbourhood"},"geometry":{"type":"Point","coordinates":[-97.7591064,30.2848643]}},{"type":"Feature","properties":{"id":5610493089,"kind":"poi","name":"Warehouse District","place":"neighbourhood"},"geometry":{"type":"Point","coordinates":[-97.746817,30.2669001]}},{"type":"Feature","properties":{"id":5610493090,"kind":"poi","name":"Seaholm","place":"neighbourhood"},"geometry":{"type":"Point","coordinates":[-97.7528036,30.2676229]}},{"type":"Feature","properties":{"id":5610493091,"kind":"poi","name":"Bryker Woods","place":"neighbourhood"},"geometry":{"type":"Point","coordinates":[-97.7545846,30.305246]}},{"type":"Feature","properties":{"id":5610493092,"kind":"poi","name":"Oakmont Heights","place":"neighbourhood"},"geometry":{"type":"Point","coordinates":[-97.7540697,30.3119891]}},{"type":"Feature","properties":{"id":5610493093,"kind":"poi","name":"Tarrytown","place":"neighbourhood"},"geometry":{"type":"Point","coordinates":[-97.7704848,30.3031249]}},{"type":"Feature","properties":{"id":5610493094,"kind":"poi","name":"Delwood","place":"neighbourhood"},"geometry":{"type":"Point","coordinates":[-97.714374,30.2981216]}}],"attribution":"© OpenStreetMap contributors"}
