{"type":"FeatureCollection","features":[{"type":"Feature","properties":{"id":151364479,"kind":"poi","ele":"135","name":"Moores Crossing","place":"hamlet"},"geometry":{"type":"Point","coordinates":[-97.6638317,30.1688426]}},{"type":"Feature","properties":{"id":151768617,"kind":"poi","ele":"193","name":"Creedmoor","place":"village"},"geometry":{"type":"Point","coordinates":[-97.7338917,30.0899368]}},{"type":"Feature","properties":{"id":2637712276,"kind":"poi","amenity":"pharmacy","name":"H-E-B Pharmacy"},"geometry":{"type":"Point","coordinates":[-97.7692368,30.1884873]}},{"type":"Feature","properties":{"id":4492451110,"kind":"poi","ele":"217","name":"Pilot Knob","natural":"peak"},"geometry":{"type":"Point","coordinates":[-97.7080991,30.1587601]}},{"type":"Feature","properties":{"id":4600678126,"kind":"poi","name":"Carl","place":"hamlet"},"geometry":{"type":"Point","coordinates":[-97.7476936,30.1147925]}},{"type":"Feature","properties":{"id":4600683687,"kind":"poi","name":"Bluff Springs","place":"hamlet"},"geometry":{"type":"Point","coordinates":[-97.7692209,30.1574925]}},{"type":"Feature","properties":{"id":4600687218,"kind":"poi","name":"Colton","place":"hamlet"},"geometry":{"type":"Point","coordinates":[-97.6975873,30.1491423]}},{"type":"Feature","properties":{"id":4600688883,"kind":"poi","name":"Pilot Knob","place":"hamlet"},"geometry":{"type":"Point","coordinates":[-97.6932152,30.1641695]}},{"type":"Feature","properties":{"id":5022523064,"kind":"poi","name":"Martinshore","place":"neighbourhood"},"geometry":{"type":"Point","coordinates":[-97.7069636,30.1922231]}},{"type":"Feature","properties":{"id":5022523066,"kind":"poi","name":"The Waters at Bluff Springs","place":"neighbourhood"},"geometry":{"type":"Point","coordinates":[-97.7759286,30.1787201]}},{"type":"Feature","properties":{"id":5022523070,"kind":"poi","name":"Perkins Valley","place":"neighbourhood"},"geometry":{"type":"Point","coordinates":[-97.7711864,30.1645845]}},{"type":"Feature","properties":{"id":5302614779,"kind":"poi","name":"Thoroughbred Ranchettes","place":"hamlet"},"geometry":{"type":"Point","coordinates":[-97.6777927,30.135733]}},{"type":"Feature","properties":{"id":5302614780,"kind":"poi","name":"South Fork Estates","place":"hamlet"},"geometry":{"type":"Point","coordinates":[-97.6752821,30.1434062]}},{"type":"Feature","properties":{"id":5633620101,"kind":"poi","name":"Bluff Springs Estates","place":"neighbourhood"},"geometry":{"type":"Point","coordinates":[-97.7695787,30.1711097]}},{"type":"Feature","properties":{"id":5642364138,"kind":"poi","name":"Circle S Ridge","place":"neighbourhood"},"geometry":{"type":"Point","coordinates":[-97.7762587,30.1876918]}},{"type":"Feature","properties":{"id":6078086644,"kind":"poi","name":"Pleasant Hill","place":"neighbourhood"},"geometry":{"type":"Point","coordinates":[-97.776288,30.1942846]}},{"type":"Feature","properties":{"id":6886574144,"kind":"poi","amenity":"pharmacy"},"geometry":{"type":"Point","coordinates":[-97.777994,30.1924346]}},{"type":"Feature","properties":{"id":8398579695,"kind":"poi","name":"Onion Creek Forest","place":"neighbourhood"},"geometry":{"type":"Point","coordinates":[-97.7472203,30.1746063]}},{"type":"Feature","properties":{"id":8398579696,"kind":"poi","name":"Yarrabee Bend","place":"neighbourhood"},"geometry":{"type":"Point","coordinates":[-97.7499822,30.1705661]}},{"type":"Feature","properties":{"id":8400931549,"kind":"poi","access":"yes","amenity":"drinking_water"},"geometry":{"type":"Point","coordinates":[-97.7240043,30.1825304]}},{"type":"Feature","properties":{"id":9459681561,"kind":"poi","access":"yes","amenity":"drinking_water"},"geometry":{"type":"Point","coordinates":[-97.7644026,30.1813262]}},{"type":"Feature","properties":{"id":9459681562,"kind":"poi","access":"yes","amenity":"drinking_water"},"geometry":{"type":"Point","coordinates":[-97.7438065,30.1712338]}},{"type":"Feature","properties":{"id":9459681563,"kind":"poi","access":"yes","amenity":"drinking_water"},"geometry":{"type":"Point","coordinates":[-97.7418333,30.1757658]}},{"type":"Feature","properties":{"id":9459681564,"kind":"poi","access":"yes","amenity":"drinking_water","name":"Pool Drinking Fountain 1"},"geometry":{"type":"Point","coordinates":[-97.7382203,30.1868921]}},{"type":"Feature","properties":{"id":9459681565,"kind":"poi","access":"private","amenity":"drinking_water","name":"Pool Drinking Fountain 2"},"geometry":{"type":"Point","coordinates":[-97.7382453,30.186703]}},{"type":"Feature","properties":{"id":9459681566,"kind":"poi","access":"yes","amenity":"drinking_water","name":"Playground Area Drinking Fountain"},"geometry":{"type":"Point","coordinates":[-97.7373486,30.1870374]}},{"type":"Feature","properties":{"id":9459681567,"kind":"poi","access":"yes","amenity":"drinking_water"},"geometry":{"type":"Point","coordinates":[-97.7393257,30.1991074]}},{"type":"Feature","properties":{"id":9459681568,"kind":"poi","access":"yes","amenity":"drinking_water"},"geometry":{"type":"Point","coordinates":[-97.7546623,30.158913]}},{"type":"Feature","properties":{"id":151550151,"kind":"poi","ele":"181","name":"Elroy","place":"hamlet"},"geometry":{"type":"Point","coordinates":[-97.6352784,30.12077]}},{"type":"Feature","properties":{"id":151621608,"kind":"poi","ele":"146","name":"Garfield","place":"hamlet"},"geometry":{"type":"Point","coordinates":[-97.5577771,30.187435]}},{"type":"Feature","properties":{"id":5589268255,"kind":"poi","name":"Elm Ridge","place":"hamlet"},"geometry":{"type":"Point","coordinates":[-97.5512613,30.1387833]}},{"type":"Feature","properties":{"id":5589268256,"kind":"poi","name":"East Travis Hills","place":"neighbourhood"},"geometry":{"type":"Point","coordinates":[-97.5783322,30.1391776]}},{"type":"Feature","properties":{"id":5627360083,"kind":"poi","name":"Swiss Alpine Village","place":"neighbourhood"},"geometry":{"type":"Point","coordinates":[-97.6146,30.1312277]}},{"type":"Feature","properties":{"id":5642617864,"kind":"poi","name":"Meadows at Berdoll","place":"neighbourhood"},"geometry":{"type":"Point","coordinates":[-97.6178454,30.1697764]}},{"type":"Feature","properties":{"id":5642617865,"kind":"poi","name":"Berdoll Farms","place":"neighbourhood"},"geometry":{"type":"Point","coordinates":[-97.6141746,30.173628]}},{"type":"Feature","properties":{"id":5642631316,"kind":"poi","name":"Lake City Estates","place":"neighbourhood"},"geometry":{"type":"Point","coordinates":[-97.6217973,30.1296152]}},{"type":"Feature","properties":{"id":5642631317,"kind":"poi","name":"Shannon Acres","place":"neighbourhood"},"geometry":{"type":"Point","coordinates":[-97.6248449,30.1267688]}},{"type":"Feature","properties":{"id":5652300473,"kind":"poi","name":"Meadow Lake Heights","place":"neighbourhood"},"geometry":{"type":"Point","coordinates":[-97.5951662,30.1067926]}},{"type":"Feature","properties":{"id":5652300474,"kind":"poi","name":"Cielo Vista Ranch","place":"neighbourhood"},"geometry":{"type":"Point","coordinates":[-97.600817,30.1042396]}},{"type":"Feature","properties":{"id":5652324486,"kind":"poi","name":"Jacobson Estates","place":"neighbourhood"},"geometry":{"type":"Point","coordinates":[-97.593534,30.1242323]}},{"type":"Feature","properties":{"id":5652357012,"kind":"poi","name":"Country View Estates","place":"neighbourhood"},"geometry":{"type":"Point","coordinates":[-97.6161441,30.0989509]}},{"type":"Feature","properties":{"id":5652357013,"kind":"poi","name":"Rio Vista Ranch","place":"neighbourhood"},"geometry":{"type":"Point","coordinates":[-97.6257959,30.0899649]}},{"type":"Feature","properties":{"id":5652579526,"kind":"poi","name":"Stony Point","place":"neighbourhood"},"geometry":{"type":"Point","coordinates":[-97.5684907,30.1329537]}},{"type":"Feature","properties":{"id":5652580851,"kind":"poi","name":"Jacobson Road - Mesa Drive","place":"neighbourhood"},"geometry":{"type":"Point","coordinates":[-97.5839655,30.1112151]}},{"type":"Feature","properties":{"id":5652587222,"kind":"poi","name":"Timber Hills","place":"neighbourhood"},"geometry":{"type":"Point","coordinates":[-97.586532,30.1453582]}},{"type":"Feature","properties":{"id":5653945169,"kind":"poi","name":"Stoney Ridge North","place":"neighbourhood"},"geometry":{"type":"Point","coordinates":[-97.638803,30.160478]}},{"type":"Feature","properties":{"id":5653945170,"kind":"poi","name":"Stoney Ridge","place":"neighbourhood"},"geometry":{"type":"Point","coordinates":[-97.648642,30.1571609]}},{"type":"Feature","properties":{"id":8398458529,"kind":"poi","name":"Timber Creek","place":"neighbourhood"},"geometry":{"type":"Point","coordinates":[-97.6425832,30.1816867]}},{"type":"Feature","properties":{"id":151366669,"kind":"poi","ele":"156","name":"Wyldwood","place":"hamlet"},"geometry":{"type":"Point","coordinates":[-97.4727743,30.1293821]}},{"type":"Feature","properties":{"id":151563723,"kind":"poi","ele":"135","name":"Elysium","place":"hamlet"},"geometry":{"type":"Point","coordinates":[-97.5152758,30.1668806]}},{"type":"Feature","properties":{"id":151865412,"kind":"poi","ele":"127","name":"Utley","place":"hamlet"},"geometry":{"type":"Point","coordinates":[-97.420829,30.1818807]}},{"type":"Feature","properties":{"id":151938990,"kind":"poi","ele":"132","name":"Cedar Creek","place":"hamlet"},"geometry":{"type":"Point","coordinates":[-97.5008303,30.0871611]}},{"type":"Feature","properties":{"id":356701338,"kind":"poi","ele":"177","name":"Caldwell Knob","natural":"peak"},"geometry":{"type":"Point","coordinates":[-97.4692207,30.1523135]}},{"type":"Feature","properties":{"id":5652579182,"kind":"poi","name":"Thousand Oaks","place":"neighbourhood"},"geometry":{"type":"Point","coordinates":[-97.5388918,30.1074078]}},{"type":"Feature","properties":{"id":6032691885,"kind":"poi","name":"Colorado River Ranchettes","place":"hamlet"},"geometry":{"type":"Point","coordinates":[-97.5177189,30.1882015]}},{"type":"Feature","properties":{"id":151324760,"kind":"poi","ele":"112","name":"Bastrop","place":"town"},"geometry":{"type":"Point","coordinates":[-97.3152701,30.1104947]}},{"type":"Feature","properties":{"id":151381064,"kind":"poi","ele":"137","name":"Phelan","place":"hamlet"},"geometry":{"type":"Point","coordinates":[-97.326104,30.1588264]}},{"type":"Feature","properties":{"id":2640309852,"kind":"poi","amenity":"pharmacy","name":"H-E-B Pharmacy"},"geometry":{"type":"Point","coordinates":[-97.3351151,30.1101508]}},{"type":"Feature","properties":{"id":5581424752,"kind":"poi","name":"Dunstan","place":"hamlet"},"geometry":{"type":"Point","coordinates":[-97.316631,30.1830221]}},{"type":"Feature","properties":{"id":5642351615,"kind":"poi","name":"Hunters Crossing","place":"neighbourhood"},"geometry":{"type":"Point","coordinates":[-97.3575805,30.103946]}},{"type":"Feature","properties":{"id":5653935553,"kind":"poi","name":"Riverside Grove","place":"neighbourhood"},"geometry":{"type":"Point","coordinates":[-97.3404716,30.1167962]}},{"type":"Feature","properties":{"id":6336409499,"kind":"poi","name":"Shiloh","place":"hamlet"},"geometry":{"type":"Point","coordinates":[-97.3835535,30.0930858]}},{"type":"Feature","properties":{"id":6336438803,"kind":"poi","name":"Lone Star","place":"hamlet"},"geometry":{"type":"Point","coordinates":[-97.3696706,30.0925921]}},{"type":"Feature","properties":{"id":6365177608,"kind":"poi","name":"Goodman","place":"hamlet"},"geometry":{"type":"Point","coordinates":[-97.3861311,30.1571668]}},{"type":"Feature","properties":{"id":11020527806,"kind":"poi","amenity":"shelter"},"geometry":{"type":"Point","coordinates":[-97.3204556,30.1251028]}},{"type":"Feature","properties":{"id":11025407668,"kind":"poi","amenity":"clinic","name":"FastMed Urgent Care"},"geometry":{"type":"Point","coordinates":[-97.3523745,30.1127746]}},{"type":"Feature","properties":{"id":11033357821,"kind":"poi","amenity":"police","name":"City of Bastrop Police Department"},"geometry":{"type":"Point","coordinates":[-97.330078,30.1079657]}},{"type":"Feature","properties":{"id":11033540457,"kind":"poi","amenity":"clinic","name":"ARC"},"geometry":{"type":"Point","coordinates":[-97.3468964,30.1102994]}},{"type":"Feature","properties":{"id":11035019318,"kind":"poi","amenity":"pharmacy","name":"Walgreens"},"geometry":{"type":"Point","coordinates":[-97.3362093,30.1065259]}},{"type":"Feature","properties":{"id":11035056978,"kind":"poi","amenity":"clinic","name":"Bastrop Medical Clinic, PA"},"geometry":{"type":"Point","coordinates":[-97.3353435,30.1055448]}},{"type":"Feature","properties":{"id":11035548116,"kind":"poi","amenity":"clinic","name":"Total Men’s Primary Care"},"geometry":{"type":"Point","coordinates":[-97.333202,30.1050968]}},{"type":"Feature","properties":{"id":11035548118,"kind":"poi","amenity":"clinic","name":"Riverwood Medical Clinic"},"geometry":{"type":"Point","coordinates":[-97.3333266,30.1048362]}},{"type":"Feature","properties":{"id":11038205351,"kind":"poi","amenity":"clinic","name":"SAI Medical Group"},"geometry":{"type":"Point","coordinates":[-97.3302535,30.10248]}},{"type":"Feature","properties":{"id":11047411932,"kind":"poi","amenity":"clinic","name":"Medical Weight Loss Clinic"},"geometry":{"type":"Point","coordinates":[-97.329767,30.1064987]}},{"type":"Feature","properties":{"id":11047411933,"kind":"poi","amenity":"clinic","name":"Heart of Texas Oral Surgery"},"geometry":{"type":"Point","coordinates":[-97.3294929,30.1065411]}},{"type":"Feature","properties":{"id":11049556506,"kind":"poi","access":"yes","amenity":"drinking_water"},"geometry":{"type":"Point","coordinates":[-97.3192908,30.1108298]}},{"type":"Feature","properties":{"id":11049635635,"kind":"poi","amenity":"pharmacy","name":"Bastrop Medicine Shop"},"geometry":{"type":"Point","coordinates":[-97.3202299,30.1120413]}},{"type":"Feature","properties":{"id":4492466291,"kind":"poi","ele":"201","name":"Lotman Hill","natural":"peak"},"geometry":{"type":"Point","coordinates":[-97.2579693,30.1479245]}},{"type":"Feature","properties":{"id":5642587511,"kind":"poi","name":"Circle D-KC Estates","place":"village"},"geometry":{"type":"Point","coordinates":[-97.2309086,30.1575252]}},{"type":"Feature","properties":{"id":6365185955,"kind":"poi","name":"Yewpon","place":"hamlet"},"geometry":{"type":"Point","coordinates":[-97.2097114,30.1612186]}},{"type":"Feature","properties":{"id":11248836699,"kind":"poi","amenity":"drinking_water","name":"Water fountain"},"geometry":{"type":"Point","coordinates":[-97.2804549,30.1073647]}},{"type":"Feature","properties":{"id":356815047,"kind":"poi","amenity":"hospital","emergency":"no","name":"Cornerstone Hospital Austin"},"geometry":{"type":"Point","coordinates":[-97.7433271,30.3118919]}},{"type":"Feature","properties":{"id":356854509,"kind":"poi","amenity":"hospital","emergency":"yes","name":"Heart Hospital of Austin"},"geometry":{"type":"Point","coordinates":[-97.7410796,30.30591]}},{"type":"Feature","properties":{"id":368161159,"kind":"poi","amenity":"fire_station","ele":"185","name":"Austin Fire Station Number 10"},"geometry":{"type":"Point","coordinates":[-97.7092,30.2986]}},{"type":"Feature","properties":{"id":368161166,"kind":"poi","amenity":"fire_station","ele":"190","name":"Austin Fire Station Number 9"},"geometry":{"type":"Point","coordinates":[-97.7294719,30.3064663]}},{"type":"Feature","properties":{"id":919327834,"kind":"poi","amenity":"pharmacy","name":"CVS Pharmacy"},"geometry":{"type":"Point","coordinates":[-97.7700166,30.2475017]}},{"type":"Feature","properties":{"id":1484100635,"kind":"poi","amenity":"pharmacy","name":"Peoples Pharmacy"},"geometry":{"type":"Point","coordinates":[-97.741148,30.3089652]}},{"type":"Feature","properties":{"id":1671062889,"kind":"poi","amenity":"drinking_water"},"geometry":{"type":"Point","coordinates":[-97.7393997,30.2725651]}},{"type":"Feature","properties":{"id":1801308037,"kind":"poi","ele":"149","name":"Austin","place":"city"},"geometry":{"type":"Point","coordinates":[-97.7436995,30.2711286]}},{"type":"Feature","properties":{"id":2104820161,"kind":"poi","access":"yes","amenity":"drinking_water"},"geometry":{"type":"Point","coordinates":[-97.7575945,30.2769062]}},{"type":"Feature","properties":{"id":2412694759,"kind":"poi","amenity":"drinking_water"},"geometry":{"type":"Point","coordinates":[-97.7072075,30.2943157]}},{"type":"Feature","properties":{"id":2637711684,"kind":"poi","amenity":"pharmacy","name":"H-E-B Pharmacy"},"geometry":{"type":"Point","coordinates":[-97.7118318,30.2594408]}},{"type":"Feature","properties":{"id":2637713219,"kind":"poi","amenity":"pharmacy","name":"H-E-B Pharmacy"},"geometry":{"type":"Point","coordinates":[-97.7194369,30.3001369]}},{"type":"Feature","properties":{"id":2639155236,"kind":"poi","amenity":"pharmacy","name":"H-E-B Pharmacy"},"geometry":{"type":"Point","coordinates":[-97.66505,30.3122716]}},{"type":"Feature","properties":{"id":2673754493,"kind":"poi","amenity":"pharmacy","name":"Walgreens"},"geometry":{"type":"Point","coordinates":[-97.7280805,30.2426252]}},{"type":"Feature","properties":{"id":2727377352,"kind":"poi","amenity":"police","name":"Travis County Constable Precinct Five"},"geometry":{"type":"Point","coordinates":[-97.7444498,30.2729128]}},{"type":"Feature","properties":{"id":3098009907,"kind":"poi","amenity":"pharmacy","name":"H-E-B Pharmacy"},"geometry":{"type":"Point","coordinates":[-97.7227631,30.2366613]}},{"type":"Feature","properties":{"id":3140490642,"kind":"poi","amenity":"pharmacy","name":"H-E-B Pharmacy"},"geometry":{"type":"Point","coordinates":[-97.6980571,30.3009965]}},{"type":"Feature","properties":{"id":3676684703,"kind":"poi","amenity":"drinking_water"},"geometry":{"type":"Point","coordinates":[-97.7170048,30.2770588]}},{"type":"Feature","properties":{"id":3676727271,"kind":"poi","amenity":"drinking_water"},"geometry":{"type":"Point","coordinates":[-97.7204849,30.282309]}},{"type":"Feature","properties":{"id":3712045959,"kind":"poi","access":"yes","amenity":"drinking_water","name":"Drinking Fountain 2"},"geometry":{"type":"Point","coordinates":[-97.7491886,30.262513]}},{"type":"Feature","properties":{"id":3712045960,"kind":"poi","amenity":"drinking_water"},"geometry":{"type":"Point","coordinates":[-97.7500012,30.2646055]}},{"type":"Feature","properties":{"id":3712046644,"kind":"poi","access":"yes","amenity":"drinking_water"},"geometry":{"type":"Point","coordinates":[-97.7595085,30.2679213]}},{"type":"Feature","properties":{"id":3825134341,"kind":"poi","access":"yes","amenity":"drinking_water"},"geometry":{"type":"Point","coordinates":[-97.7137308,30.2513716]}},{"type":"Feature","properties":{"id":3825322750,"kind":"poi","amenity":"clinic","name":"Austin Regional Clinic"},"geometry":{"type":"Point","coordinates":[-97.7102356,30.2596339]}},{"type":"Feature","properties":{"id":3852654165,"kind":"poi","amenity":"drinking_water"},"geometry":{"type":"Point","coordinates":[-97.7279014,30.3072093]}},{"type":"Feature","properties":{"id":4160236604,"kind":"poi","access":"yes","amenity":"drinking_water","name":"Barton Springs South Drinking Fountain 1"},"geometry":{"type":"Point","coordinates":[-97.7701314,30.2626664]}},{"type":"Feature","properties":{"id":4166738795,"kind":"poi","access":"yes","amenity":"drinking_water"},"geometry":{"type":"Point","coordinates":[-97.7268608,30.2457585]}},{"type":"Feature","properties":{"id":4174667964,"kind":"poi","access":"yes","amenity":"drinking_water"},"geometry":{"type":"Point","coordinates":[-97.7354702,30.2494737]}},{"type":"Feature","properties":{"id":4304672632,"kind":"poi","amenity":"drinking_water"},"geometry":{"type":"Point","coordinates":[-97.7439392,30.2642997]}},{"type":"Feature","properties":{"id":4304721244,"kind":"poi","access":"no","amenity":"drinking_water","name":"Trail Drinking Fountain 2"},"geometry":{"type":"Point","coordinates":[-97.7518909,30.2650841]}},{"type":"Feature","properties":{"id":4307992565,"kind":"poi","access":"yes","amenity":"drinking_water"},"geometry":{"type":"Point","coordinates":[-97.7553421,30.2660927]}},{"type":"Feature","properties":{"id":4555393302,"kind":"poi","access":"yes","amenity":"drinking_water","name":"Trail Drinking Fountain 1"},"geometry":{"type":"Point","coordinates":[-97.7672671,30.2693471]}},{"type":"Feature","properties":{"id":4555393303,"kind":"poi","access":"yes","amenity":"drinking_water","name":"Trail Drinking Fountain 2"},"geometry":{"type":"Point","coordinates":[-97.7618579,30.2671425]}},{"type":"Feature","properties":{"id":4575752220,"kind":"poi","access":"yes","amenity":"drinking_water"},"geometry":{"type":"Point","coordinates":[-97.7189761,30.2512636]}},{"type":"Feature","properties":{"id":4575752221,"kind":"poi","amenity":"drinking_water"},"geometry":{"type":"Point","coordinates":[-97.7232555,30.2493354]}},{"type":"Feature","properties":{"id":4575903079,"kind":"poi","amenity":"drinking_water"},"geometry":{"type":"Point","coordinates":[-97.7321996,30.25013]}},{"type":"Feature","properties":{"id":4575903081,"kind":"poi","access":"yes","amenity":"drinking_water"},"geometry":{"type":"Point","coordinates":[-97.7286043,30.2487402]}},{"type":"Feature","properties":{"id":4575926779,"kind":"poi","amenity":"drinking_water"},"geometry":{"type":"Point","coordinates":[-97.7392251,30.2542572]}},{"type":"Feature","properties":{"id":4575926780,"kind":"poi","amenity":"drinking_water"},"geometry":{"type":"Point","coordinates":[-97.7398266,30.255582]}},{"type":"Feature","properties":{"id":4583439936,"kind":"poi","access":"yes","amenity":"drinking_water"},"geometry":{"type":"Point","coordinates":[-97.755184,30.262548]}},{"type":"Feature","properties":{"id":4629753599,"kind":"poi","amenity":"drinking_water"},"geometry":{"type":"Point","coordinates":[-97.7151665,30.2726658]}},{"type":"Feature","properties":{"id":4929739473,"kind":"poi","access":"yes","amenity":"drinking_water","name":"Drinking Fountain 3"},"geometry":{"type":"Point","coordinates":[-97.7508122,30.2618193]}},{"type":"Feature","properties":{"id":4933514972,"kind":"poi","amenity":"drinking_water"},"geometry":{"type":"Point","coordinates":[-97.6702198,30.2020938]}},{"type":"Feature","properties":{"id":4933514983,"kind":"poi","amenity":"drinking_water"},"geometry":{"type":"Point","coordinates":[-97.6691737,30.2023117]}},{"type":"Feature","properties":{"id":4933514999,"kind":"poi","amenity":"drinking_water"},"geometry":{"type":"Point","coordinates":[-97.6679184,30.2021181]}},{"type":"Feature","properties":{"id":4933515006,"kind":"poi","amenity":"drinking_water"},"geometry":{"type":"Point","coordinates":[-97.667563,30.2021112]}},{"type":"Feature","properties":{"id":4933515016,"kind":"poi","amenity":"drinking_water"},"geometry":{"type":"Point","coordinates":[-97.6663399,30.2021262]}},{"type":"Feature","properties":{"id":4933515624,"kind":"poi","amenity":"drinking_water"},"geometry":{"type":"Point","coordinates":[-97.6656238,30.2021969]}},{"type":"Feature","properties":{"id":4933515638,"kind":"poi","amenity":"drinking_water"},"geometry":{"type":"Point","coordinates":[-97.6647722,30.2023847]}},{"type":"Feature","properties":{"id":4966853558,"kind":"poi","amenity":"doctors","name":"Austin Gastroenterology"},"geometry":{"type":"Point","coordinates":[-97.7758102,30.2246256]}},{"type":"Feature","properties":{"id":4966853559,"kind":"poi","amenity":"doctors","name":"Austin Ear Nose & Throat Clinic South"},"geometry":{"type":"Point","coordinates":[-97.774493,30.223635]}},{"type":"Feature","properties":{"id":4966853560,"kind":"poi","amenity":"doctors","name":"Broberg Eye Care"},"geometry":{"type":"Point","coordinates":[-97.7737856,30.2247942]}},{"type":"Feature","properties":{"id":4966853561,"kind":"poi","amenity":"doctors","name":"Austin Center for Men's Health: Parviz Kavoussi, MD"},"geometry":{"type":"Point","coordinates":[-97.7740864,30.2243165]}},{"type":"Feature","properties":{"id":4966865611,"kind":"poi","amenity":"doctors","name":"Travis County Wellness Clinic: Stewart Lynn N MD"},"geometry":{"type":"Point","coordinates":[-97.7438919,30.2733881]}},{"type":"Feature","properties":{"id":4966865612,"kind":"poi","amenity":"doctors","name":"Premier Health and Wellness"},"geometry":{"type":"Point","coordinates":[-97.753528,30.2743968]}},{"type":"Feature","properties":{"id":4966865613,"kind":"poi","amenity":"doctors","name":"University Physicians Group - Trinity"},"geometry":{"type":"Point","coordinates":[-97.7376331,30.2726575]}},{"type":"Feature","properties":{"id":4966865616,"kind":"poi","amenity":"doctors","name":"Austin Travis County Mental Health: Anupindi Renu MD"},"geometry":{"type":"Point","coordinates":[-97.7479726,30.2576335]}},{"type":"Feature","properties":{"id":4966865617,"kind":"poi","amenity":"doctors","name":"Baylor Scott & White Clinic - Austin Downtown"},"geometry":{"type":"Point","coordinates":[-97.742809,30.2631367]}},{"type":"Feature","properties":{"id":4966873174,"kind":"poi","amenity":"doctors","name":"Austin Ear Nose & Throat Clinic"},"geometry":{"type":"Point","coordinates":[-97.7441546,30.3052385]}},{"type":"Feature","properties":{"id":4966873177,"kind":"poi","amenity":"doctors","name":"Capital Medical Clinic: Aventa Tony MD"},"geometry":{"type":"Point","coordinates":[-97.7467126,30.3060546]}},{"type":"Feature","properties":{"id":4966873178,"kind":"poi","amenity":"doctors","name":"ENT Specialists of Austin"},"geometry":{"type":"Point","coordinates":[-97.742403,30.3018024]}},{"type":"Feature","properties":{"id":4966873179,"kind":"poi","amenity":"doctors","name":"Orthopaedic Specialists of Austin"},"geometry":{"type":"Point","coordinates":[-97.7310524,30.3131005]}},{"type":"Feature","properties":{"id":4966873180,"kind":"poi","amenity":"doctors","name":"Central Texas Pediatric Orthopedics"},"geometry":{"type":"Point","coordinates":[-97.7072645,30.3054863]}},{"type":"Feature","properties":{"id":4966873181,"kind":"poi","amenity":"doctors","name":"Austin Eye Clinic: Wong Mitchel MD"},"geometry":{"type":"Point","coordinates":[-97.7195051,30.2965702]}},{"type":"Feature","properties":{"id":5018964612,"kind":"poi","name":"Travis Heights","place":"neighbourhood"},"geometry":{"type":"Point","coordinates":[-97.7439995,30.2444744]}},{"type":"Feature","properties":{"id":5018964613,"kind":"poi","name":"South Congress","place":"neighbourhood"},"geometry":{"type":"Point","coordinates":[-97.7504602,30.2385208]}},{"type":"Feature","properties":{"id":5018964614,"kind":"poi","name":"Dawson","place":"neighbourhood"},"geometry":{"type":"Point","coordinates":[-97.7616825,30.2337193]}},{"type":"Feature","properties":{"id":5018964618,"kind":"poi","name":"Zilker","place":"neighbourhood"},"geometry":{"type":"Point","coordinates":[-97.7695806,30.2542361]}},{"type":"Feature","properties":{"id":5018964619,"kind":"poi","name":"Bouldin","place":"neighbourhood"},"geometry":{"type":"Point","coordinates":[-97.7554813,30.255667]}},{"type":"Feature","properties":{"id":5018989154,"kind":"poi","name":"Bluffington","place":"neighbourhood"},"geometry":{"type":"Point","coordinates":[-97.7789005,30.2758312]}},{"type":"Feature","properties":{"id":5018989156,"kind":"poi","name":"East Riverside - Oltorf","place":"neighbourhood"},"geometry":{"type":"Point","coordinates":[-97.7245357,30.23315]}},{"type":"Feature","properties":{"id":5018989157,"kind":"poi","name":"Pleasant Valley","place":"neighbourhood"},"geometry":{"type":"Point","coordinates":[-97.7241988,30.2302634]}},{"type":"Feature","properties":{"id":5018989158,"kind":"poi","name":"Montopolis","place":"neighbourhood"},"geometry":{"type":"Point","coordinates":[-97.7034441,30.2249463]}},{"type":"Feature","properties":{"id":5018989159,"kind":"poi","name":"Southeast Austin","place":"neighbourhood"},"geometry":{"type":"Point","coordinates":[-97.7371467,30.2025935]}},{"type":"Feature","properties":{"id":5018989160,"kind":"poi","name":"Rainey Street Historic District","place":"neighbourhood"},"geometry":{"type":"Point","coordinates":[-97.7387883,30.2582309]}},{"type":"Feature","properties":{"id":5018989161,"kind":"poi","name":"East Cesar Chavez","place":"neighbourhood"},"geometry":{"type":"Point","coordinates":[-97.7317072,30.2558955]}},{"type":"Feature","properties":{"id":5018989163,"kind":"poi","name":"Govalle","place":"neighbourhood"},"geometry":{"type":"Point","coordinates":[-97.7012159,30.2586757]}},{"type":"Feature","properties":{"id":5018989164,"kind":"poi","name":"Downtown","place":"neighbourhood"},"geometry":{"type":"Point","coordinates":[-97.7447642,30.2680536]}},{"type":"Feature","properties":{"id":5019008235,"kind":"poi","name":"Clarksville","place":"neighbourhood"},"geometry":{"type":"Point","coordinates":[-97.7598075,30.2776796]}},{"type":"Feature","properties":{"id":5019008236,"kind":"poi","name":"Westfield","place":"neighbourhood"},"geometry":{"type":"Point","coordinates":[-97.775019,30.2873717]}},{"type":"Feature","properties":{"id":5019008246,"kind":"poi","name":"The Drag","place":"neighbourhood"},"geometry":{"type":"Point","coordinates":[-97.7418997,30.2890795]}},{"type":"Feature","properties":{"id":5019008247,"kind":"poi","name":"West Campus","place":"neighbourhood"},"geometry":{"type":"Point","coordinates":[-97.7473841,30.2902076]}},{"type":"Feature","properties":{"id":5019008248,"kind":"poi","name":"Old West Austin","place":"neighbourhood"},"geometry":{"type":"Point","coordinates":[-97.7548514,30.296822]}},{"type":"Feature","properties":{"id":5019008249,"kind":"poi","name":"Hemphill Park","place":"neighbourhood"},"geometry":{"type":"Point","coordinates":[-97.7399025,30.2967467]}},{"type":"Feature","properties":{"id":5019008250,"kind":"poi","name":"Hancock","place":"neighbourhood"},"geometry":{"type":"Point","coordinates":[-97.7247678,30.2958956]}},{"type":"Feature","properties":{"id":5019008251,"kind":"poi","name":"Cherrywood","place":"neighbourhood"},"geometry":{"type":"Point","coordinates":[-97.7176653,30.2919678]}},{"type":"Feature","properties":{"id":5019008252,"kind":"poi","name":"Chestnut","place":"neighbourhood"},"geometry":{"type":"Point","coordinates":[-97.7137171,30.2792568]}},{"type":"Feature","properties":{"id":5019008253,"kind":"poi","name":"East Austin","place":"neighbourhood"},"geometry":{"type":"Point","coordinates":[-97.7164851,30.2745499]}},{"type":"Feature","properties":{"id":5019008254,"kind":"poi","name":"Central East Austin","place":"neighbourhood"},"geometry":{"type":"Point","coordinates":[-97.726494,30.2727341]}},{"type":"Feature","properties":{"id":5084680418,"kind":"poi","name":"Lakeshore","place":"neighbourhood"},"geometry":{"type":"Point","coordinates":[-97.7230433,30.2433575]}},{"type":"Feature","properties":{"id":5084680419,"kind":"poi","name":"McKinney","place":"neighbourhood"},"geometry":{"type":"Point","coordinates":[-97.7280148,30.2058765]}},{"type":"Feature","properties":{"id":5084680821,"kind":"poi","name":"East Congress","place":"neighbourhood"},"geometry":{"type":"Point","coordinates":[-97.7640108,30.2084701]}},{"type":"Feature","properties":{"id":5152527704,"kind":"poi","amenity":"doctors","name":"Dr. Anthony R. Bittar, MD"},"geometry":{"type":"Point","coordinates":[-97.7728155,30.2257145]}},{"type":"Feature","properties":{"id":5312613462,"kind":"poi","amenity":"drinking_water"},"geometry":{"type":"Point","coordinates":[-97.7348431,30.2510801]}},{"type":"Feature","properties":{"id":5402476036,"kind":"poi","amenity":"doctors","name":"Austin Sports Medicine and Orthopedics"},"geometry":{"type":"Point","coordinates":[-97.7410784,30.3053184]}},{"type":"Feature","properties":{"id":5610493088,"kind":"poi","name":"Enfield","place":"neighbourhood"},"geometry":{"type":"Point","coordinates":[-97.7591064,30.2848643]}},{"type":"Feature","properties":{"id":5610493089,"kind":"poi","name":"Warehouse District","place":"neighbourhood"},"geometry":{"type":"Point","coordinates":[-97.746817,30.2669001]}},{"type":"Feature","properties":{"id":5610493090,"kind":"poi","name":"Seaholm","place":"neighbourhood"},"geometry":{"type":"Point","coordinates":[-97.7528036,30.2676229]}},{"type":"Feature","properties":{"id":5610493091,"kind":"poi","name":"Bryker Woods","place":"neighbourhood"},"geometry":{"type":"Point","coordinates":[-97.7545846,30.305246]}},{"type":"Feature","properties":{"id":5610493092,"kind":"poi","name":"Oakmont Heights","place":"neighbourhood"},"geometry":{"type":"Point","coordinates":[-97.7540697,30.3119891]}},{"type":"Feature","properties":{"id":5610493093,"kind":"poi","name":"Tarrytown","place":"neighbourhood"},"geometry":{"type":"Point","coordinates":[-97.7704848,30.3031249]}},{"type":"Feature","properties":{"id":5610493094,"kind":"poi","name":"Delwood","place":"neighbourhood"},"geometry":{"type":"Point","coordinates":[-97.714374,30.2981216]}},{"type":"Feature","properties":{"id":5610493095,"kind":"poi","name":"Ridge Top","place":"neighbourhood"},"geometry":{"type":"Point","coordinates":[-97.7101475,30.3185369]}},{"type":"Feature","properties":{"id":5610493096,"kind":"poi","name":"North Loop","place":"neighbourhood"},"geometry":{"type":"Point","coordinates":[-97.7187582,30.3178817]}},{"type":"Feature","properties":{"id":5610493097,"kind":"poi","name":"Hyde Park","place":"neighbourhood"},"geometry":{"type":"Point","coordinates":[-97.7304485,30.3044117]}},{"type":"Feature","properties":{"id":5610493098,"kind":"poi","name":"The Triangle","place":"neighbourhood"},"geometry":{"type":"Point","coordinates":[-97.7341733,30.31405]}},{"type":"Feature","properties":{"id":5610493099,"kind":"poi","name":"Rosedale","place":"neighbourhood"},"geometry":{"type":"Point","coordinates":[-97.7448982,30.3133901]}},{"type":"Feature","properties":{"id":5632937480,"kind":"poi","name":"Rosewood","place":"neighbourhood"},"geometry":{"type":"Point","coordinates":[-97.7101117,30.2713704]}},{"type":"Feature","properties":{"id":5632937481,"kind":"poi","name":"Blackshear-Prospect Hill","place":"neighbourhood"},"geometry":{"type":"Point","coordinates":[-97.7205383,30.2660929]}},{"type":"Feature","properties":{"id":5632987398,"kind":"poi","name":"MLK-183","place":"neighbourhood"},"geometry":{"type":"Point","coordinates":[-97.6739222,30.2793983]}},{"type":"Feature","properties":{"id":5632987399,"kind":"poi","name":"MLK","place":"neighbourhood"},"geometry":{"type":"Point","coordinates":[-97.6940012,30.2840353]}},{"type":"Feature","properties":{"id":5633172948,"kind":"poi","name":"St. Edwards","place":"neighbourhood"},"geometry":{"type":"Point","coordinates":[-97.7546098,30.2269483]}},{"type":"Feature","properties":{"id":5633451772,"kind":"poi","name":"Windsor Park","place":"neighbourhood"},"geometry":{"type":"Point","coordinates":[-97.6910953,30.3135492]}},{"type":"Feature","properties":{"id":5633451773,"kind":"poi","name":"University Hills","place":"neighbourhood"},"geometry":{"type":"Point","coordinates":[-97.6739168,30.3175801]}},{"type":"Feature","properties":{"id":5635200245,"kind":"poi","name":"Galindo","place":"neighbourhood"},"geometry":{"type":"Point","coordinates":[-97.7685149,30.2355778]}},{"type":"Feature","properties":{"id":5635290755,"kind":"poi","name":"West Congress","place":"neighbourhood"},"geometry":{"type":"Point","coordinates":[-97.7711214,30.2157443]}},{"type":"Feature","properties":{"id":5635337322,"kind":"poi","name":"Pecan Springs Springdale","place":"neighbourhood"},"geometry":{"type":"Point","coordinates":[-97.6754978,30.2972122]}},{"type":"Feature","properties":{"id":5635417747,"kind":"poi","name":"Parker Lane","place":"neighbourhood"},"geometry":{"type":"Point","coordinates":[-97.742346,30.2232382]}},{"type":"Feature","properties":{"id":5635455663,"kind":"poi","name":"Foster Heights","place":"neighbourhood"},"geometry":{"type":"Point","coordinates":[-97.7175207,30.2720491]}},{"type":"Feature","properties":{"id":5635939119,"kind":"poi","name":"Medical District","place":"neighbourhood"},"geometry":{"type":"Point","coordinates":[-97.7338976,30.2754098]}},{"type":"Feature","properties":{"id":5635939120,"kind":"poi","name":"Swede Hill","place":"neighbourhood"},"geometry":{"type":"Point","coordinates":[-97.7295123,30.2744982]}},{"type":"Feature","properties":{"id":5642163740,"kind":"poi","name":"Mueller","place":"neighbourhood"},"geometry":{"type":"Point","coordinates":[-97.7002032,30.2965242]}},{"type":"Feature","properties":{"id":5648067830,"kind":"poi","amenity":"drinking_water"},"geometry":{"type":"Point","coordinates":[-97.7714564,30.3127053]}},{"type":"Feature","properties":{"id":5667552321,"kind":"poi","name":"MetCenter","place":"neighbourhood"},"geometry":{"type":"Point","coordinates":[-97.694712,30.2072588]}},{"type":"Feature","properties":{"id":5771939716,"kind":"poi","amenity":"clinic","name":"CareNow Urgent Care"},"geometry":{"type":"Point","coordinates":[-97.758408,30.2595659]}},{"type":"Feature","properties":{"id":6078050160,"kind":"poi","name":"West Sixth","place":"neighbourhood"},"geometry":{"type":"Point","coordinates":[-97.7498112,30.2702338]}},{"type":"Feature","properties":{"id":6078086619,"kind":"poi","name":"Little Texas","place":"neighbourhood"},"geometry":{"type":"Point","coordinates":[-97.7719184,30.2005529]}},{"type":"Feature","properties":{"id":6078086620,"kind":"poi","name":"St. Elmo","place":"neighbourhood"},"geometry":{"type":"Point","coordinates":[-97.76694,30.2186355]}},{"type":"Feature","properties":{"id":6078086641,"kind":"poi","name":"East Sixth","place":"neighbourhood"},"geometry":{"type":"Point","coordinates":[-97.7277968,30.2636046]}},{"type":"Feature","properties":{"id":6078086643,"kind":"poi","name":"Auditorium Shores","place":"neighbourhood"},"geometry":{"type":"Point","coordinates":[-97.7500989,30.2602413]}},{"type":"Feature","properties":{"id":6078086646,"kind":"poi","name":"South River City","place":"neighbourhood"},"geometry":{"type":"Point","coordinates":[-97.7455576,30.2494427]}},{"type":"Feature","properties":{"id":6078086648,"kind":"poi","name":"Southpark","place":"neighbourhood"},"geometry":{"type":"Point","coordinates":[-97.7495651,30.2131857]}},{"type":"Feature","properties":{"id":6197264283,"kind":"poi","amenity":"clinic","name":"KIND Clinic"},"geometry":{"type":"Point","coordinates":[-97.742991,30.3082967]}},{"type":"Feature","properties":{"id":6340732417,"kind":"poi","access":"yes","amenity":"drinking_water"},"geometry":{"type":"Point","coordinates":[-97.7028751,30.2922466]}},{"type":"Feature","properties":{"id":6595101582,"kind":"poi","amenity":"pharmacy","name":"Walgreens"},"geometry":{"type":"Point","coordinates":[-97.732527,30.311108]}},{"type":"Feature","properties":{"id":6880277489,"kind":"poi","amenity":"pharmacy","name":"Walgreens"},"geometry":{"type":"Point","coordinates":[-97.707217,30.312584]}},{"type":"Feature","properties":{"id":6997957232,"kind":"poi","access":"yes","amenity":"drinking_water"},"geometry":{"type":"Point","coordinates":[-97.7025306,30.3000927]}},{"type":"Feature","properties":{"id":7072529153,"kind":"poi","amenity":"drinking_water"},"geometry":{"type":"Point","coordinates":[-97.7553603,30.2618248]}},{"type":"Feature","properties":{"id":7295814522,"kind":"poi","amenity":"animal_shelter","name":"Austin Pets Alive! Tarrytown Dog Adoption Center Play Yard & Gift Shop"},"geometry":{"type":"Point","coordinates":[-97.7679341,30.2967742]}},{"type":"Feature","properties":{"id":7295844535,"kind":"poi","amenity":"animal_shelter","name":"Austin Pets Alive! Town Lake Animal Center"},"geometry":{"type":"Point","coordinates":[-97.7597722,30.269672]}},{"type":"Feature","properties":{"id":7295844536,"kind":"poi","amenity":"animal_shelter","name":"Austin Pets Alive! Town Lake Animal Adoption Cetner"},"geometry":{"type":"Point","coordinates":[-97.759685,30.2698608]}},{"type":"Feature","properties":{"id":7390084540,"kind":"poi","name":"Blackland","place":"neighbourhood"},"geometry":{"type":"Point","coordinates":[-97.7209242,30.2814909]}},{"type":"Feature","properties":{"id":7390084541,"kind":"poi","name":"Country Club Gardens","place":"neighbourhood"},"geometry":{"type":"Point","coordinates":[-97.7027818,30.2326616]}},{"type":"Feature","properties":{"id":7390084542,"kind":"poi","name":"The Crossing","place":"neighbourhood"},"geometry":{"type":"Point","coordinates":[-97.7131083,30.2322769]}},{"type":"Feature","properties":{"id":7637044388,"kind":"poi","amenity":"doctors","name":"Anderson Health and Wellness Center"},"geometry":{"type":"Point","coordinates":[-97.7223808,30.2665272]}},{"type":"Feature","properties":{"id":7660944429,"kind":"poi","amenity":"shelter"},"geometry":{"type":"Point","coordinates":[-97.7750896,30.2782436]}},{"type":"Feature","properties":{"id":7841439087,"kind":"poi","access":"yes","amenity":"drinking_water"},"geometry":{"type":"Point","coordinates":[-97.6915588,30.2597953]}},{"type":"Feature","properties":{"id":7851171901,"kind":"poi","name":"The Grove","place":"neighbourhood"},"geometry":{"type":"Point","coordinates":[-97.7521236,30.316878]}},{"type":"Feature","properties":{"id":8083058097,"kind":"poi","access":"yes","amenity":"drinking_water"},"geometry":{"type":"Point","coordinates":[-97.7542545,30.2638331]}},{"type":"Feature","properties":{"id":8123074443,"kind":"poi","amenity":"shelter"},"geometry":{"type":"Point","coordinates":[-97.7320443,30.2483216]}},{"type":"Feature","properties":{"id":8123074444,"kind":"poi","amenity":"shelter"},"geometry":{"type":"Point","coordinates":[-97.7334113,30.2489551]}},{"type":"Feature","properties":{"id":8172061810,"kind":"poi","access":"yes","amenity":"drinking_water"},"geometry":{"type":"Point","coordinates":[-97.7525453,30.2668797]}},{"type":"Feature","properties":{"id":8242985259,"kind":"poi","access":"yes","amenity":"drinking_water"},"geometry":{"type":"Point","coordinates":[-97.7492283,30.2623299]}},{"type":"Feature","properties":{"id":8295238490,"kind":"poi","amenity":"fire_station","name":"Austin Fire Department Quint 1"},"geometry":{"type":"Point","coordinates":[-97.7581502,30.2714672]}},{"type":"Feature","properties":{"id":8295238491,"kind":"poi","amenity":"fire_station","name":"Austin Fire Department engine 13"},"geometry":{"type":"Point","coordinates":[-97.7581062,30.271513]}},{"type":"Feature","properties":{"id":8295238492,"kind":"poi","amenity":"fire_station","name":"Austin Fire Department Engine 1"},"geometry":{"type":"Point","coordinates":[-97.7581755,30.2714306]}},{"type":"Feature","properties":{"id":8316815140,"kind":"poi","name":"Santa Monica Park","place":"neighbourhood"},"geometry":{"type":"Point","coordinates":[-97.7364449,30.2199901]}},{"type":"Feature","properties":{"id":8316852436,"kind":"poi","name":"Placidena","place":"neighbourhood"},"geometry":{"type":"Point","coordinates":[-97.7692067,30.2242098]}},{"type":"Feature","properties":{"id":8317065567,"kind":"poi","name":"Elmhurst Heights","place":"neighbourhood"},"geometry":{"type":"Point","coordinates":[-97.7334055,30.2408987]}},{"type":"Feature","properties":{"id":8317065568,"kind":"poi","name":"Sherwood Oaks","place":"neighbourhood"},"geometry":{"type":"Point","coordinates":[-97.7506217,30.2338068]}},{"type":"Feature","properties":{"id":8332785550,"kind":"poi","name":"Aldridge Place","place":"neighbourhood"},"geometry":{"type":"Point","coordinates":[-97.7363947,30.2976505]}},{"type":"Feature","properties":{"id":8332785551,"kind":"poi","name":"College Court","place":"neighbourhood"},"geometry":{"type":"Point","coordinates":[-97.7334966,30.2912183]}},{"type":"Feature","properties":{"id":8332785552,"kind":"poi","name":"Eastwoods","place":"neighbourhood"},"geometry":{"type":"Point","coordinates":[-97.7288526,30.2903202]}},{"type":"Feature","properties":{"id":8332785553,"kind":"poi","name":"Gypsy Grove","place":"neighbourhood"},"geometry":{"type":"Point","coordinates":[-97.7414449,30.3000384]}},{"type":"Feature","properties":{"id":8332785554,"kind":"poi","name":"Heritage","place":"neighbourhood"},"geometry":{"type":"Point","coordinates":[-97.7422983,30.3026368]}},{"type":"Feature","properties":{"id":8332785555,"kind":"poi","name":"Grooms Addition","place":"neighbourhood"},"geometry":{"type":"Point","coordinates":[-97.7333093,30.2965343]}},{"type":"Feature","properties":{"id":8332785556,"kind":"poi","name":"Buddington","place":"neighbourhood"},"geometry":{"type":"Point","coordinates":[-97.7338757,30.2996168]}},{"type":"Feature","properties":{"id":8332785557,"kind":"poi","name":"Lakeview","place":"neighbourhood"},"geometry":{"type":"Point","coordinates":[-97.7378418,30.3013482]}},{"type":"Feature","properties":{"id":8332785558,"kind":"poi","name":"Harris Park","place":"neighbourhood"},"geometry":{"type":"Point","coordinates":[-97.7305426,30.292192]}},{"type":"Feature","properties":{"id":8363301513,"kind":"poi","amenity":"drinking_water"},"geometry":{"type":"Point","coordinates":[-97.7090063,30.2958542]}},{"type":"Feature","properties":{"id":8369341663,"kind":"poi","amenity":"clinic","name":"Four Points Dermatology"},"geometry":{"type":"Point","coordinates":[-97.6992003,30.3027245]}},{"type":"Feature","properties":{"id":8419556195,"kind":"poi","access":"yes","amenity":"drinking_water"},"geometry":{"type":"Point","coordinates":[-97.726977,30.2453728]}},{"type":"Feature","properties":{"id":8421607397,"kind":"poi","amenity":"clinic","name":"FastMed Urgent Care"},"geometry":{"type":"Point","coordinates":[-97.72858,30.242912]}},{"type":"Feature","properties":{"id":8476912416,"kind":"poi","access":"yes","amenity":"drinking_water","name":"Mixed Use Fields Drinking Fountain"},"geometry":{"type":"Point","coordinates":[-97.705475,30.2453246]}},{"type":"Feature","properties":{"id":8699207315,"kind":"poi","name":"Chevy Chase South","place":"neighbourhood"},"geometry":{"type":"Point","coordinates":[-97.7217457,30.2277974]}},{"type":"Feature","properties":{"id":8699207316,"kind":"poi","name":"Sunridge Park","place":"neighbourhood"},"geometry":{"type":"Point","coordinates":[-97.7266979,30.2200553]}},{"type":"Feature","properties":{"id":8699210417,"kind":"poi","name":"Sunnydale","place":"neighbourhood"},"geometry":{"type":"Point","coordinates":[-97.7326886,30.2438173]}},{"type":"Feature","properties":{"id":8842423077,"kind":"poi","amenity":"doctors","name":"Tassone Advanced Gynecology"},"geometry":{"type":"Point","coordinates":[-97.7072053,30.2992323]}},{"type":"Feature","properties":{"id":8846484580,"kind":"poi","amenity":"drinking_water"},"geometry":{"type":"Point","coordinates":[-97.7054205,30.2971042]}},{"type":"Feature","properties":{"id":8846566065,"kind":"poi","amenity":"drinking_water"},"geometry":{"type":"Point","coordinates":[-97.7041389,30.29666]}},{"type":"Feature","properties":{"id":8890968105,"kind":"poi","amenity":"drinking_water"},"geometry":{"type":"Point","coordinates":[-97.7046492,30.2897824]}},{"type":"Feature","properties":{"id":8936903708,"kind":"poi","access":"yes","amenity":"drinking_water"},"geometry":{"type":"Point","coordinates":[-97.6958776,30.2990132]}},{"type":"Feature","properties":{"id":8947076987,"kind":"poi","amenity":"pharmacy","name":"CVS Pharmacy"},"geometry":{"type":"Point","coordinates":[-97.7416015,30.2835484]}},{"type":"Feature","properties":{"id":8958545851,"kind":"poi","access":"yes","amenity":"drinking_water"},"geometry":{"type":"Point","coordinates":[-97.7531245,30.2664391]}},{"type":"Feature","properties":{"id":8960878057,"kind":"poi","access":"yes","amenity":"drinking_water"},"geometry":{"type":"Point","coordinates":[-97.7536474,30.2669794]}},{"type":"Feature","properties":{"id":8973414560,"kind":"poi","access":"yes","amenity":"drinking_water","name":"Drinking Fountain 4"},"geometry":{"type":"Point","coordinates":[-97.7559856,30.2644438]}},{"type":"Feature","properties":{"id":8974986946,"kind":"poi","amenity":"drinking_water"},"geometry":{"type":"Point","coordinates":[-97.7224926,30.2429968]}},{"type":"Feature","properties":{"id":8999352173,"kind":"poi","access":"yes","amenity":"drinking_water"},"geometry":{"type":"Point","coordinates":[-97.7475836,30.268175]}},{"type":"Feature","properties":{"id":8999365756,"kind":"poi","amenity":"drinking_water"},"geometry":{"type":"Point","coordinates":[-97.7514286,30.2658416]}},{"type":"Feature","properties":{"id":9004757918,"kind":"poi","amenity":"clinic","name":"Total Men's Primary Care"},"geometry":{"type":"Point","coordinates":[-97.7416678,30.270474]}},{"type":"Feature","properties":{"id":9007189961,"kind":"poi","amenity":"drinking_water"},"geometry":{"type":"Point","coordinates":[-97.7355864,30.2748057]}},{"type":"Feature","properties":{"id":9007189991,"kind":"poi","access":"yes","amenity":"drinking_water"},"geometry":{"type":"Point","coordinates":[-97.7362899,30.2732841]}},{"type":"Feature","properties":{"id":9007249239,"kind":"poi","amenity":"drinking_water"},"geometry":{"type":"Point","coordinates":[-97.7363145,30.2735522]}},{"type":"Feature","properties":{"id":9008890217,"kind":"poi","name":"Country Club Park","place":"neighbourhood"},"geometry":{"type":"Point","coordinates":[-97.7209778,30.2969975]}},{"type":"Feature","properties":{"id":9008890218,"kind":"poi","name":"Ideal Place","place":"neighbourhood"},"geometry":{"type":"Point","coordinates":[-97.7237269,30.3037265]}},{"type":"Feature","properties":{"id":9008890219,"kind":"poi","name":"College Court","place":"neighbourhood"},"geometry":{"type":"Point","coordinates":[-97.7334411,30.2914301]}},{"type":"Feature","properties":{"id":9008890220,"kind":"poi","name":"Alta Vista","place":"neighbourhood"},"geometry":{"type":"Point","coordinates":[-97.7415756,30.3104665]}},{"type":"Feature","properties":{"id":9008890221,"kind":"poi","name":"Military Heights","place":"neighbourhood"},"geometry":{"type":"Point","coordinates":[-97.7545822,30.3098038]}},{"type":"Feature","properties":{"id":9008890222,"kind":"poi","name":"Evergreen Heights","place":"neighbourhood"},"geometry":{"type":"Point","coordinates":[-97.7650307,30.2550189]}},{"type":"Feature","properties":{"id":9008890223,"kind":"poi","name":"Grandview Place","place":"neighbourhood"},"geometry":{"type":"Point","coordinates":[-97.7184584,30.2632783]}},{"type":"Feature","properties":{"id":9008890225,"kind":"poi","name":"Glenwood","place":"neighbourhood"},"geometry":{"type":"Point","coordinates":[-97.7140464,30.2769273]}},{"type":"Feature","properties":{"id":9008890226,"kind":"poi","name":"LaPrelle Place","place":"neighbourhood"},"geometry":{"type":"Point","coordinates":[-97.7541143,30.2410525]}},{"type":"Feature","properties":{"id":9032146616,"kind":"poi","amenity":"clinic","name":"Passport Health Austin Travel Clinic"},"geometry":{"type":"Point","coordinates":[-97.7398338,30.3029562]}},{"type":"Feature","properties":{"id":9095873767,"kind":"poi","amenity":"police","name":"St. Edward's Police Dpt."},"geometry":{"type":"Point","coordinates":[-97.7542933,30.232551]}},{"type":"Feature","properties":{"id":9176467987,"kind":"poi","amenity":"shelter"},"geometry":{"type":"Point","coordinates":[-97.7346715,30.2897859]}},{"type":"Feature","properties":{"id":9243834220,"kind":"poi","amenity":"doctors","name":"Wildflower OBGYN"},"geometry":{"type":"Point","coordinates":[-97.7286352,30.291438]}},{"type":"Feature","properties":{"id":9243942617,"kind":"poi","amenity":"clinic","name":"Prime Clinic"},"geometry":{"type":"Point","coordinates":[-97.7285584,30.2915385]}},{"type":"Feature","properties":{"id":9384100900,"kind":"poi","amenity":"pharmacy","name":"CVS Pharmacy"},"geometry":{"type":"Point","coordinates":[-97.7749533,30.2815094]}},{"type":"Feature","properties":{"id":9389372861,"kind":"poi","name":"University Park","place":"neighbourhood"},"geometry":{"type":"Point","coordinates":[-97.7229834,30.2918501]}},{"type":"Feature","properties":{"id":9459455697,"kind":"poi","access":"private","amenity":"drinking_water"},"geometry":{"type":"Point","coordinates":[-97.7729106,30.222112]}},{"type":"Feature","properties":{"id":9459455701,"kind":"poi","access":"yes","amenity":"drinking_water","name":"Mixed Use Field Drinking Fountain"},"geometry":{"type":"Point","coordinates":[-97.7752553,30.2518177]}},{"type":"Feature","properties":{"id":9459455702,"kind":"poi","access":"yes","amenity":"drinking_water","name":"Drinking Fountain 1"},"geometry":{"type":"Point","coordinates":[-97.7745947,30.2519293]}},{"type":"Feature","properties":{"id":9459455705,"kind":"poi","access":"private","amenity":"drinking_water","name":"Barton Springs South Drinking Fountain 2"},"geometry":{"type":"Point","coordinates":[-97.7701515,30.2629799]}},{"type":"Feature","properties":{"id":9459455706,"kind":"poi","access":"yes","amenity":"drinking_water","name":"Wright Baseball Field Drinking Fountain 1"},"geometry":{"type":"Point","coordinates":[-97.7670612,30.2630457]}},{"type":"Feature","properties":{"id":9459455707,"kind":"poi","access":"yes","amenity":"drinking_water","name":"Jones Memorial Drinking Fountain"},"geometry":{"type":"Point","coordinates":[-97.7663443,30.2641018]}},{"type":"Feature","properties":{"id":9459681569,"kind":"poi","access":"yes","amenity":"drinking_water"},"geometry":{"type":"Point","coordinates":[-97.7791727,30.2416997]}},{"type":"Feature","properties":{"id":9459681570,"kind":"poi","access":"yes","amenity":"drinking_water","name":"Playground Drinking Fountain"},"geometry":{"type":"Point","coordinates":[-97.7686267,30.2420105]}},{"type":"Feature","properties":{"id":9459681571,"kind":"poi","access":"yes","amenity":"drinking_water","name":"Drinking Fountain 2"},"geometry":{"type":"Point","coordinates":[-97.7599435,30.2403603]}},{"type":"Feature","properties":{"id":9459681572,"kind":"poi","access":"yes","amenity":"drinking_water"},"geometry":{"type":"Point","coordinates":[-97.7648517,30.2474973]}},{"type":"Feature","properties":{"id":9459681573,"kind":"poi","access":"private","amenity":"drinking_water","name":"Pool Drinking Fountain"},"geometry":{"type":"Point","coordinates":[-97.7470021,30.2400345]}},{"type":"Feature","properties":{"id":9459690248,"kind":"poi","access":"yes","amenity":"drinking_water","name":"Drinking Fountain 1"},"geometry":{"type":"Point","coordinates":[-97.7495346,30.2612584]}},{"type":"Feature","properties":{"id":9459690249,"kind":"poi","access":"private","amenity":"drinking_water","name":"Pool Drinking Fountain"},"geometry":{"type":"Point","coordinates":[-97.7418724,30.2199358]}},{"type":"Feature","properties":{"id":9459690250,"kind":"poi","access":"yes","amenity":"drinking_water","name":"Playground Drinking Fountain"},"geometry":{"type":"Point","coordinates":[-97.7413506,30.220189]}},{"type":"Feature","properties":{"id":9459690251,"kind":"poi","access":"yes","amenity":"drinking_water","name":"Mixed Use Field 2 Drinking Fountain"},"geometry":{"type":"Point","coordinates":[-97.7005067,30.2329237]}},{"type":"Feature","properties":{"id":9459690252,"kind":"poi","access":"private","amenity":"drinking_water","name":"Pool Drinking Fountain"},"geometry":{"type":"Point","coordinates":[-97.7003518,30.2319992]}},{"type":"Feature","properties":{"id":9459690253,"kind":"poi","access":"yes","amenity":"drinking_water"},"geometry":{"type":"Point","coordinates":[-97.6916475,30.2327114]}},{"type":"Feature","properties":{"id":9459690254,"kind":"poi","access":"yes","amenity":"drinking_water"},"geometry":{"type":"Point","coordinates":[-97.6909997,30.2323128]}},{"type":"Feature","properties":{"id":9459690255,"kind":"poi","access":"yes","amenity":"drinking_water"},"geometry":{"type":"Point","coordinates":[-97.6911229,30.2368274]}},{"type":"Feature","properties":{"id":9459690256,"kind":"poi","access":"yes","amenity":"drinking_water","name":"Krieg Fields Restroom 2 Drinking Fountain"},"geometry":{"type":"Point","coordinates":[-97.7124835,30.2477465]}},{"type":"Feature","properties":{"id":9459690257,"kind":"poi","access":"yes","amenity":"drinking_water","name":"Krieg Softball Field 7 Drinking Fountain"},"geometry":{"type":"Point","coordinates":[-97.712833,30.2491768]}},{"type":"Feature","properties":{"id":9459690258,"kind":"poi","access":"yes","amenity":"drinking_water","name":"Fiesta Field Drinking Fountain 1"},"geometry":{"type":"Point","coordinates":[-97.7027379,30.2449545]}},{"type":"Feature","properties":{"id":9459690259,"kind":"poi","access":"yes","amenity":"drinking_water","name":"Fiesta Field Drinking Fountain 2"},"geometry":{"type":"Point","coordinates":[-97.7022896,30.24466]}},{"type":"Feature","properties":{"id":9459690260,"kind":"poi","access":"yes","amenity":"drinking_water","name":"Triple R Field Drinking Fountain 2"},"geometry":{"type":"Point","coordinates":[-97.7017263,30.2438281]}},{"type":"Feature","properties":{"id":9459690261,"kind":"poi","access":"yes","amenity":"drinking_water","name":"Triple R Field Drinking Fountain 1"},"geometry":{"type":"Point","coordinates":[-97.7011738,30.2438919]}},{"type":"Feature","properties":{"id":9459690262,"kind":"poi","access":"yes","amenity":"drinking_water","name":"Dolores Field Drinking Fountain 1"},"geometry":{"type":"Point","coordinates":[-97.7018256,30.2437169]}},{"type":"Feature","properties":{"id":9459690263,"kind":"poi","access":"yes","amenity":"drinking_water","name":"Dolores Field Drinking Fountain 2"},"geometry":{"type":"Point","coordinates":[-97.7017491,30.243228]}},{"type":"Feature","properties":{"id":9459690264,"kind":"poi","access":"yes","amenity":"drinking_water","name":"Medrano Reyna Field Drinking Fountain 1"},"geometry":{"type":"Point","coordinates":[-97.701611,30.2431504]}},{"type":"Feature","properties":{"id":9459690265,"kind":"poi","access":"yes","amenity":"drinking_water","name":"Medrano Reyna Field Drinking Fountain 2"},"geometry":{"type":"Point","coordinates":[-97.7010746,30.2432222]}},{"type":"Feature","properties":{"id":9459690266,"kind":"poi","access":"yes","amenity":"drinking_water","name":"R & L Field Drinking Fountain 2"},"geometry":{"type":"Point","coordinates":[-97.7010303,30.2438096]}},{"type":"Feature","properties":{"id":9459690267,"kind":"poi","access":"yes","amenity":"drinking_water","name":"R & L Field Drinking Fountain 1"},"geometry":{"type":"Point","coordinates":[-97.7009726,30.2433288]}},{"type":"Feature","properties":{"id":9459690268,"kind":"poi","access":"yes","amenity":"drinking_water","name":"Montopolis Fields Concession Fountain 2"},"geometry":{"type":"Point","coordinates":[-97.7014809,30.2434945]}},{"type":"Feature","properties":{"id":9459690269,"kind":"poi","access":"yes","amenity":"drinking_water","name":"Montopolis Fields Concession Fountain 1"},"geometry":{"type":"Point","coordinates":[-97.7013897,30.2436092]}},{"type":"Feature","properties":{"id":9459690270,"kind":"poi","access":"yes","amenity":"drinking_water","name":"Montopolis Fields Concession Fountain 3"},"geometry":{"type":"Point","coordinates":[-97.7013522,30.2434759]}},{"type":"Feature","properties":{"id":9459690271,"kind":"poi","access":"yes","amenity":"drinking_water","name":"Playground Restroom Drinking Fountain"},"geometry":{"type":"Point","coordinates":[-97.6965037,30.2440963]}},{"type":"Feature","properties":{"id":9459690273,"kind":"poi","access":"yes","amenity":"drinking_water","name":"Tee 6 Drinking Fountain"},"geometry":{"type":"Point","coordinates":[-97.7755284,30.2893531]}},{"type":"Feature","properties":{"id":9459695423,"kind":"poi","access":"yes","amenity":"drinking_water","name":"Wally Drinking Fountain"},"geometry":{"type":"Point","coordinates":[-97.7437538,30.2470768]}},{"type":"Feature","properties":{"id":9459695424,"kind":"poi","access":"yes","amenity":"drinking_water","name":"Restroom Drinking Fountain"},"geometry":{"type":"Point","coordinates":[-97.7441734,30.2478803]}},{"type":"Feature","properties":{"id":9459695425,"kind":"poi","access":"yes","amenity":"drinking_water","name":"Playground Area Drinking Fountain"},"geometry":{"type":"Point","coordinates":[-97.7433748,30.2480812]}},{"type":"Feature","properties":{"id":9459695426,"kind":"poi","access":"private","amenity":"drinking_water","name":"Danny G. McBeth Drinking Fountain"},"geometry":{"type":"Point","coordinates":[-97.7785582,30.2654323]}},{"type":"Feature","properties":{"id":9459695427,"kind":"poi","access":"yes","amenity":"drinking_water","name":"Playscape Picnic Shelter Drinking Fountain"},"geometry":{"type":"Point","coordinates":[-97.7698278,30.2643156]}},{"type":"Feature","properties":{"id":9459695428,"kind":"poi","access":"yes","amenity":"drinking_water","name":"Pecan Grove Drinking Fountain"},"geometry":{"type":"Point","coordinates":[-97.7680438,30.264904]}},{"type":"Feature","properties":{"id":9459695429,"kind":"poi","access":"yes","amenity":"drinking_water","name":"Polo Picnic Area Drinking Fountain 2"},"geometry":{"type":"Point","coordinates":[-97.7739819,30.2671381]}},{"type":"Feature","properties":{"id":9459695430,"kind":"poi","access":"yes","amenity":"drinking_water","name":"Polo Picnic Area Drinking Fountain 1"},"geometry":{"type":"Point","coordinates":[-97.7746855,30.2667097]}},{"type":"Feature","properties":{"id":9459695431,"kind":"poi","access":"yes","amenity":"drinking_water","name":"Cedar Grove Picnic Area Drinking Fountain"},"geometry":{"type":"Point","coordinates":[-97.7661039,30.2661885]}},{"type":"Feature","properties":{"id":9459695432,"kind":"poi","access":"yes","amenity":"drinking_water","name":"Great Lawn Parking Lot 2 Drinking Fountain"},"geometry":{"type":"Point","coordinates":[-97.7652079,30.268035]}},{"type":"Feature","properties":{"id":9459695433,"kind":"poi","access":"yes","amenity":"drinking_water","name":"Great Lawn Drinking Fountain"},"geometry":{"type":"Point","coordinates":[-97.7683205,30.2678907]}},{"type":"Feature","properties":{"id":9459695434,"kind":"poi","access":"yes","amenity":"drinking_water","name":"Volleyball Parking Lot Drinking Fountain"},"geometry":{"type":"Point","coordinates":[-97.7681371,30.268915]}},{"type":"Feature","properties":{"id":9459695435,"kind":"poi","access":"yes","amenity":"drinking_water","name":"Restroom 1 Drinking Fountain"},"geometry":{"type":"Point","coordinates":[-97.7608317,30.2648866]}},{"type":"Feature","properties":{"id":9459695436,"kind":"poi","access":"yes","amenity":"drinking_water","name":"Softball Field 2 Drinking Fountain"},"geometry":{"type":"Point","coordinates":[-97.7598813,30.2646879]}},{"type":"Feature","properties":{"id":9459695437,"kind":"poi","access":"yes","amenity":"drinking_water"},"geometry":{"type":"Point","coordinates":[-97.7579939,30.265173]}},{"type":"Feature","properties":{"id":9459695438,"kind":"poi","access":"private","amenity":"drinking_water","name":"Pool Drinking Fountain"},"geometry":{"type":"Point","coordinates":[-97.773571,30.2765588]}},{"type":"Feature","properties":{"id":9459695439,"kind":"poi","access":"yes","amenity":"drinking_water"},"geometry":{"type":"Point","coordinates":[-97.7735314,30.2771423]}},{"type":"Feature","properties":{"id":9459695440,"kind":"poi","access":"yes","amenity":"drinking_water"},"geometry":{"type":"Point","coordinates":[-97.7714734,30.2752086]}},{"type":"Feature","properties":{"id":9459695441,"kind":"poi","access":"yes","amenity":"drinking_water"},"geometry":{"type":"Point","coordinates":[-97.7641392,30.2872906]}},{"type":"Feature","properties":{"id":9459695442,"kind":"poi","access":"yes","amenity":"drinking_water"},"geometry":{"type":"Point","coordinates":[-97.7641634,30.2819322]}},{"type":"Feature","properties":{"id":9459695443,"kind":"poi","access":"yes","amenity":"drinking_water"},"geometry":{"type":"Point","coordinates":[-97.7648202,30.2706672]}},{"type":"Feature","properties":{"id":9459695444,"kind":"poi","access":"yes","amenity":"drinking_water"},"geometry":{"type":"Point","coordinates":[-97.764418,30.2707446]}},{"type":"Feature","properties":{"id":9459695445,"kind":"poi","access":"yes","amenity":"drinking_water","name":"Sayers Drinking Fountain"},"geometry":{"type":"Point","coordinates":[-97.7618692,30.2698572]}},{"type":"Feature","properties":{"id":9459695446,"kind":"poi","access":"yes","amenity":"drinking_water","name":"Bishop Baseball Field Drinking Fountain"},"geometry":{"type":"Point","coordinates":[-97.761168,30.2699649]}},{"type":"Feature","properties":{"id":9459695447,"kind":"poi","access":"private","amenity":"drinking_water","name":"Bechtol Harper Baseball Field Drinking Fountain 1"},"geometry":{"type":"Point","coordinates":[-97.7581803,30.269078]}},{"type":"Feature","properties":{"id":9459695448,"kind":"poi","access":"private","amenity":"drinking_water","name":"Bechtol Harper Baseball Field Drinking Fountain 2"},"geometry":{"type":"Point","coordinates":[-97.7585608,30.2690325]}},{"type":"Feature","properties":{"id":9459695449,"kind":"poi","access":"yes","amenity":"drinking_water","name":"Drinking Fountain 1"},"geometry":{"type":"Point","coordinates":[-97.7655461,30.2701467]}},{"type":"Feature","properties":{"id":9459695450,"kind":"poi","access":"yes","amenity":"drinking_water"},"geometry":{"type":"Point","coordinates":[-97.753978,30.2609515]}},{"type":"Feature","properties":{"id":9459695451,"kind":"poi","access":"yes","amenity":"drinking_water","name":"Restroom Drinking Fountain"},"geometry":{"type":"Point","coordinates":[-97.7491467,30.2615855]}},{"type":"Feature","properties":{"id":9483974496,"kind":"poi","amenity":"doctors","name":"LabCorp"},"geometry":{"type":"Point","coordinates":[-97.7736625,30.224768]}},{"type":"Feature","properties":{"id":9666568224,"kind":"poi","amenity":"drinking_water"},"geometry":{"type":"Point","coordinates":[-97.7495714,30.2596055]}},{"type":"Feature","properties":{"id":9721757307,"kind":"poi","amenity":"clinic","name":"Austin Medical Partners"},"geometry":{"type":"Point","coordinates":[-97.7439555,30.3050898]}},{"type":"Feature","properties":{"id":9982062904,"kind":"poi","access":"yes","amenity":"drinking_water"},"geometry":{"type":"Point","coordinates":[-97.7315942,30.2904778]}},{"type":"Feature","properties":{"id":10281110980,"kind":"poi","access":"yes","amenity":"drinking_water"},"geometry":{"type":"Point","coordinates":[-97.7384243,30.2792566]}},{"type":"Feature","properties":{"id":10291934661,"kind":"poi","access":"yes","amenity":"drinking_water"},"geometry":{"type":"Point","coordinates":[-97.7392431,30.2780135]}},{"type":"Feature","properties":{"id":10580329449,"kind":"poi","amenity":"pharmacy","name":"H-E-B Pharmacy"},"geometry":{"type":"Point","coordinates":[-97.7760533,30.2830303]}},{"type":"Feature","properties":{"id":10584521673,"kind":"poi","amenity":"shelter"},"geometry":{"type":"Point","coordinates":[-97.7212877,30.2779849]}},{"type":"Feature","properties":{"id":10718339464,"kind":"poi","amenity":"doctors","name":"Whole Health Austin"},"geometry":{"type":"Point","coordinates":[-97.7013563,30.2987851]}},{"type":"Feature","properties":{"id":10761790096,"kind":"poi","amenity":"pharmacy","name":"CVS Pharmacy"},"geometry":{"type":"Point","coordinates":[-97.7053803,30.2861246]}},{"type":"Feature","properties":{"id":10761821276,"kind":"poi","amenity":"pharmacy","name":"Walgreens"},"geometry":{"type":"Point","coordinates":[-97.6987304,30.2728314]}},{"type":"Feature","properties":{"id":10793685019,"kind":"poi","amenity":"clinic","name":"Kind Clinic"},"geometry":{"type":"Point","coordinates":[-97.7449459,30.2293363]}},{"type":"Feature","properties":{"id":10837323004,"kind":"poi","access":"yes","amenity":"drinking_water"},"geometry":{"type":"Point","coordinates":[-97.6963633,30.2993441]}},{"type":"Feature","properties":{"id":10837361200,"kind":"poi","access":"yes","amenity":"drinking_water"},"geometry":{"type":"Point","coordinates":[-97.6900612,30.2941682]}},{"type":"Feature","properties":{"id":10898429320,"kind":"poi","amenity":"shelter"},"geometry":{"type":"Point","coordinates":[-97.7077514,30.2658805]}},{"type":"Feature","properties":{"id":10938593097,"kind":"poi","access":"yes","amenity":"drinking_water"},"geometry":{"type":"Point","coordinates":[-97.74125,30.2726192]}},{"type":"Feature","properties":{"id":11123509053,"kind":"poi","amenity":"drinking_water"},"geometry":{"type":"Point","coordinates":[-97.6913149,30.2583157]}},{"type":"Feature","properties":{"id":11225579486,"kind":"poi","amenity":"clinic","name":"UltraPersonal Healthcare"},"geometry":{"type":"Point","coordinates":[-97.7420762,30.3105503]}},{"type":"Feature","properties":{"id":11715236968,"kind":"poi","amenity":"clinic","name":"One Medical"},"geometry":{"type":"Point","coordinates":[-97.7047713,30.2988575]}},{"type":"Feature","properties":{"id":11728750468,"kind":"poi","amenity":"clinic","name":"Passport Health South Austin Travel Clinic"},"geometry":{"type":"Point","coordinates":[-97.7432697,30.2171818]}},{"type":"Feature","properties":{"id":11792869753,"kind":"poi","access":"yes","amenity":"drinking_water"},"geometry":{"type":"Point","coordinates":[-97.7265023,30.2672588]}},{"type":"Feature","properties":{"id":11848580005,"kind":"poi","access":"yes","amenity":"drinking_water"},"geometry":{"type":"Point","coordinates":[-97.7345454,30.2515766]}},{"type":"Feature","properties":{"id":12125638534,"kind":"poi","amenity":"pharmacy","name":"Lamar Plaza Drug Store"},"geometry":{"type":"Point","coordinates":[-97.7637827,30.2520686]}},{"type":"Feature","properties":{"id":12271786487,"kind":"poi","amenity":"drinking_water"},"geometry":{"type":"Point","coordinates":[-97.7142236,30.2676599]}},{"type":"Feature","properties":{"id":12398679831,"kind":"poi","amenity":"pharmacy","name":"H-E-B Pharmacy"},"geometry":{"type":"Point","coordinates":[-97.7549059,30.2391792]}},{"type":"Feature","properties":{"id":12426890889,"kind":"poi","access":"customers","amenity":"drinking_water"},"geometry":{"type":"Point","coordinates":[-97.6638147,30.2023734]}},{"type":"Feature","properties":{"id":12428324838,"kind":"poi","access":"permissive","amenity":"drinking_water"},"geometry":{"type":"Point","coordinates":[-97.6938413,30.2961626]}},{"type":"Feature","properties":{"id":12505364804,"kind":"poi","amenity":"pharmacy","name":"CVS Pharmacy"},"geometry":{"type":"Point","coordinates":[-97.7436121,30.2674506]}},{"type":"Feature","properties":{"id":12524369872,"kind":"poi","access":"yes","amenity":"drinking_water"},"geometry":{"type":"Point","coordinates":[-97.7280496,30.2606676]}},{"type":"Feature","properties":{"id":12588072821,"kind":"poi","amenity":"drinking_water"},"geometry":{"type":"Point","coordinates":[-97.7715083,30.2688231]}},{"type":"Feature","properties":{"id":12588078076,"kind":"poi","amenity":"drinking_water"},"geometry":{"type":"Point","coordinates":[-97.772529,30.2691086]}},{"type":"Feature","properties":{"id":12588088126,"kind":"poi","amenity":"drinking_water"},"geometry":{"type":"Point","coordinates":[-97.7715026,30.2688138]}},{"type":"Feature","properties":{"id":12594066055,"kind":"poi","amenity":"drinking_water"},"geometry":{"type":"Point","coordinates":[-97.6676665,30.2023718]}},{"type":"Feature","properties":{"id":12705914856,"kind":"poi","amenity":"clinic","name":"Texas Sleep Medicine"},"geometry":{"type":"Point","coordinates":[-97.7789495,30.2271053]}},{"type":"Feature","properties":{"id":12719171370,"kind":"poi","access":"yes","amenity":"drinking_water"},"geometry":{"type":"Point","coordinates":[-97.7272597,30.2618826]}},{"type":"Feature","properties":{"id":12724353179,"kind":"poi","amenity":"drinking_water"},"geometry":{"type":"Point","coordinates":[-97.7570811,30.2695385]}},{"type":"Feature","properties":{"id":12815244670,"kind":"poi","amenity":"clinic","name":"TonicMD Beauty & Medspa"},"geometry":{"type":"Point","coordinates":[-97.7269242,30.2619275]}},{"type":"Feature","properties":{"id":12828820827,"kind":"poi","amenity":"doctors","name":"After Hours Kids"},"geometry":{"type":"Point","coordinates":[-97.7498424,30.3091689]}},{"type":"Feature","properties":{"id":12828820828,"kind":"poi","amenity":"doctors","name":"SportsSafe: Concussion. Brain. Body."},"geometry":{"type":"Point","coordinates":[-97.7498347,30.3091803]}},{"type":"Feature","properties":{"id":12852195955,"kind":"poi","amenity":"drinking_water"},"geometry":{"type":"Point","coordinates":[-97.7523941,30.281707]}},{"type":"Feature","properties":{"id":12869879808,"kind":"poi","name":"Glen Ridge","place":"neighbourhood"},"geometry":{"type":"Point","coordinates":[-97.7473896,30.3055347]}},{"type":"Feature","properties":{"id":13811871983,"kind":"poi","amenity":"drinking_water"},"geometry":{"type":"Point","coordinates":[-97.7597439,30.297065]}},{"type":"Feature","properties":{"id":13811890488,"kind":"poi","amenity":"drinking_water"},"geometry":{"type":"Point","coordinates":[-97.74315,30.3131461]}},{"type":"Feature","properties":{"id":13811895367,"kind":"poi","amenity":"drinking_water"},"geometry":{"type":"Point","coordinates":[-97.7474402,30.3024084]}},{"type":"Feature","properties":{"id":13811904676,"kind":"poi","amenity":"drinking_water"},"geometry":{"type":"Point","coordinates":[-97.7713831,30.3051821]}},{"type":"Feature","properties":{"id":13811909443,"kind":"poi","amenity":"drinking_water"},"geometry":{"type":"Point","coordinates":[-97.7498713,30.3035038]}},{"type":"Feature","properties":{"id":13832183781,"kind":"poi","access":"yes","amenity":"drinking_water"},"geometry":{"type":"Point","coordinates":[-97.7408193,30.259546]}},{"type":"Feature","properties":{"id":13832213109,"kind":"poi","access":"yes","amenity":"drinking_water"},"geometry":{"type":"Point","coordinates":[-97.7406904,30.2582785]}},{"type":"Feature","properties":{"id":13841114237,"kind":"poi","access":"yes","amenity":"drinking_water"},"geometry":{"type":"Point","coordinates":[-97.7241911,30.2477264]}},{"type":"Feature","properties":{"id":13841239563,"kind":"poi","access":"yes","amenity":"drinking_water"},"geometry":{"type":"Point","coordinates":[-97.7353583,30.2727203]}},{"type":"Feature","properties":{"id":13841808680,"kind":"poi","amenity":"drinking_water"},"geometry":{"type":"Point","coordinates":[-97.7412926,30.2607239]}},{"type":"Feature","properties":{"id":13848036078,"kind":"poi","access":"yes","amenity":"drinking_water"},"geometry":{"type":"Point","coordinates":[-97.746135,30.2637198]}},{"type":"Feature","properties":{"id":13867227849,"kind":"poi","access":"yes","amenity":"drinking_water"},"geometry":{"type":"Point","coordinates":[-97.7516463,30.2740844]}},{"type":"Feature","properties":{"id":13918575378,"kind":"poi","access":"yes","amenity":"drinking_water"},"geometry":{"type":"Point","coordinates":[-97.7400859,30.2605082]}},{"type":"Feature","properties":{"id":14069345224,"kind":"poi","amenity":"animal_shelter","name":"Austin Pets Alive! Tarrytown Cattery"},"geometry":{"type":"Point","coordinates":[-97.767588,30.2964839]}},{"type":"Feature","properties":{"id":14077899001,"kind":"poi","amenity":"clinic","name":"West End Chiropractic"},"geometry":{"type":"Point","coordinates":[-97.7645469,30.2744141]}},{"type":"Feature","properties":{"id":14141225225,"kind":"poi","amenity":"drinking_water"},"geometry":{"type":"Point","coordinates":[-97.7391121,30.2785688]}},{"type":"Feature","properties":{"id":14156566393,"kind":"poi","amenity":"drinking_water"},"geometry":{"type":"Point","coordinates":[-97.7367354,30.2847604]}},{"type":"Feature","properties":{"id":3806859621,"kind":"poi","ele":"144","name":"Hergotz Hill","natural":"peak"},"geometry":{"type":"Point","coordinates":[-97.654089,30.2349909]}},{"type":"Feature","properties":{"id":4603047063,"kind":"poi","name":"Dunlap","place":"hamlet"},"geometry":{"type":"Point","coordinates":[-97.5610435,30.2488367]}},{"type":"Feature","properties":{"id":4603048251,"kind":"poi","name":"Hornsby Bend","place":"village"},"geometry":{"type":"Point","coordinates":[-97.5828523,30.2472971]}},{"type":"Feature","properties":{"id":4603894150,"kind":"poi","name":"Trinity Hill","place":"hamlet"},"geometry":{"type":"Point","coordinates":[-97.566958,30.267498]}},{"type":"Feature","properties":{"id":5635569562,"kind":"poi","name":"Meadows at Trinity Crossing","place":"neighbourhood"},"geometry":{"type":"Point","coordinates":[-97.6449044,30.2893136]}},{"type":"Feature","properties":{"id":5635569563,"kind":"poi","name":"Park Place","place":"neighbourhood"},"geometry":{"type":"Point","coordinates":[-97.6445095,30.2969592]}},{"type":"Feature","properties":{"id":5635569564,"kind":"poi","name":"Imperial Valley","place":"neighbourhood"},"geometry":{"type":"Point","coordinates":[-97.6204593,30.2752672]}},{"type":"Feature","properties":{"id":5635569565,"kind":"poi","name":"The Woodlands","place":"neighbourhood"},"geometry":{"type":"Point","coordinates":[-97.630823,30.2786846]}},{"type":"Feature","properties":{"id":5635915206,"kind":"poi","name":"Colony Park","place":"neighbourhood"},"geometry":{"type":"Point","coordinates":[-97.6438365,30.3012364]}},{"type":"Feature","properties":{"id":5635916481,"kind":"poi","name":"North Point","place":"neighbourhood"},"geometry":{"type":"Point","coordinates":[-97.6401014,30.3092619]}},{"type":"Feature","properties":{"id":5636015016,"kind":"poi","name":"Loma Vista","place":"neighbourhood"},"geometry":{"type":"Point","coordinates":[-97.6391756,30.28891]}},{"type":"Feature","properties":{"id":5636023723,"kind":"poi","name":"Pecan Park","place":"neighbourhood"},"geometry":{"type":"Point","coordinates":[-97.6511007,30.2925441]}},{"type":"Feature","properties":{"id":5645878947,"kind":"poi","name":"Decker Lake Estates","place":"neighbourhood"},"geometry":{"type":"Point","coordinates":[-97.5752952,30.2754133]}},{"type":"Feature","properties":{"id":5664041528,"kind":"poi","name":"Chaparral Crossing","place":"neighbourhood"},"geometry":{"type":"Point","coordinates":[-97.5728972,30.2383847]}},{"type":"Feature","properties":{"id":5664327666,"kind":"poi","name":"Garden Valley Village","place":"neighbourhood"},"geometry":{"type":"Point","coordinates":[-97.6300098,30.223589]}},{"type":"Feature","properties":{"id":5664554289,"kind":"poi","name":"Northridge Park","place":"neighbourhood"},"geometry":{"type":"Point","coordinates":[-97.6539104,30.3156639]}},{"type":"Feature","properties":{"id":5664554290,"kind":"poi","name":"Las Cimas","place":"neighbourhood"},"geometry":{"type":"Point","coordinates":[-97.6527152,30.3108276]}},{"type":"Feature","properties":{"id":11289898434,"kind":"poi","access":"yes","amenity":"drinking_water"},"geometry":{"type":"Point","coordinates":[-97.6385029,30.3125951]}},{"type":"Feature","properties":{"id":11552596564,"kind":"poi","name":"Twin Creek Meadows","place":"neighbourhood"},"geometry":{"type":"Point","coordinates":[-97.5546443,30.2468559]}},{"type":"Feature","properties":{"id":13095359532,"kind":"poi","access":"yes","amenity":"drinking_water"},"geometry":{"type":"Point","coordinates":[-97.6525278,30.3035458]}},{"type":"Feature","properties":{"id":13095359533,"kind":"poi","access":"yes","amenity":"drinking_water"},"geometry":{"type":"Point","coordinates":[-97.6381897,30.2987322]}},{"type":"Feature","properties":{"id":151844641,"kind":"poi","ele":"125","name":"Webberville","place":"village"},"geometry":{"type":"Point","coordinates":[-97.5166653,30.231045]}},{"type":"Feature","properties":{"id":5635992282,"kind":"poi","name":"Lockwood Acres","place":"neighbourhood"},"geometry":{"type":"Point","coordinates":[-97.522934,30.2990207]}},{"type":"Feature","properties":{"id":5635992283,"kind":"poi","name":"The Post Oak","place":"neighbourhood"},"geometry":{"type":"Point","coordinates":[-97.5139511,30.3021584]}},{"type":"Feature","properties":{"id":5635992284,"kind":"poi","name":"Hidden Lake Estates","place":"neighbourhood"},"geometry":{"type":"Point","coordinates":[-97.5209989,30.3087921]}},{"type":"Feature","properties":{"id":5635992285,"kind":"poi","name":"Oak Creek Estates","place":"neighbourhood"},"geometry":{"type":"Point","coordinates":[-97.5197431,30.284739]}},{"type":"Feature","properties":{"id":5635992286,"kind":"poi","name":"Kingsbery Park","place":"neighbourhood"},"geometry":{"type":"Point","coordinates":[-97.4987047,30.2831884]}},{"type":"Feature","properties":{"id":5635992287,"kind":"poi","name":"Estates at Wilbarger Creek","place":"neighbourhood"},"geometry":{"type":"Point","coordinates":[-97.4633594,30.2727757]}},{"type":"Feature","properties":{"id":5635992288,"kind":"poi","name":"Lockwood Farms","place":"neighbourhood"},"geometry":{"type":"Point","coordinates":[-97.4990165,30.3037196]}},{"type":"Feature","properties":{"id":5635992289,"kind":"poi","name":"Parsons Meadows","place":"neighbourhood"},"geometry":{"type":"Point","coordinates":[-97.5180535,30.317908]}},{"type":"Feature","properties":{"id":6365214663,"kind":"poi","name":"McDuff","place":"hamlet"},"geometry":{"type":"Point","coordinates":[-97.4458771,30.2119017]}},{"type":"Feature","properties":{"id":151348814,"kind":"poi","ele":"150","name":"Swiftex","place":"hamlet"},"geometry":{"type":"Point","coordinates":[-97.3136039,30.2063249]}},{"type":"Feature","properties":{"id":151412748,"kind":"poi","ele":"126","name":"Sayersville","place":"hamlet"},"geometry":{"type":"Point","coordinates":[-97.3272156,30.2318796]}},{"type":"Feature","properties":{"id":4616591043,"kind":"poi","name":"Cedar Hills","place":"hamlet"},"geometry":{"type":"Point","coordinates":[-97.343891,30.284767]}},{"type":"Feature","properties":{"id":4616883292,"kind":"poi","name":"Youngs Prairie","place":"hamlet"},"geometry":{"type":"Point","coordinates":[-97.398885,30.290579]}},{"type":"Feature","properties":{"id":6336446128,"kind":"poi","name":"Perryville","place":"hamlet"},"geometry":{"type":"Point","coordinates":[-97.3864472,30.3054847]}},{"type":"Feature","properties":{"id":6365163564,"kind":"poi","name":"Calvin","place":"hamlet"},"geometry":{"type":"Point","coordinates":[-97.3272744,30.2074431]}},{"type":"Feature","properties":{"id":151777668,"kind":"poi","ele":"168","name":"McDade","place":"village"},"geometry":{"type":"Point","coordinates":[-97.240054,30.2864972]}},{"type":"Feature","properties":{"id":6336421392,"kind":"poi","name":"Oak Hill","place":"hamlet"},"geometry":{"type":"Point","coordinates":[-97.273616,30.2319588]}},{"type":"Feature","properties":{"id":6365121806,"kind":"poi","name":"Wayside","place":"hamlet"},"geometry":{"type":"Point","coordinates":[-97.2765077,30.296598]}},{"type":"Feature","properties":{"id":6365181259,"kind":"poi","name":"Mowatt","place":"hamlet"},"geometry":{"type":"Point","coordinates":[-97.2851912,30.3098698]}}],"attribution":"© OpenStreetMap contributors"}
