{"type":"FeatureCollection","features":[{"type":"Feature","properties":{"ele":"229","name":"Shady Hollow","place":"neighbourhood"},"geometry":{"type":"Point","coordinates":[-97.862393,30.164944]}},{"type":"Feature","properties":{"ele":"222","name":"Hays","place":"village"},"geometry":{"type":"Point","coordinates":[-97.872228,30.122712]}},{"type":"Feature","properties":{"ele":"214","name":"Manchaca","place":"village"},"geometry":{"type":"Point","coordinates":[-97.833055,30.140769]}},{"type":"Feature","properties":{"ele":"214","name":"Buda","place":"town"},"geometry":{"type":"Point","coordinates":[-97.841714,30.082475]}},{"type":"Feature","properties":{"ele":"233","name":"Barton Hill","natural":"peak"},"geometry":{"type":"Point","coordinates":[-97.882228,30.065769]}},{"type":"Feature","properties":{"ele":"269","name":"Carpenter Hills","natural":"peak"},"geometry":{"type":"Point","coordinates":[-97.891117,30.094101]}},{"type":"Feature","properties":{"amenity":"fire_station","name":"Manchaca Volunteer Fire Department"},"geometry":{"type":"Point","coordinates":[-97.838075,30.140993]}},{"type":"Feature","properties":{"ele":"228","name":"Antioch Colony","place":"hamlet"},"geometry":{"type":"Point","coordinates":[-97.853991,30.085667]}},{"type":"Feature","properties":{"name":"Elm Grove","place":"hamlet"},"geometry":{"type":"Point","coordinates":[-97.874617,30.100468]}},{"type":"Feature","properties":{"emergency":"assembly_point","name":"Rally Point 6"},"geometry":{"type":"Point","coordinates":[-97.906941,30.085294]}},{"type":"Feature","properties":{"emergency":"assembly_point","name":"Rally Point 5"},"geometry":{"type":"Point","coordinates":[-97.903687,30.085201]}},{"type":"Feature","properties":{"emergency":"assembly_point","name":"Rally Point 3"},"geometry":{"type":"Point","coordinates":[-97.898702,30.086699]}},{"type":"Feature","properties":{"emergency":"assembly_point","name":"Rally Point 4"},"geometry":{"type":"Point","coordinates":[-97.898696,30.083021]}},{"type":"Feature","properties":{"emergency":"assembly_point","name":"Rally Point 1"},"geometry":{"type":"Point","coordinates":[-97.90588,30.087827]}},{"type":"Feature","properties":{"emergency":"assembly_point","name":"Rally Point 2"},"geometry":{"type":"Point","coordinates":[-97.899489,30.089841]}},{"type":"Feature","properties":{"highway":"residential","name":"Hidatsa Street"},"geometry":{"type":"LineString","coordinates":[[-97.838864,30.083075],[-97.836197,30.083825]]}},{"type":"Feature","properties":{"access":"customers","highway":"track"},"geometry":{"type":"LineString","coordinates":[[-97.905049,30.158756],[-97.905041,30.159124],[-97.905255,30.159435],[-97.90553,30.159719],[-97.906166,30.160454],[-97.90663,30.160851],[-97.906676,30.161353],[-97.907049,30.161847],[-97.907579,30.161967],[-97.907818,30.162301],[-97.907923,30.162705],[-97.907606,30.163072],[-97.906806,30.163536],[-97.906677,30.163889],[-97.906745,30.164075],[-97.907274,30.163989],[-97.907916,30.163857]]}},{"type":"Feature","properties":{"highway":"track"},"geometry":{"type":"LineString","coordinates":[[-97.907916,30.163857],[-97.908689,30.16347],[-97.910297,30.162954],[-97.912018,30.162084],[-97.913434,30.161262],[-97.914367,30.160601],[-97.914785,30.160344],[-97.915058,30.160344]]}},{"type":"Feature","properties":{"access":"private","highway":"service"},"geometry":{"type":"LineString","coordinates":[[-97.881423,30.096337],[-97.881412,30.096108],[-97.881377,30.095993],[-97.881383,30.095479],[-97.881369,30.095208],[-97.881418,30.094959],[-97.881464,30.094852]]}},{"type":"Feature","properties":{"highway":"track"},"geometry":{"type":"LineString","coordinates":[[-97.838657,30.095208],[-97.838496,30.09519],[-97.838286,30.095192],[-97.837718,30.095449],[-97.837441,30.095514],[-97.836518,30.095341],[-97.835919,30.095246],[-97.835335,30.095343],[-97.835182,30.095391],[-97.835077,30.095661],[-97.835003,30.096025],[-97.834936,30.096066],[-97.834629,30.096132],[-97.83411,30.09618],[-97.833738,30.096149]]}},{"type":"Feature","properties":{"access":"private","highway":"service"},"geometry":{"type":"LineString","coordinates":[[-97.91614,30.080753],[-97.91685,30.080516]]}},{"type":"Feature","properties":{"access":"private","highway":"service"},"geometry":{"type":"LineString","coordinates":[[-97.887771,30.090506],[-97.889433,30.090508]]}},{"type":"Feature","properties":{"access":"private","highway":"service"},"geometry":{"type":"LineString","coordinates":[[-97.881779,30.092522],[-97.881772,30.092414],[-97.881536,30.092069],[-97.88149,30.091991],[-97.881486,30.091948],[-97.881497,30.091868],[-97.881545,30.091788],[-97.881708,30.091701],[-97.881778,30.091703],[-97.881828,30.091741],[-97.881848,30.091775],[-97.881855,30.091842],[-97.881772,30.092414]]}},{"type":"Feature","properties":{"access":"private","highway":"service"},"geometry":{"type":"LineString","coordinates":[[-97.878793,30.09002],[-97.879713,30.089966]]}},{"type":"Feature","properties":{"access":"private","highway":"service"},"geometry":{"type":"LineString","coordinates":[[-97.856628,30.072052],[-97.856839,30.072191],[-97.856868,30.072265],[-97.856858,30.072306],[-97.856819,30.072354],[-97.856534,30.072552],[-97.856504,30.0726],[-97.856495,30.072925],[-97.856432,30.073245],[-97.856305,30.073479],[-97.856152,30.073663]]}},{"type":"Feature","properties":{"highway":"service"},"geometry":{"type":"LineString","coordinates":[[-97.930284,30.096445],[-97.930875,30.096251],[-97.932058,30.095897],[-97.933832,30.095253],[-97.934495,30.095063],[-97.936769,30.094291],[-97.937101,30.094131],[-97.937762,30.093681],[-97.938009,30.093571],[-97.938564,30.0934],[-97.9387,30.093296],[-97.938759,30.093207],[-97.938808,30.093083],[-97.938828,30.092972],[-97.938816,30.092208],[-97.938894,30.091643],[-97.938911,30.091383],[-97.938965,30.091257],[-97.93905,30.091164],[-97.939318,30.090935],[-97.939478,30.09076],[-97.939693,30.090475],[-97.939775,30.090321],[-97.939826,30.090143],[-97.939815,30.089765],[-97.939847,30.089235],[-97.93982,30.088918],[-97.939726,30.088669],[-97.93953,30.088323],[-97.939504,30.088224],[-97.939521,30.08807],[-97.939764,30.086924],[-97.939843,30.086633],[-97.939925,30.086444],[-97.940098,30.086142],[-97.940321,30.085788],[-97.940937,30.084913],[-97.941053,30.084689],[-97.941607,30.083327],[-97.941779,30.082382],[-97.941849,30.082153],[-97.941937,30.082001],[-97.942231,30.08162],[-97.942339,30.081439],[-97.942429,30.081241],[-97.94258,30.080783],[-97.94266,30.080634],[-97.943112,30.080088],[-97.943222,30.079916],[-97.943451,30.079489],[-97.944029,30.07873],[-97.944159,30.078479],[-97.944228,30.078283],[-97.944239,30.078089],[-97.944183,30.077912],[-97.943414,30.077141],[-97.943294,30.076999],[-97.943255,30.076889],[-97.943259,30.076702],[-97.943299,30.076498],[-97.943544,30.076052],[-97.944444,30.073227],[-97.944608,30.072368],[-97.944702,30.072165],[-97.94501,30.071693],[-97.945676,30.070964],[-97.947239,30.069598],[-97.947094,30.069025],[-97.946785,30.068494],[-97.946652,30.068164],[-97.946584,30.066396],[-97.946557,30.066253],[-97.946455,30.066006],[-97.94632,30.065756],[-97.946143,30.065335],[-97.945931,30.064459],[-97.945951,30.064076],[-97.946137,30.063295]]}},{"type":"Feature","properties":{"highway":"residential"},"geometry":{"type":"LineString","coordinates":[[-97.857302,30.057713],[-97.856866,30.058425],[-97.856794,30.058603],[-97.856774,30.058765],[-97.856785,30.059584],[-97.856812,30.05969],[-97.85688,30.059756],[-97.857031,30.059831]]}},{"type":"Feature","properties":{"highway":"service"},"geometry":{"type":"LineString","coordinates":[[-97.83054,30.077154],[-97.830607,30.078281],[-97.830653,30.078768],[-97.830941,30.078791],[-97.830974,30.078823],[-97.830994,30.078884]]}},{"type":"Feature","properties":{"access":"private","highway":"service"},"geometry":{"type":"LineString","coordinates":[[-97.880182,30.096351],[-97.880165,30.095644],[-97.880309,30.095352],[-97.880775,30.094792],[-97.880955,30.094547]]}},{"type":"Feature","properties":{"access":"private","highway":"service"},"geometry":{"type":"LineString","coordinates":[[-97.855969,30.073908],[-97.855869,30.074054],[-97.855741,30.074157],[-97.855506,30.074451],[-97.855263,30.074857],[-97.854563,30.075842]]}},{"type":"Feature","properties":{"access":"private","highway":"service"},"geometry":{"type":"LineString","coordinates":[[-97.844529,30.084244],[-97.845187,30.084418]]}},{"type":"Feature","properties":{"access":"private","highway":"service"},"geometry":{"type":"LineString","coordinates":[[-97.870909,30.085561],[-97.870939,30.084352],[-97.871297,30.08395],[-97.871331,30.083608]]}},{"type":"Feature","properties":{"access":"private","highway":"service"},"geometry":{"type":"LineString","coordinates":[[-97.833252,30.052826],[-97.833289,30.052802],[-97.83346,30.052799]]}},{"type":"Feature","properties":{"access":"private","highway":"service"},"geometry":{"type":"LineString","coordinates":[[-97.887751,30.089491],[-97.888475,30.089466],[-97.888646,30.089483],[-97.88931,30.089466]]}},{"type":"Feature","properties":{"highway":"residential","name":"Summer Night Cove","surface":"asphalt"},"geometry":{"type":"LineString","coordinates":[[-97.8652,30.086529],[-97.865124,30.086603],[-97.864988,30.086638],[-97.863559,30.086653]]}},{"type":"Feature","properties":{"access":"private","highway":"track"},"geometry":{"type":"LineString","coordinates":[[-97.890049,30.148139],[-97.890177,30.148519],[-97.890166,30.148614],[-97.889933,30.148979],[-97.889876,30.149264],[-97.889342,30.150117],[-97.889287,30.150304],[-97.889389,30.151324],[-97.889182,30.152052],[-97.889054,30.152293],[-97.888984,30.152369],[-97.888778,30.152509],[-97.888586,30.152757],[-97.887904,30.153411],[-97.887799,30.153549],[-97.887732,30.153686],[-97.887579,30.154486],[-97.887635,30.155305],[-97.88759,30.156481],[-97.887936,30.15678],[-97.888032,30.157163],[-97.887862,30.157491],[-97.887522,30.15807],[-97.887525,30.158199],[-97.887611,30.158426],[-97.887622,30.15889],[-97.887579,30.159011],[-97.887332,30.159373]]}},{"type":"Feature","properties":{"highway":"residential","oneway":"yes"},"geometry":{"type":"LineString","coordinates":[[-97.831923,30.08496],[-97.83207,30.084567],[-97.83211,30.084334]]}},{"type":"Feature","properties":{"highway":"residential","name":"Nighthawk Lane"},"geometry":{"type":"LineString","coordinates":[[-97.832437,30.087212],[-97.832688,30.088011]]}},{"type":"Feature","properties":{"highway":"residential","name":"Aster Cove"},"geometry":{"type":"LineString","coordinates":[[-97.855101,30.104623],[-97.857205,30.104597]]}},{"type":"Feature","properties":{"highway":"residential","name":"El Secreto Street"},"geometry":{"type":"LineString","coordinates":[[-97.839504,30.072742],[-97.839504,30.073565]]}},{"type":"Feature","properties":{"highway":"residential","name":"Phoebe Circle"},"geometry":{"type":"LineString","coordinates":[[-97.869402,30.104021],[-97.869848,30.104014]]}},{"type":"Feature","properties":{"highway":"residential","name":"Saguaro Drive"},"geometry":{"type":"LineString","coordinates":[[-97.855045,30.102802],[-97.85532,30.102708],[-97.855754,30.102668],[-97.856405,30.102663],[-97.856851,30.102688],[-97.857029,30.102778],[-97.857154,30.102969],[-97.857149,30.103433],[-97.857172,30.103623]]}},{"type":"Feature","properties":{"highway":"residential","name":"Echo Cove"},"geometry":{"type":"LineString","coordinates":[[-97.861562,30.122835],[-97.861792,30.123071],[-97.861901,30.123157]]}},{"type":"Feature","properties":{"highway":"residential","name":"Sosebee Parkway"},"geometry":{"type":"LineString","coordinates":[[-97.872832,30.085502],[-97.872812,30.0853],[-97.872804,30.084628],[-97.872773,30.084309],[-97.872768,30.083644],[-97.872726,30.083285]]}},{"type":"Feature","properties":{"highway":"residential","name":"Bermuda Lane"},"geometry":{"type":"LineString","coordinates":[[-97.857217,30.105623],[-97.857264,30.105846],[-97.857269,30.106278],[-97.857247,30.106564]]}},{"type":"Feature","properties":{"highway":"residential","name":"Robin Road"},"geometry":{"type":"LineString","coordinates":[[-97.884783,30.138947],[-97.892909,30.138897]]}},{"type":"Feature","properties":{"access":"private","highway":"service","name":"Dahlstrom"},"geometry":{"type":"LineString","coordinates":[[-97.891625,30.109518],[-97.891572,30.108402],[-97.891527,30.106801],[-97.891397,30.104078],[-97.891402,30.103757],[-97.891287,30.103648],[-97.891102,30.103539],[-97.890839,30.10347],[-97.890206,30.103254],[-97.889884,30.103111],[-97.889739,30.102996],[-97.889662,30.10281],[-97.889656,30.101654],[-97.889669,30.1012]]}},{"type":"Feature","properties":{"highway":"tertiary","name":"Old Black Colony Road","ref":"CR 147"},"geometry":{"type":"LineString","coordinates":[[-97.848916,30.086855],[-97.85023,30.086251],[-97.851735,30.085977],[-97.852355,30.085803],[-97.852639,30.08575],[-97.853773,30.085655],[-97.856194,30.08537],[-97.85753,30.085164],[-97.857823,30.085156],[-97.857907,30.085195],[-97.857975,30.085334],[-97.857975,30.0856],[-97.858025,30.085699],[-97.858201,30.085766],[-97.86036,30.085705],[-97.865447,30.08569],[-97.866136,30.085652],[-97.870604,30.08557],[-97.872832,30.085502],[-97.874756,30.085473]]}},{"type":"Feature","properties":{"highway":"residential","name":"Haven Lane"},"geometry":{"type":"LineString","coordinates":[[-97.83099,30.082503],[-97.830585,30.082503]]}},{"type":"Feature","properties":{"highway":"residential","name":"Whitney Run"},"geometry":{"type":"LineString","coordinates":[[-97.903308,30.118516],[-97.902971,30.118225],[-97.902811,30.118015],[-97.9027,30.117798],[-97.902482,30.117068],[-97.902267,30.116271],[-97.902237,30.115922],[-97.902272,30.115458],[-97.902556,30.114409],[-97.902588,30.114121],[-97.902585,30.111908]]}},{"type":"Feature","properties":{"highway":"residential","name":"Armadillo Trace"},"geometry":{"type":"LineString","coordinates":[[-97.8864,30.092451],[-97.886422,30.092669],[-97.8864,30.093098],[-97.886354,30.093314],[-97.886331,30.093523],[-97.886254,30.093792]]}},{"type":"Feature","properties":{"highway":"unclassified","name":"Commercial Drive"},"geometry":{"type":"LineString","coordinates":[[-97.830134,30.067756],[-97.83099,30.068086],[-97.831194,30.068137],[-97.831346,30.068146],[-97.83228,30.068125],[-97.832656,30.068136],[-97.832854,30.068162],[-97.834705,30.068649],[-97.835103,30.068684],[-97.835336,30.068634],[-97.837161,30.067844],[-97.837316,30.067796],[-97.838182,30.067756],[-97.838906,30.067756]]}},{"type":"Feature","properties":{"highway":"residential","name":"Dodgen Way","surface":"compacted"},"geometry":{"type":"LineString","coordinates":[[-97.889507,30.113425],[-97.889474,30.112691],[-97.889475,30.112138],[-97.889528,30.111808],[-97.889467,30.111448],[-97.88949,30.11128],[-97.889482,30.11111],[-97.889436,30.110807],[-97.889475,30.110562],[-97.88949,30.110213],[-97.889451,30.109734],[-97.889451,30.109212],[-97.889413,30.10881],[-97.88949,30.108451],[-97.889451,30.107986],[-97.889391,30.107677],[-97.889398,30.107501],[-97.889452,30.107284],[-97.889436,30.10713],[-97.88939,30.106992],[-97.889376,30.106822],[-97.889414,30.106531],[-97.889376,30.10617],[-97.88936,30.105832],[-97.889428,30.105527],[-97.889421,30.1054],[-97.889368,30.10523]]}},{"type":"Feature","properties":{"highway":"residential","name":"Ramrod Drive"},"geometry":{"type":"LineString","coordinates":[[-97.883333,30.148155],[-97.883364,30.147263],[-97.883387,30.147169],[-97.883471,30.146994],[-97.883593,30.146797],[-97.883662,30.146627],[-97.883692,30.146311],[-97.883676,30.145082],[-97.883623,30.144881],[-97.883516,30.144723],[-97.883402,30.1446]]}},{"type":"Feature","properties":{"highway":"residential","name":"Poppy Cove"},"geometry":{"type":"LineString","coordinates":[[-97.855111,30.105613],[-97.857102,30.105611],[-97.857217,30.105623]]}},{"type":"Feature","properties":{"highway":"residential","name":"Taylor Cove"},"geometry":{"type":"LineString","coordinates":[[-97.84486,30.1002],[-97.844514,30.099721]]}},{"type":"Feature","properties":{"highway":"residential","name":"Bell Lane","surface":"unpaved"},"geometry":{"type":"LineString","coordinates":[[-97.832736,30.077109],[-97.83282,30.075968],[-97.832855,30.075762],[-97.832874,30.075504]]}},{"type":"Feature","properties":{"highway":"residential","name":"Hummingbird Road"},"geometry":{"type":"LineString","coordinates":[[-97.891525,30.137675],[-97.892832,30.137664]]}},{"type":"Feature","properties":{"highway":"residential","name":"Smokey Rock Lane"},"geometry":{"type":"LineString","coordinates":[[-97.856554,30.119661],[-97.858797,30.119625]]}},{"type":"Feature","properties":{"highway":"residential","name":"Torrington Street"},"geometry":{"type":"LineString","coordinates":[[-97.830995,30.081765],[-97.83293,30.081748],[-97.833508,30.081668]]}},{"type":"Feature","properties":{"highway":"residential","name":"Hawk Drive"},"geometry":{"type":"LineString","coordinates":[[-97.883127,30.134944],[-97.883158,30.135044],[-97.88315,30.135874],[-97.883196,30.138239],[-97.883279,30.139233],[-97.883295,30.139662],[-97.88325,30.139857],[-97.882998,30.140396],[-97.882982,30.140498],[-97.883028,30.140693],[-97.883142,30.140862],[-97.883379,30.141059]]}},{"type":"Feature","properties":{"highway":"residential","name":"Humphreys Drive"},"geometry":{"type":"LineString","coordinates":[[-97.917965,30.077907],[-97.918093,30.077938],[-97.918346,30.077955],[-97.918623,30.07792],[-97.919962,30.077491],[-97.920229,30.077438],[-97.92048,30.077435],[-97.921366,30.077563],[-97.921679,30.077582],[-97.921808,30.077575],[-97.922067,30.077524],[-97.922289,30.077444],[-97.922617,30.077281],[-97.923227,30.077022],[-97.923433,30.076914],[-97.924563,30.0764],[-97.925615,30.075878]]}},{"type":"Feature","properties":{"highway":"residential","name":"Hays Youth Drive"},"geometry":{"type":"LineString","coordinates":[[-97.868923,30.050372],[-97.868935,30.050003],[-97.868895,30.047157]]}},{"type":"Feature","properties":{"highway":"residential","name":"McKennas Cove"},"geometry":{"type":"LineString","coordinates":[[-97.84347,30.099961],[-97.843452,30.102359],[-97.843422,30.102491],[-97.843367,30.102614],[-97.843163,30.102871]]}},{"type":"Feature","properties":{"highway":"residential","name":"Clary Court"},"geometry":{"type":"LineString","coordinates":[[-97.830074,30.078418],[-97.83009,30.080233]]}},{"type":"Feature","properties":{"highway":"residential","name":"Sun Bonnet Drive"},"geometry":{"type":"LineString","coordinates":[[-97.842044,30.072747],[-97.842056,30.073189],[-97.842003,30.07415],[-97.841968,30.077013]]}},{"type":"Feature","properties":{"highway":"residential","name":"Mockingbird Drive"},"geometry":{"type":"LineString","coordinates":[[-97.888628,30.138923],[-97.888617,30.133247]]}},{"type":"Feature","properties":{"highway":"residential","name":"Country Lane","surface":"asphalt"},"geometry":{"type":"LineString","coordinates":[[-97.869058,30.124323],[-97.870287,30.124311],[-97.871278,30.124248],[-97.874271,30.124166],[-97.874697,30.124125],[-97.874765,30.124032]]}},{"type":"Feature","properties":{"highway":"residential","name":"Dahlstrom Road","surface":"compacted"},"geometry":{"type":"LineString","coordinates":[[-97.891572,30.108402],[-97.892357,30.109475]]}},{"type":"Feature","properties":{"highway":"residential","name":"Raccoon Run","surface":"asphalt"},"geometry":{"type":"LineString","coordinates":[[-97.85724,30.107721],[-97.857125,30.107712],[-97.85582,30.107734],[-97.855592,30.10777],[-97.855386,30.107837],[-97.854989,30.108076]]}},{"type":"Feature","properties":{"highway":"residential","name":"Little Bear Road","oneway":"yes","surface":"asphalt"},"geometry":{"type":"LineString","coordinates":[[-97.89843,30.109416],[-97.898445,30.110612],[-97.898499,30.110999],[-97.898573,30.110621],[-97.89856,30.110494],[-97.898553,30.109414]]}},{"type":"Feature","properties":{"highway":"residential","name":"Turkey Cove"},"geometry":{"type":"LineString","coordinates":[[-97.854791,30.114754],[-97.854783,30.115565]]}},{"type":"Feature","properties":{"highway":"unclassified","name":"Cole Springs Road","ref":"CR 148"},"geometry":{"type":"LineString","coordinates":[[-97.848695,30.086508],[-97.848853,30.086377],[-97.848897,30.0863],[-97.848925,30.086165],[-97.848947,30.085787],[-97.849068,30.085447],[-97.849159,30.085298]]}},{"type":"Feature","properties":{"highway":"residential","name":"Dove Drive"},"geometry":{"type":"LineString","coordinates":[[-97.887241,30.138931],[-97.887209,30.136092],[-97.8872,30.133253],[-97.887229,30.132607]]}},{"type":"Feature","properties":{"highway":"residential","name":"Dove Drive","surface":"asphalt"},"geometry":{"type":"LineString","coordinates":[[-97.853036,30.116037],[-97.853036,30.114244],[-97.853006,30.113952],[-97.852906,30.113668],[-97.85283,30.113555],[-97.852571,30.113264],[-97.852395,30.112982],[-97.852318,30.112775],[-97.852288,30.11256],[-97.852128,30.104702],[-97.85209,30.103506],[-97.852113,30.103308],[-97.852227,30.103015],[-97.852357,30.102832],[-97.852517,30.102671],[-97.852727,30.102525],[-97.852845,30.102466],[-97.853069,30.102397],[-97.853268,30.102365],[-97.85413,30.102349],[-97.85405,30.100899]]}},{"type":"Feature","properties":{"highway":"residential","name":"Pheasant Run"},"geometry":{"type":"LineString","coordinates":[[-97.857446,30.118373],[-97.857377,30.114743]]}},{"type":"Feature","properties":{"highway":"residential","name":"Rabbit Run"},"geometry":{"type":"LineString","coordinates":[[-97.88497,30.092492],[-97.884987,30.09269],[-97.88498,30.093059],[-97.884915,30.09332],[-97.88484,30.09349],[-97.884684,30.093737]]}},{"type":"Feature","properties":{"highway":"residential","name":"La Palma Ranch Road","surface":"unpaved"},"geometry":{"type":"LineString","coordinates":[[-97.882408,30.131597],[-97.882043,30.131105],[-97.881988,30.130398],[-97.882163,30.130146],[-97.882165,30.129973],[-97.882193,30.129902],[-97.88223,30.129864],[-97.882322,30.129815],[-97.882696,30.129678],[-97.883053,30.129513],[-97.883199,30.129459],[-97.883565,30.129391],[-97.883628,30.129353],[-97.884031,30.12898],[-97.884433,30.128736],[-97.884581,30.128617],[-97.884771,30.128416]]}},{"type":"Feature","properties":{"highway":"residential","name":"Pine Siskin Drive"},"geometry":{"type":"LineString","coordinates":[[-97.863053,30.113336],[-97.863008,30.113146],[-97.862993,30.111551],[-97.862939,30.11124],[-97.862792,30.110752],[-97.862763,30.110496],[-97.862809,30.109215],[-97.862893,30.108418],[-97.86284,30.108118],[-97.862771,30.107864],[-97.862756,30.107652],[-97.862878,30.106834],[-97.862855,30.10652],[-97.862802,30.106283],[-97.862817,30.106119],[-97.862931,30.105919],[-97.863162,30.105695]]}},{"type":"Feature","properties":{"highway":"residential","name":"Slippery Rock Drive"},"geometry":{"type":"LineString","coordinates":[[-97.858156,30.123736],[-97.858147,30.122163]]}}],"attribution":"© OpenStreetMap contributors"}
