{"type":"FeatureCollection","features":[{"type":"Feature","properties":{"ele":"229","name":"Shady Hollow","place":"neighbourhood"},"geometry":{"type":"Point","coordinates":[-97.862393,30.164944]}},{"type":"Feature","properties":{"ele":"222","name":"Hays","place":"village"},"geometry":{"type":"Point","coordinates":[-97.872228,30.122712]}},{"type":"Feature","properties":{"ele":"214","name":"Manchaca","place":"village"},"geometry":{"type":"Point","coordinates":[-97.833055,30.140769]}},{"type":"Feature","properties":{"ele":"214","name":"Buda","place":"town"},"geometry":{"type":"Point","coordinates":[-97.841714,30.082475]}},{"type":"Feature","properties":{"ele":"269","name":"Carpenter Hills","natural":"peak"},"geometry":{"type":"Point","coordinates":[-97.891117,30.094101]}},{"type":"Feature","properties":{"amenity":"fire_station","name":"Manchaca Volunteer Fire Department"},"geometry":{"type":"Point","coordinates":[-97.838075,30.140993]}},{"type":"Feature","properties":{"ele":"228","name":"Antioch Colony","place":"hamlet"},"geometry":{"type":"Point","coordinates":[-97.853991,30.085667]}},{"type":"Feature","properties":{"name":"Elm Grove","place":"hamlet"},"geometry":{"type":"Point","coordinates":[-97.874617,30.100468]}},{"type":"Feature","properties":{"emergency":"assembly_point","name":"Rally Point 3"},"geometry":{"type":"Point","coordinates":[-97.898702,30.086699]}},{"type":"Feature","properties":{"emergency":"assembly_point","name":"Rally Point 4"},"geometry":{"type":"Point","coordinates":[-97.898696,30.083021]}},{"type":"Feature","properties":{"emergency":"assembly_point","name":"Rally Point 2"},"geometry":{"type":"Point","coordinates":[-97.899489,30.089841]}},{"type":"Feature","properties":{"highway":"residential","name":"Hidatsa Street"},"geometry":{"type":"LineString","coordinates":[[-97.838864,30.083075],[-97.836197,30.083825]]}},{"type":"Feature","properties":{"access":"private","highway":"service"},"geometry":{"type":"LineString","coordinates":[[-97.881423,30.096337],[-97.881412,30.096108],[-97.881377,30.095993],[-97.881383,30.095479],[-97.881369,30.095208],[-97.881418,30.094959],[-97.881464,30.094852]]}},{"type":"Feature","properties":{"highway":"track"},"geometry":{"type":"LineString","coordinates":[[-97.838657,30.095208],[-97.838496,30.09519],[-97.838286,30.095192],[-97.837718,30.095449],[-97.837441,30.095514],[-97.836518,30.095341],[-97.835919,30.095246],[-97.835335,30.095343],[-97.835182,30.095391],[-97.835077,30.095661],[-97.835003,30.096025],[-97.834936,30.096066],[-97.834629,30.096132],[-97.83411,30.09618],[-97.833738,30.096149]]}},{"type":"Feature","properties":{"access":"private","highway":"service"},"geometry":{"type":"LineString","coordinates":[[-97.887771,30.090506],[-97.889433,30.090508]]}},{"type":"Feature","properties":{"access":"private","highway":"service"},"geometry":{"type":"LineString","coordinates":[[-97.881779,30.092522],[-97.881772,30.092414],[-97.881536,30.092069],[-97.88149,30.091991],[-97.881486,30.091948],[-97.881497,30.091868],[-97.881545,30.091788],[-97.881708,30.091701],[-97.881778,30.091703],[-97.881828,30.091741],[-97.881848,30.091775],[-97.881855,30.091842],[-97.881772,30.092414]]}},{"type":"Feature","properties":{"access":"private","highway":"service"},"geometry":{"type":"LineString","coordinates":[[-97.878793,30.09002],[-97.879713,30.089966]]}},{"type":"Feature","properties":{"access":"private","highway":"service"},"geometry":{"type":"LineString","coordinates":[[-97.880182,30.096351],[-97.880165,30.095644],[-97.880309,30.095352],[-97.880775,30.094792],[-97.880955,30.094547]]}},{"type":"Feature","properties":{"access":"private","highway":"service"},"geometry":{"type":"LineString","coordinates":[[-97.844529,30.084244],[-97.845187,30.084418]]}},{"type":"Feature","properties":{"access":"private","highway":"service"},"geometry":{"type":"LineString","coordinates":[[-97.870909,30.085561],[-97.870939,30.084352],[-97.871297,30.08395],[-97.871331,30.083608]]}},{"type":"Feature","properties":{"access":"private","highway":"service"},"geometry":{"type":"LineString","coordinates":[[-97.887751,30.089491],[-97.888475,30.089466],[-97.888646,30.089483],[-97.88931,30.089466]]}},{"type":"Feature","properties":{"highway":"residential","name":"Summer Night Cove","surface":"asphalt"},"geometry":{"type":"LineString","coordinates":[[-97.8652,30.086529],[-97.865124,30.086603],[-97.864988,30.086638],[-97.863559,30.086653]]}},{"type":"Feature","properties":{"access":"private","highway":"track"},"geometry":{"type":"LineString","coordinates":[[-97.890049,30.148139],[-97.890177,30.148519],[-97.890166,30.148614],[-97.889933,30.148979],[-97.889876,30.149264],[-97.889342,30.150117],[-97.889287,30.150304],[-97.889389,30.151324],[-97.889182,30.152052],[-97.889054,30.152293],[-97.888984,30.152369],[-97.888778,30.152509],[-97.888586,30.152757],[-97.887904,30.153411],[-97.887799,30.153549],[-97.887732,30.153686],[-97.887579,30.154486],[-97.887635,30.155305],[-97.88759,30.156481],[-97.887936,30.15678],[-97.888032,30.157163],[-97.887862,30.157491],[-97.887522,30.15807],[-97.887525,30.158199],[-97.887611,30.158426],[-97.887622,30.15889],[-97.887579,30.159011],[-97.887332,30.159373]]}},{"type":"Feature","properties":{"highway":"residential","oneway":"yes"},"geometry":{"type":"LineString","coordinates":[[-97.831923,30.08496],[-97.83207,30.084567],[-97.83211,30.084334]]}},{"type":"Feature","properties":{"highway":"residential","name":"Nighthawk Lane"},"geometry":{"type":"LineString","coordinates":[[-97.832437,30.087212],[-97.832688,30.088011]]}},{"type":"Feature","properties":{"highway":"residential","name":"Aster Cove"},"geometry":{"type":"LineString","coordinates":[[-97.855101,30.104623],[-97.857205,30.104597]]}},{"type":"Feature","properties":{"highway":"residential","name":"Phoebe Circle"},"geometry":{"type":"LineString","coordinates":[[-97.869402,30.104021],[-97.869848,30.104014]]}},{"type":"Feature","properties":{"highway":"residential","name":"Saguaro Drive"},"geometry":{"type":"LineString","coordinates":[[-97.855045,30.102802],[-97.85532,30.102708],[-97.855754,30.102668],[-97.856405,30.102663],[-97.856851,30.102688],[-97.857029,30.102778],[-97.857154,30.102969],[-97.857149,30.103433],[-97.857172,30.103623]]}},{"type":"Feature","properties":{"highway":"residential","name":"Echo Cove"},"geometry":{"type":"LineString","coordinates":[[-97.861562,30.122835],[-97.861792,30.123071],[-97.861901,30.123157]]}},{"type":"Feature","properties":{"highway":"residential","name":"Sosebee Parkway"},"geometry":{"type":"LineString","coordinates":[[-97.872832,30.085502],[-97.872812,30.0853],[-97.872804,30.084628],[-97.872773,30.084309],[-97.872768,30.083644],[-97.872726,30.083285]]}},{"type":"Feature","properties":{"highway":"residential","name":"Bermuda Lane"},"geometry":{"type":"LineString","coordinates":[[-97.857217,30.105623],[-97.857264,30.105846],[-97.857269,30.106278],[-97.857247,30.106564]]}},{"type":"Feature","properties":{"highway":"residential","name":"Robin Road"},"geometry":{"type":"LineString","coordinates":[[-97.884783,30.138947],[-97.892909,30.138897]]}},{"type":"Feature","properties":{"access":"private","highway":"service","name":"Dahlstrom"},"geometry":{"type":"LineString","coordinates":[[-97.891625,30.109518],[-97.891572,30.108402],[-97.891527,30.106801],[-97.891397,30.104078],[-97.891402,30.103757],[-97.891287,30.103648],[-97.891102,30.103539],[-97.890839,30.10347],[-97.890206,30.103254],[-97.889884,30.103111],[-97.889739,30.102996],[-97.889662,30.10281],[-97.889656,30.101654],[-97.889669,30.1012]]}},{"type":"Feature","properties":{"highway":"tertiary","name":"Old Black Colony Road","ref":"CR 147"},"geometry":{"type":"LineString","coordinates":[[-97.848916,30.086855],[-97.85023,30.086251],[-97.851735,30.085977],[-97.852355,30.085803],[-97.852639,30.08575],[-97.853773,30.085655],[-97.856194,30.08537],[-97.85753,30.085164],[-97.857823,30.085156],[-97.857907,30.085195],[-97.857975,30.085334],[-97.857975,30.0856],[-97.858025,30.085699],[-97.858201,30.085766],[-97.86036,30.085705],[-97.865447,30.08569],[-97.866136,30.085652],[-97.870604,30.08557],[-97.872832,30.085502],[-97.874756,30.085473]]}},{"type":"Feature","properties":{"highway":"residential","name":"Haven Lane"},"geometry":{"type":"LineString","coordinates":[[-97.83099,30.082503],[-97.830585,30.082503]]}},{"type":"Feature","properties":{"highway":"residential","name":"Armadillo Trace"},"geometry":{"type":"LineString","coordinates":[[-97.8864,30.092451],[-97.886422,30.092669],[-97.8864,30.093098],[-97.886354,30.093314],[-97.886331,30.093523],[-97.886254,30.093792]]}},{"type":"Feature","properties":{"highway":"residential","name":"Dodgen Way","surface":"compacted"},"geometry":{"type":"LineString","coordinates":[[-97.889507,30.113425],[-97.889474,30.112691],[-97.889475,30.112138],[-97.889528,30.111808],[-97.889467,30.111448],[-97.88949,30.11128],[-97.889482,30.11111],[-97.889436,30.110807],[-97.889475,30.110562],[-97.88949,30.110213],[-97.889451,30.109734],[-97.889451,30.109212],[-97.889413,30.10881],[-97.88949,30.108451],[-97.889451,30.107986],[-97.889391,30.107677],[-97.889398,30.107501],[-97.889452,30.107284],[-97.889436,30.10713],[-97.88939,30.106992],[-97.889376,30.106822],[-97.889414,30.106531],[-97.889376,30.10617],[-97.88936,30.105832],[-97.889428,30.105527],[-97.889421,30.1054],[-97.889368,30.10523]]}},{"type":"Feature","properties":{"highway":"residential","name":"Ramrod Drive"},"geometry":{"type":"LineString","coordinates":[[-97.883333,30.148155],[-97.883364,30.147263],[-97.883387,30.147169],[-97.883471,30.146994],[-97.883593,30.146797],[-97.883662,30.146627],[-97.883692,30.146311],[-97.883676,30.145082],[-97.883623,30.144881],[-97.883516,30.144723],[-97.883402,30.1446]]}},{"type":"Feature","properties":{"highway":"residential","name":"Poppy Cove"},"geometry":{"type":"LineString","coordinates":[[-97.855111,30.105613],[-97.857102,30.105611],[-97.857217,30.105623]]}},{"type":"Feature","properties":{"highway":"residential","name":"Taylor Cove"},"geometry":{"type":"LineString","coordinates":[[-97.84486,30.1002],[-97.844514,30.099721]]}},{"type":"Feature","properties":{"highway":"residential","name":"Hummingbird Road"},"geometry":{"type":"LineString","coordinates":[[-97.891525,30.137675],[-97.892832,30.137664]]}},{"type":"Feature","properties":{"highway":"residential","name":"Smokey Rock Lane"},"geometry":{"type":"LineString","coordinates":[[-97.856554,30.119661],[-97.858797,30.119625]]}},{"type":"Feature","properties":{"highway":"residential","name":"Torrington Street"},"geometry":{"type":"LineString","coordinates":[[-97.830995,30.081765],[-97.83293,30.081748],[-97.833508,30.081668]]}},{"type":"Feature","properties":{"highway":"residential","name":"Hawk Drive"},"geometry":{"type":"LineString","coordinates":[[-97.883127,30.134944],[-97.883158,30.135044],[-97.88315,30.135874],[-97.883196,30.138239],[-97.883279,30.139233],[-97.883295,30.139662],[-97.88325,30.139857],[-97.882998,30.140396],[-97.882982,30.140498],[-97.883028,30.140693],[-97.883142,30.140862],[-97.883379,30.141059]]}},{"type":"Feature","properties":{"highway":"residential","name":"McKennas Cove"},"geometry":{"type":"LineString","coordinates":[[-97.84347,30.099961],[-97.843452,30.102359],[-97.843422,30.102491],[-97.843367,30.102614],[-97.843163,30.102871]]}},{"type":"Feature","properties":{"highway":"residential","name":"Mockingbird Drive"},"geometry":{"type":"LineString","coordinates":[[-97.888628,30.138923],[-97.888617,30.133247]]}},{"type":"Feature","properties":{"highway":"residential","name":"Country Lane","surface":"asphalt"},"geometry":{"type":"LineString","coordinates":[[-97.869058,30.124323],[-97.870287,30.124311],[-97.871278,30.124248],[-97.874271,30.124166],[-97.874697,30.124125],[-97.874765,30.124032]]}},{"type":"Feature","properties":{"highway":"residential","name":"Dahlstrom Road","surface":"compacted"},"geometry":{"type":"LineString","coordinates":[[-97.891572,30.108402],[-97.892357,30.109475]]}},{"type":"Feature","properties":{"highway":"residential","name":"Raccoon Run","surface":"asphalt"},"geometry":{"type":"LineString","coordinates":[[-97.85724,30.107721],[-97.857125,30.107712],[-97.85582,30.107734],[-97.855592,30.10777],[-97.855386,30.107837],[-97.854989,30.108076]]}},{"type":"Feature","properties":{"highway":"residential","name":"Little Bear Road","oneway":"yes","surface":"asphalt"},"geometry":{"type":"LineString","coordinates":[[-97.89843,30.109416],[-97.898445,30.110612],[-97.898499,30.110999],[-97.898573,30.110621],[-97.89856,30.110494],[-97.898553,30.109414]]}},{"type":"Feature","properties":{"highway":"residential","name":"Turkey Cove"},"geometry":{"type":"LineString","coordinates":[[-97.854791,30.114754],[-97.854783,30.115565]]}},{"type":"Feature","properties":{"highway":"unclassified","name":"Cole Springs Road","ref":"CR 148"},"geometry":{"type":"LineString","coordinates":[[-97.848695,30.086508],[-97.848853,30.086377],[-97.848897,30.0863],[-97.848925,30.086165],[-97.848947,30.085787],[-97.849068,30.085447],[-97.849159,30.085298]]}},{"type":"Feature","properties":{"highway":"residential","name":"Dove Drive"},"geometry":{"type":"LineString","coordinates":[[-97.887241,30.138931],[-97.887209,30.136092],[-97.8872,30.133253],[-97.887229,30.132607]]}},{"type":"Feature","properties":{"highway":"residential","name":"Dove Drive","surface":"asphalt"},"geometry":{"type":"LineString","coordinates":[[-97.853036,30.116037],[-97.853036,30.114244],[-97.853006,30.113952],[-97.852906,30.113668],[-97.85283,30.113555],[-97.852571,30.113264],[-97.852395,30.112982],[-97.852318,30.112775],[-97.852288,30.11256],[-97.852128,30.104702],[-97.85209,30.103506],[-97.852113,30.103308],[-97.852227,30.103015],[-97.852357,30.102832],[-97.852517,30.102671],[-97.852727,30.102525],[-97.852845,30.102466],[-97.853069,30.102397],[-97.853268,30.102365],[-97.85413,30.102349],[-97.85405,30.100899]]}},{"type":"Feature","properties":{"highway":"residential","name":"Pheasant Run"},"geometry":{"type":"LineString","coordinates":[[-97.857446,30.118373],[-97.857377,30.114743]]}},{"type":"Feature","properties":{"highway":"residential","name":"Rabbit Run"},"geometry":{"type":"LineString","coordinates":[[-97.88497,30.092492],[-97.884987,30.09269],[-97.88498,30.093059],[-97.884915,30.09332],[-97.88484,30.09349],[-97.884684,30.093737]]}},{"type":"Feature","properties":{"highway":"residential","name":"La Palma Ranch Road","surface":"unpaved"},"geometry":{"type":"LineString","coordinates":[[-97.882408,30.131597],[-97.882043,30.131105],[-97.881988,30.130398],[-97.882163,30.130146],[-97.882165,30.129973],[-97.882193,30.129902],[-97.88223,30.129864],[-97.882322,30.129815],[-97.882696,30.129678],[-97.883053,30.129513],[-97.883199,30.129459],[-97.883565,30.129391],[-97.883628,30.129353],[-97.884031,30.12898],[-97.884433,30.128736],[-97.884581,30.128617],[-97.884771,30.128416]]}},{"type":"Feature","properties":{"highway":"residential","name":"Pine Siskin Drive"},"geometry":{"type":"LineString","coordinates":[[-97.863053,30.113336],[-97.863008,30.113146],[-97.862993,30.111551],[-97.862939,30.11124],[-97.862792,30.110752],[-97.862763,30.110496],[-97.862809,30.109215],[-97.862893,30.108418],[-97.86284,30.108118],[-97.862771,30.107864],[-97.862756,30.107652],[-97.862878,30.106834],[-97.862855,30.10652],[-97.862802,30.106283],[-97.862817,30.106119],[-97.862931,30.105919],[-97.863162,30.105695]]}},{"type":"Feature","properties":{"highway":"residential","name":"Slippery Rock Drive"},"geometry":{"type":"LineString","coordinates":[[-97.858156,30.123736],[-97.858147,30.122163]]}},{"type":"Feature","properties":{"highway":"residential","name":"Lakewood Drive","surface":"asphalt"},"geometry":{"type":"LineString","coordinates":[[-97.861112,30.125205],[-97.861101,30.124305],[-97.861093,30.124181],[-97.861062,30.124038],[-97.86065,30.122643],[-97.860551,30.122464],[-97.860383,30.122283],[-97.860262,30.122194],[-97.860071,30.122146],[-97.858147,30.122163],[-97.856724,30.122151]]}},{"type":"Feature","properties":{"highway":"residential","name":"Haleys Way Drive"},"geometry":{"type":"LineString","coordinates":[[-97.846536,30.099281],[-97.84486,30.1002],[-97.844098,30.100598],[-97.843885,30.100661],[-97.843468,30.10068]]}},{"type":"Feature","properties":{"highway":"residential","name":"Haleys Way Drive"},"geometry":{"type":"LineString","coordinates":[[-97.848328,30.098838],[-97.847658,30.098835],[-97.847481,30.098851],[-97.847134,30.098954],[-97.846925,30.099066]]}},{"type":"Feature","properties":{"highway":"residential","name":"Laurel Path"},"geometry":{"type":"LineString","coordinates":[[-97.858774,30.118357],[-97.85573,30.118394]]}},{"type":"Feature","properties":{"highway":"residential","name":"Somerset Road"},"geometry":{"type":"LineString","coordinates":[[-97.831893,30.082521],[-97.832585,30.08251],[-97.833042,30.082524],[-97.833564,30.082565]]}},{"type":"Feature","properties":{"highway":"residential","name":"Lilly Street"},"geometry":{"type":"LineString","coordinates":[[-97.841596,30.080778],[-97.841608,30.081157]]}},{"type":"Feature","properties":{"highway":"residential","name":"Madisons Way"},"geometry":{"type":"LineString","coordinates":[[-97.843478,30.0978],[-97.843698,30.0978],[-97.843937,30.097769],[-97.845673,30.097505]]}},{"type":"Feature","properties":{"highway":"residential","name":"Montvale Lane","surface":"asphalt"},"geometry":{"type":"LineString","coordinates":[[-97.882028,30.107737],[-97.882066,30.108615],[-97.882181,30.109165],[-97.882201,30.109328]]}},{"type":"Feature","properties":{"highway":"residential","name":"Oakwood Circle"},"geometry":{"type":"LineString","coordinates":[[-97.875293,30.113268],[-97.875464,30.113314]]}},{"type":"Feature","properties":{"highway":"residential","name":"Swallow Drive"},"geometry":{"type":"LineString","coordinates":[[-97.885691,30.138941],[-97.885653,30.1361]]}},{"type":"Feature","properties":{"highway":"residential","name":"Waxwing Drive"},"geometry":{"type":"LineString","coordinates":[[-97.866533,30.115708],[-97.866715,30.115715],[-97.866884,30.115747],[-97.867051,30.115812],[-97.867211,30.11592],[-97.867776,30.116538],[-97.86789,30.116641],[-97.868081,30.116753],[-97.86918,30.117059]]}},{"type":"Feature","properties":{"highway":"residential","name":"Spanish Oaks Trail"},"geometry":{"type":"LineString","coordinates":[[-97.8611,30.124698],[-97.859079,30.124717],[-97.858971,30.124643]]}},{"type":"Feature","properties":{"highway":"residential","name":"South Dryden Lane","surface":"asphalt"},"geometry":{"type":"LineString","coordinates":[[-97.878139,30.104502],[-97.878146,30.103962]]}},{"type":"Feature","properties":{"highway":"unclassified","name":"Garison Road"},"geometry":{"type":"LineString","coordinates":[[-97.841527,30.084544],[-97.841729,30.084727],[-97.841746,30.084762],[-97.841749,30.084846],[-97.841725,30.084959],[-97.841663,30.085054],[-97.841337,30.085275],[-97.841278,30.085361],[-97.841168,30.085693],[-97.840802,30.087058],[-97.840606,30.087735],[-97.840531,30.087889],[-97.840455,30.088128],[-97.840218,30.088954],[-97.840058,30.089609],[-97.840012,30.08973],[-97.839203,30.092943],[-97.839089,30.093349],[-97.838953,30.094182],[-97.838888,30.094436]]}},{"type":"Feature","properties":{"highway":"residential","name":"Chisholm Trail"},"geometry":{"type":"LineString","coordinates":[[-97.837472,30.089222],[-97.837154,30.089198],[-97.837022,30.089084],[-97.836993,30.088952],[-97.83702,30.088815],[-97.837082,30.088633],[-97.837243,30.08829],[-97.837267,30.088125],[-97.837248,30.087883],[-97.837272,30.087762],[-97.837368,30.087623],[-97.837501,30.087561],[-97.83778,30.087486],[-97.838082,30.087354],[-97.838288,30.087196],[-97.838463,30.086948]]}},{"type":"Feature","properties":{"highway":"residential","name":"Kali's Cove"},"geometry":{"type":"LineString","coordinates":[[-97.847617,30.09584],[-97.847596,30.095449],[-97.847604,30.095229],[-97.847664,30.094897]]}},{"type":"Feature","properties":{"highway":"residential","name":"Houston Street"},"geometry":{"type":"LineString","coordinates":[[-97.843453,30.080842],[-97.843047,30.080642],[-97.842797,30.080537],[-97.84169,30.080284],[-97.840302,30.079942]]}},{"type":"Feature","properties":{"highway":"residential","name":"Kildeer Drive"},"geometry":{"type":"LineString","coordinates":[[-97.863008,30.121343],[-97.863878,30.121323],[-97.864129,30.121298],[-97.86429,30.121217],[-97.864633,30.120845],[-97.864801,30.120696],[-97.865747,30.119986],[-97.865831,30.11994],[-97.866029,30.119878],[-97.866998,30.11962],[-97.867243,30.119435],[-97.867479,30.119467],[-97.867769,30.119618],[-97.867997,30.119678],[-97.868303,30.119686]]}},{"type":"Feature","properties":{"highway":"residential","name":"Copper Hills Drive"},"geometry":{"type":"LineString","coordinates":[[-97.884013,30.140559],[-97.883512,30.140988],[-97.883379,30.141059],[-97.88334,30.141147],[-97.882759,30.141669],[-97.882517,30.141847],[-97.882082,30.142536],[-97.881884,30.142796],[-97.881525,30.143106],[-97.880991,30.143525],[-97.880708,30.14366],[-97.880395,30.143699],[-97.880106,30.143683],[-97.879816,30.143647],[-97.879389,30.143553],[-97.879259,30.143503],[-97.879053,30.143383],[-97.878732,30.143091],[-97.878614,30.143064]]}},{"type":"Feature","properties":{"highway":"residential","name":"Oak Grove Road","surface":"asphalt"},"geometry":{"type":"LineString","coordinates":[[-97.891625,30.109518],[-97.89226,30.109477],[-97.893297,30.109454],[-97.894663,30.10948],[-97.895984,30.109469],[-97.902178,30.109352],[-97.906572,30.109299],[-97.906874,30.109314],[-97.907059,30.109342],[-97.907197,30.109374],[-97.907348,30.109434],[-97.907472,30.1095],[-97.907675,30.109649],[-97.907835,30.109831],[-97.907957,30.110069],[-97.908004,30.110273],[-97.907978,30.113388],[-97.907999,30.116711],[-97.907976,30.117203],[-97.907984,30.117682]]}},{"type":"Feature","properties":{"highway":"residential","name":"Bittern Circle"},"geometry":{"type":"LineString","coordinates":[[-97.867913,30.110828],[-97.867898,30.111185],[-97.868018,30.111478],[-97.86809,30.111703]]}}],"attribution":"© OpenStreetMap contributors"}
