{"type":"FeatureCollection","features":[{"type":"Feature","properties":{"landuse":"greenhouse_horticulture"},"geometry":{"type":"Polygon","coordinates":[[[-105.991942,32.805499],[-105.991869,32.805501],[-105.991865,32.805455],[-105.991938,32.805454],[-105.991942,32.805499]]]}},{"type":"Feature","properties":{"landuse":"greenhouse_horticulture"},"geometry":{"type":"Polygon","coordinates":[[[-106.931584,32.501401],[-106.938284,32.501148],[-106.938129,32.502216],[-106.937849,32.502637],[-106.937839,32.504993],[-106.934507,32.504948],[-106.933821,32.50522],[-106.932013,32.505242],[-106.931943,32.504297],[-106.932169,32.502578],[-106.931541,32.502238],[-106.931042,32.501777],[-106.931353,32.501447],[-106.931584,32.501401]]]}},{"type":"Feature","properties":{"name":"Alamo Mountain Area of Critical Environmental Concern","leisure":"nature_reserve","boundary":"protected_area"},"geometry":{"type":"Polygon","coordinates":[[[-105.629425,32.046844],[-105.629417,32.03596],[-105.612335,32.03597],[-105.612335,32.028714],[-105.612352,32.026266],[-105.612327,32.025082],[-105.612327,32.017822],[-105.646392,32.017818],[-105.648538,32.018023],[-105.648509,32.026835],[-105.654982,32.026816],[-105.65493,32.028695],[-105.654954,32.043197],[-105.655182,32.045058],[-105.646429,32.045022],[-105.646439,32.046829],[-105.629425,32.046844]]]}},{"type":"Feature","properties":{"name":"Chihuahuan Desert Conservatory","boundary":"protected_area"},"geometry":{"type":"Polygon","coordinates":[[[-107.242776,33.148413],[-107.242701,33.14672],[-107.236154,33.146733],[-107.23619,33.148926],[-107.234442,33.148931],[-107.234451,33.150192],[-107.231927,33.150218],[-107.233064,33.153757],[-107.234866,33.153775],[-107.234931,33.154979],[-107.24036,33.156973],[-107.242799,33.159947],[-107.242777,33.149941],[-107.239674,33.149924],[-107.239626,33.147898],[-107.242281,33.147882],[-107.242776,33.148413]]]}},{"type":"Feature","properties":{"name":"Cornundas Mountain Area of Critical Environmental Concern","leisure":"nature_reserve","boundary":"protected_area"},"geometry":{"type":"Polygon","coordinates":[[[-105.510154,32.083142],[-105.510162,32.086766],[-105.518676,32.086775],[-105.518684,32.090397],[-105.522941,32.090402],[-105.522949,32.094022],[-105.527206,32.094026],[-105.527221,32.101268],[-105.501649,32.10125],[-105.50164,32.094002],[-105.503673,32.094005],[-105.503653,32.090394],[-105.505905,32.090383],[-105.505889,32.083139],[-105.510154,32.083142]]]}},{"type":"Feature","properties":{"name":"Cornundas Mountain Area of Critical Environmental Concern","leisure":"nature_reserve","boundary":"protected_area"},"geometry":{"type":"Polygon","coordinates":[[[-105.516627,32.083163],[-105.510154,32.083142],[-105.510146,32.081173],[-105.516575,32.081147],[-105.516627,32.083163]]]}},{"type":"Feature","properties":{"name":"Desert Garden Park","leisure":"park"},"geometry":{"type":"Polygon","coordinates":[[[-106.229356,31.790034],[-106.227803,31.790298],[-106.228024,31.790616],[-106.228135,31.790912],[-106.228504,31.791452],[-106.228692,31.791355],[-106.229542,31.791035],[-106.229596,31.790984],[-106.229493,31.790645],[-106.229356,31.790034]]]}},{"type":"Feature","properties":{"name":"Hueco Tanks State Park and Historic Site","leisure":"park","boundary":"protected_area"},"geometry":{"type":"Polygon","coordinates":[[[-106.051721,31.906867],[-106.051895,31.916908],[-106.051932,31.920833],[-106.051927,31.927824],[-106.04072,31.927798],[-106.039834,31.926489],[-106.035817,31.926533],[-106.035755,31.924669],[-106.035738,31.919255],[-106.035653,31.911314],[-106.035676,31.909169],[-106.035652,31.906836],[-106.051721,31.906867]]]}},{"type":"Feature","properties":{"name":"Rincon Area of Critical Environmental Concern","leisure":"nature_reserve","boundary":"protected_area"},"geometry":{"type":"Polygon","coordinates":[[[-107.051668,32.681346],[-107.060199,32.681298],[-107.069029,32.681308],[-107.077674,32.681346],[-107.081956,32.681333],[-107.08195,32.684969],[-107.081884,32.692318],[-107.068923,32.692337],[-107.060307,32.692323],[-107.051673,32.692354],[-107.051668,32.681346]]]}},{"type":"Feature","properties":{"name":"Rose Garden","leisure":"park"},"geometry":{"type":"Polygon","coordinates":[[[-105.95913,32.911653],[-105.959585,32.911645],[-105.959607,32.912576],[-105.959152,32.912584],[-105.95913,32.911653]]]}},{"type":"Feature","properties":{"name":"Three Crosses Cactus Garden","leisure":"park"},"geometry":{"type":"Polygon","coordinates":[[[-106.781959,32.332139],[-106.782112,32.3319],[-106.782181,32.331932],[-106.782029,32.332171],[-106.781959,32.332139]]]}},{"type":"Feature","properties":{"name":"Uvas Valley Area of Critical Environmental Concern","leisure":"nature_reserve","boundary":"protected_area"},"geometry":{"type":"Polygon","coordinates":[[[-107.418257,32.432147],[-107.384535,32.432044],[-107.375943,32.432005],[-107.367322,32.432001],[-107.367269,32.4247],[-107.384458,32.424693],[-107.384412,32.417408],[-107.401228,32.417503],[-107.411071,32.417464],[-107.418272,32.41756],[-107.418257,32.432147]]]}},{"type":"Feature","properties":{"name":"Wind Mountain Area of Critical Environmental Concern","leisure":"nature_reserve","boundary":"protected_area"},"geometry":{"type":"Polygon","coordinates":[[[-105.527197,32.043222],[-105.527197,32.035955],[-105.510028,32.035871],[-105.499373,32.035939],[-105.499436,32.01592],[-105.503832,32.015938],[-105.503799,32.012508],[-105.49951,32.01249],[-105.49951,32.003299],[-105.497371,32.003269],[-105.497377,32.000926],[-105.506082,32.000904],[-105.510127,32.000962],[-105.513464,32.000953],[-105.518659,32.000966],[-105.518659,32.006864],[-105.522932,32.00686],[-105.522932,32.0105],[-105.527196,32.010496],[-105.527196,32.014136],[-105.531446,32.014132],[-105.531447,32.021406],[-105.527197,32.02141],[-105.527197,32.028679],[-105.531447,32.028645],[-105.531455,32.043213],[-105.527197,32.043222]]]}}],"attribution":"© OpenStreetMap contributors"}