{"type":"FeatureCollection","features":[{"type":"Feature","properties":{"landuse":"greenhouse_horticulture"},"geometry":{"type":"Polygon","coordinates":[[[-97.379386,30.359612],[-97.379231,30.359476],[-97.379163,30.359536],[-97.379323,30.359668],[-97.379386,30.359612]]]}},{"type":"Feature","properties":{"landuse":"greenhouse_horticulture"},"geometry":{"type":"Polygon","coordinates":[[[-97.65212,30.461586],[-97.651995,30.461777],[-97.650443,30.461018],[-97.650568,30.460827],[-97.65212,30.461586]]]}},{"type":"Feature","properties":{"landuse":"greenhouse_horticulture"},"geometry":{"type":"Polygon","coordinates":[[[-97.652292,30.461322],[-97.652166,30.461514],[-97.650614,30.460755],[-97.65074,30.460563],[-97.652292,30.461322]]]}},{"type":"Feature","properties":{"landuse":"greenhouse_horticulture"},"geometry":{"type":"Polygon","coordinates":[[[-97.652757,30.461513],[-97.652896,30.461581],[-97.65245,30.462255],[-97.652311,30.462186],[-97.652757,30.461513]]]}},{"type":"Feature","properties":{"landuse":"greenhouse_horticulture"},"geometry":{"type":"Polygon","coordinates":[[[-97.652901,30.461229],[-97.65381,30.459837],[-97.653978,30.459918],[-97.653069,30.46131],[-97.652901,30.461229]]]}},{"type":"Feature","properties":{"landuse":"greenhouse_horticulture"},"geometry":{"type":"Polygon","coordinates":[[[-97.669682,30.227412],[-97.669305,30.227109],[-97.669862,30.226593],[-97.670286,30.226951],[-97.67006,30.227155],[-97.670009,30.22711],[-97.669682,30.227412]]]}},{"type":"Feature","properties":{"landuse":"greenhouse_horticulture"},"geometry":{"type":"Polygon","coordinates":[[[-97.670911,30.228478],[-97.670315,30.227979],[-97.670643,30.22769],[-97.67123,30.228184],[-97.670911,30.228478]]]}},{"type":"Feature","properties":{"landuse":"greenhouse_horticulture"},"geometry":{"type":"Polygon","coordinates":[[[-97.671052,30.225772],[-97.670768,30.226037],[-97.67205,30.227075],[-97.672327,30.226805],[-97.671052,30.225772]]]}},{"type":"Feature","properties":{"landuse":"greenhouse_horticulture"},"geometry":{"type":"Polygon","coordinates":[[[-97.671631,30.229035],[-97.67099,30.228492],[-97.671533,30.227989],[-97.672165,30.228548],[-97.671631,30.229035]]]}},{"type":"Feature","properties":{"landuse":"greenhouse_horticulture"},"geometry":{"type":"Polygon","coordinates":[[[-97.781241,30.284804],[-97.781079,30.284894],[-97.780667,30.284334],[-97.780828,30.284245],[-97.781241,30.284804]]]}},{"type":"Feature","properties":{"landuse":"greenhouse_horticulture"},"geometry":{"type":"Polygon","coordinates":[[[-97.781611,30.284488],[-97.78146,30.284566],[-97.781144,30.284108],[-97.781295,30.284031],[-97.781611,30.284488]]]}},{"type":"Feature","properties":{"landuse":"greenhouse_horticulture"},"geometry":{"type":"Polygon","coordinates":[[[-97.844926,30.472049],[-97.844857,30.471877],[-97.844759,30.471907],[-97.844828,30.472078],[-97.844926,30.472049]]]}},{"type":"Feature","properties":{"name":"Buttercup Creek Cave Preserve","leisure":"park"},"geometry":{"type":"Polygon","coordinates":[[[-97.837908,30.496351],[-97.838283,30.496833],[-97.838648,30.496754],[-97.838981,30.496736],[-97.839246,30.496897],[-97.83931,30.497239],[-97.838983,30.497492],[-97.839508,30.498157],[-97.83988,30.497965],[-97.840283,30.497818],[-97.840163,30.497522],[-97.840265,30.497266],[-97.840418,30.497135],[-97.840612,30.497038],[-97.840871,30.496995],[-97.841087,30.497086],[-97.841249,30.497349],[-97.841352,30.497745],[-97.841612,30.498352],[-97.841712,30.498654],[-97.841862,30.49895],[-97.842329,30.498719],[-97.842119,30.498432],[-97.842753,30.4981],[-97.842587,30.497868],[-97.84287,30.497532],[-97.842824,30.497443],[-97.84244,30.49729],[-97.842549,30.497171],[-97.842412,30.497105],[-97.84222,30.497064],[-97.842125,30.496947],[-97.841373,30.49629],[-97.839789,30.494338],[-97.839518,30.494531],[-97.838343,30.495955],[-97.837908,30.496351]]]}},{"type":"Feature","properties":{"name":"Discovery Well Cave Preserve","leisure":"park"},"geometry":{"type":"Polygon","coordinates":[[[-97.857385,30.491121],[-97.855513,30.4899],[-97.853578,30.492079],[-97.850624,30.490186],[-97.850726,30.490063],[-97.850144,30.489676],[-97.850684,30.489257],[-97.849853,30.488704],[-97.849846,30.488636],[-97.851754,30.487157],[-97.853295,30.485921],[-97.853683,30.486217],[-97.85401,30.486435],[-97.858471,30.488523],[-97.858983,30.488795],[-97.859239,30.488976],[-97.859568,30.489287],[-97.859738,30.489492],[-97.859937,30.489782],[-97.860053,30.490016],[-97.860121,30.490214],[-97.860231,30.490583],[-97.860279,30.491014],[-97.860251,30.491324],[-97.860173,30.491719],[-97.859162,30.493407],[-97.857992,30.494861],[-97.857695,30.494765],[-97.856839,30.494208],[-97.858343,30.491745],[-97.857385,30.491121]]]}},{"type":"Feature","properties":{"name":"Research Plot 1","landuse":"greenhouse_horticulture"},"geometry":{"type":"Polygon","coordinates":[[[-97.876812,30.183619],[-97.876809,30.183077],[-97.875995,30.18308],[-97.875997,30.183622],[-97.876812,30.183619]]]}},{"type":"Feature","properties":{"name":"Vickery Wholesale Greenhouse","landuse":"greenhouse_horticulture"},"geometry":{"type":"Polygon","coordinates":[[[-97.61743,30.314089],[-97.617474,30.314022],[-97.617312,30.313942],[-97.617548,30.313583],[-97.617707,30.313662],[-97.617761,30.31358],[-97.617936,30.313666],[-97.617645,30.314109],[-97.617609,30.314091],[-97.617515,30.314235],[-97.617379,30.314167],[-97.61743,30.314089]]]}}],"attribution":"© OpenStreetMap contributors"}