{"type":"FeatureCollection","features":[{"type":"Feature","properties":{"landuse":"greenhouse_horticulture"},"geometry":{"type":"Polygon","coordinates":[[[-105.937476,35.619635],[-105.937464,35.619657],[-105.937484,35.619689],[-105.937513,35.619695],[-105.937546,35.619677],[-105.937552,35.619655],[-105.937529,35.619628],[-105.937476,35.619635]]]}},{"type":"Feature","properties":{"landuse":"greenhouse_horticulture"},"geometry":{"type":"Polygon","coordinates":[[[-105.965079,35.682243],[-105.965113,35.682263],[-105.965155,35.682216],[-105.965178,35.68223],[-105.96528,35.682117],[-105.965413,35.682196],[-105.965243,35.682384],[-105.965054,35.682271],[-105.965079,35.682243]]]}},{"type":"Feature","properties":{"landuse":"greenhouse_horticulture"},"geometry":{"type":"Polygon","coordinates":[[[-105.965908,35.68235],[-105.965732,35.682551],[-105.965465,35.682398],[-105.965641,35.682196],[-105.965908,35.68235]]]}},{"type":"Feature","properties":{"landuse":"greenhouse_horticulture"},"geometry":{"type":"Polygon","coordinates":[[[-105.966077,35.682114],[-105.965912,35.68231],[-105.965771,35.682229],[-105.965934,35.682035],[-105.966077,35.682114]]]}},{"type":"Feature","properties":{"landuse":"greenhouse_horticulture"},"geometry":{"type":"Polygon","coordinates":[[[-105.966132,35.6821],[-105.965681,35.682626],[-105.965787,35.682686],[-105.965633,35.682866],[-105.965126,35.682579],[-105.965329,35.682342],[-105.965451,35.682412],[-105.965854,35.681943],[-105.966132,35.6821]]]}},{"type":"Feature","properties":{"landuse":"greenhouse_horticulture"},"geometry":{"type":"Polygon","coordinates":[[[-105.966503,35.681626],[-105.966407,35.681574],[-105.966265,35.681749],[-105.966361,35.681801],[-105.966503,35.681626]]]}},{"type":"Feature","properties":{"landuse":"greenhouse_horticulture"},"geometry":{"type":"Polygon","coordinates":[[[-105.96658,35.681902],[-105.966488,35.681866],[-105.966599,35.681682],[-105.966691,35.681718],[-105.96658,35.681902]]]}},{"type":"Feature","properties":{"landuse":"greenhouse_horticulture"},"geometry":{"type":"Polygon","coordinates":[[[-105.969106,35.646074],[-105.968776,35.646079],[-105.968774,35.646015],[-105.969105,35.646011],[-105.969106,35.646074]]]}},{"type":"Feature","properties":{"landuse":"greenhouse_horticulture"},"geometry":{"type":"Polygon","coordinates":[[[-106.029443,35.622949],[-106.029448,35.623307],[-106.02943,35.623307],[-106.029431,35.623361],[-106.0291,35.623364],[-106.0291,35.62331],[-106.029051,35.62331],[-106.02905,35.622951],[-106.029443,35.622949]]]}},{"type":"Feature","properties":{"landuse":"greenhouse_horticulture"},"geometry":{"type":"Polygon","coordinates":[[[-106.664378,35.080245],[-106.6643,35.080622],[-106.663428,35.080502],[-106.663506,35.080124],[-106.664378,35.080245]]]}},{"type":"Feature","properties":{"name":"Pronoun Cave Area of Critical Environmental Concern","leisure":"nature_reserve","boundary":"protected_area"},"geometry":{"type":"Polygon","coordinates":[[[-107.346642,34.74629],[-107.346767,34.753546],[-107.351156,34.753552],[-107.359761,34.75353],[-107.359604,34.768008],[-107.350889,34.767924],[-107.342106,34.767905],[-107.342081,34.760675],[-107.342378,34.753539],[-107.33364,34.753568],[-107.33377,34.739068],[-107.333756,34.73175],[-107.342371,34.731768],[-107.342207,34.739061],[-107.342232,34.746267],[-107.346642,34.74629]]]}}],"attribution":"© OpenStreetMap contributors"}