{"type":"FeatureCollection","features":[{"type":"Feature","properties":{"highway":"track"},"geometry":{"type":"LineString","coordinates":[[-106.616294,31.701078],[-106.616251,31.701265],[-106.616206,31.701466],[-106.615982,31.702416],[-106.615798,31.703245],[-106.615638,31.703967],[-106.615472,31.704667],[-106.615321,31.705358],[-106.615225,31.705805],[-106.615174,31.70596],[-106.615107,31.70606],[-106.61503,31.706159],[-106.614992,31.706227],[-106.615,31.706318],[-106.61503,31.706419],[-106.61504,31.706517],[-106.615021,31.706633],[-106.614992,31.706779],[-106.614848,31.707392],[-106.61436,31.709553]]}},{"type":"Feature","properties":{"highway":"track"},"geometry":{"type":"LineString","coordinates":[[-106.61436,31.709553],[-106.614069,31.710873],[-106.613847,31.711844],[-106.613806,31.712006],[-106.613789,31.712069],[-106.613768,31.712114],[-106.613735,31.712149],[-106.613694,31.712176],[-106.613639,31.712205],[-106.613588,31.712232],[-106.613534,31.712269],[-106.613486,31.712314],[-106.613461,31.712356],[-106.613447,31.712397],[-106.613448,31.712442],[-106.613473,31.712534],[-106.61353,31.712649],[-106.613564,31.712739],[-106.613577,31.712845],[-106.613581,31.712941],[-106.613566,31.713052],[-106.613533,31.7132],[-106.613467,31.71349],[-106.613412,31.713695],[-106.613383,31.713823],[-106.613348,31.71393],[-106.613297,31.714054],[-106.613241,31.714202],[-106.612731,31.715409],[-106.612165,31.716862]]}},{"type":"Feature","properties":{"highway":"cycleway","surface":"unpaved"},"geometry":{"type":"LineString","coordinates":[[-106.613473,31.712534],[-106.613023,31.712238],[-106.612278,31.711935],[-106.611823,31.711853],[-106.611647,31.711911],[-106.611248,31.71194]]}},{"type":"Feature","properties":{"highway":"cycleway","surface":"unpaved"},"geometry":{"type":"LineString","coordinates":[[-106.611823,31.711853],[-106.611993,31.711498],[-106.611993,31.711399],[-106.611942,31.711267],[-106.611825,31.71109],[-106.611371,31.71066],[-106.610957,31.710274],[-106.610581,31.709888],[-106.610282,31.70948],[-106.610023,31.709149],[-106.609712,31.708708],[-106.609712,31.708565],[-106.609712,31.708433],[-106.609751,31.708333],[-106.609772,31.708289],[-106.609816,31.708201],[-106.61331,31.706847],[-106.614625,31.706337],[-106.614992,31.706227]]}},{"type":"Feature","properties":{"highway":"cycleway","name":"Kamikase","surface":"unpaved"},"geometry":{"type":"LineString","coordinates":[[-106.59921,31.715463],[-106.603435,31.71497],[-106.606519,31.714611],[-106.613383,31.713823],[-106.613513,31.713796]]}},{"type":"Feature","properties":{"highway":"cycleway","surface":"unpaved"},"geometry":{"type":"LineString","coordinates":[[-106.613513,31.713796],[-106.613635,31.713775],[-106.614786,31.714022],[-106.615669,31.714067],[-106.616606,31.714277],[-106.6174,31.714222]]}},{"type":"Feature","properties":{"highway":"cycleway","surface":"unpaved"},"geometry":{"type":"LineString","coordinates":[[-106.6174,31.714222],[-106.617941,31.713313],[-106.617987,31.71323],[-106.618156,31.712906],[-106.619222,31.711126],[-106.619568,31.710551]]}},{"type":"Feature","properties":{"highway":"cycleway"},"geometry":{"type":"LineString","coordinates":[[-106.619568,31.710551],[-106.619727,31.710002],[-106.619941,31.709117],[-106.620023,31.708773],[-106.620081,31.708533],[-106.620145,31.708031],[-106.620145,31.707583],[-106.620027,31.706908],[-106.619405,31.705959],[-106.619238,31.70563]]}},{"type":"Feature","properties":{"waterway":"stream"},"geometry":{"type":"LineString","coordinates":[[-106.5943,31.714471],[-106.594788,31.71463],[-106.595043,31.714792],[-106.595039,31.714929],[-106.595118,31.7151],[-106.595421,31.715266],[-106.595594,31.715297],[-106.595721,31.715422],[-106.595757,31.715574],[-106.595838,31.71576],[-106.59601,31.715834],[-106.596072,31.71586],[-106.596244,31.715703],[-106.596271,31.715689],[-106.596365,31.715757],[-106.596518,31.715958],[-106.596792,31.71604],[-106.597034,31.71632],[-106.598,31.716886],[-106.598772,31.71758],[-106.59982,31.718118],[-106.600124,31.718273],[-106.600489,31.718912],[-106.600897,31.719405],[-106.601304,31.719916],[-106.601733,31.720172],[-106.602184,31.720829],[-106.6033,31.721121],[-106.603622,31.721614],[-106.604072,31.722307],[-106.604287,31.722672],[-106.604287,31.722935],[-106.604287,31.723074],[-106.604716,31.723585],[-106.604823,31.724078],[-106.606068,31.724461],[-106.606304,31.725154],[-106.607012,31.725428],[-106.60742,31.726359],[-106.607577,31.726954],[-106.607804,31.727442],[-106.608388,31.727782],[-106.609357,31.728295],[-106.610209,31.728494],[-106.611175,31.72906],[-106.612419,31.729717],[-106.613321,31.730173],[-106.614372,31.730849],[-106.615681,31.731561],[-106.616689,31.732126]]}},{"type":"Feature","properties":{"waterway":"stream"},"geometry":{"type":"LineString","coordinates":[[-106.605939,31.714312],[-106.606519,31.714611],[-106.607312,31.714933],[-106.608281,31.715441],[-106.609565,31.716047],[-106.610424,31.716065],[-106.612165,31.716862],[-106.612752,31.717059],[-106.613801,31.717458],[-106.614059,31.71757],[-106.614464,31.717695],[-106.614858,31.717754],[-106.615129,31.7178],[-106.615351,31.717857],[-106.615515,31.71796],[-106.615668,31.718065],[-106.615754,31.718179],[-106.615845,31.718382],[-106.615968,31.71859],[-106.616116,31.718771],[-106.616242,31.71887],[-106.616379,31.718959],[-106.616537,31.719053],[-106.616899,31.71911],[-106.617352,31.719185],[-106.618406,31.719423],[-106.619028,31.720007],[-106.619586,31.720044],[-106.62023,31.720409],[-106.622976,31.720847]]}},{"type":"Feature","properties":{"waterway":"stream"},"geometry":{"type":"LineString","coordinates":[[-106.587194,31.703365],[-106.587167,31.703398],[-106.587153,31.703425],[-106.587178,31.703444],[-106.587165,31.703475],[-106.587145,31.703526],[-106.587165,31.703553],[-106.587141,31.703598],[-106.587098,31.703662],[-106.587029,31.7037],[-106.586986,31.703728],[-106.58695,31.703797],[-106.586986,31.703828],[-106.586954,31.703883],[-106.586975,31.703904],[-106.586952,31.703956],[-106.586959,31.703974],[-106.586983,31.703994],[-106.58698,31.704032],[-106.58695,31.704055],[-106.586968,31.704084],[-106.586958,31.704139],[-106.586948,31.704179],[-106.586933,31.704205],[-106.586899,31.704205],[-106.586864,31.704229],[-106.586846,31.704245],[-106.586847,31.704284],[-106.586837,31.704318],[-106.586802,31.704367],[-106.586763,31.704509],[-106.586702,31.704617],[-106.586747,31.704744],[-106.586793,31.704823],[-106.586901,31.70477],[-106.58701,31.704781],[-106.587022,31.704893],[-106.587042,31.704975],[-106.587179,31.70515],[-106.587417,31.705203],[-106.587515,31.705276],[-106.587567,31.705395],[-106.587615,31.705439],[-106.587681,31.7054],[-106.587795,31.705436],[-106.587832,31.705474],[-106.58778,31.705553],[-106.587766,31.705714],[-106.587821,31.705812],[-106.587904,31.705838],[-106.587964,31.705933],[-106.588013,31.706015],[-106.587982,31.706081],[-106.58803,31.70613],[-106.587968,31.706166],[-106.587947,31.70624],[-106.588144,31.706346],[-106.588216,31.706452],[-106.588249,31.706558],[-106.588297,31.706718],[-106.588421,31.70678],[-106.58871,31.706824],[-106.589222,31.706945],[-106.589716,31.707292],[-106.590531,31.707329],[-106.591003,31.707657],[-106.59139,31.707438],[-106.591873,31.707846],[-106.592175,31.708254],[-106.592573,31.708363],[-106.593232,31.708627],[-106.593914,31.708573],[-106.594527,31.708432],[-106.594921,31.708066],[-106.595775,31.70836],[-106.596154,31.708489],[-106.596648,31.708288],[-106.59742,31.708581],[-106.598193,31.708453],[-106.598837,31.7088],[-106.600081,31.709165],[-106.600746,31.709128],[-106.601562,31.709475],[-106.602935,31.709475],[-106.60375,31.709621],[-106.604086,31.709854],[-106.604154,31.709922],[-106.604246,31.71001],[-106.604347,31.710122],[-106.604512,31.710286],[-106.604759,31.710552],[-106.60536,31.711666],[-106.606154,31.712104],[-106.606583,31.712104],[-106.607012,31.711757],[-106.607527,31.711994],[-106.6086,31.712432],[-106.609415,31.712377],[-106.610102,31.712542],[-106.610727,31.712698],[-106.611612,31.712931],[-106.611961,31.71294],[-106.612334,31.712943],[-106.612873,31.712999],[-106.613232,31.713141],[-106.613467,31.71349],[-106.613635,31.713775],[-106.613857,31.714148],[-106.614329,31.714568],[-106.614855,31.714665],[-106.615298,31.714729],[-106.615558,31.714763],[-106.615923,31.714759],[-106.616175,31.71477],[-106.616414,31.714813],[-106.616628,31.714905],[-106.616871,31.71502],[-106.61702,31.715096],[-106.617199,31.715167],[-106.617508,31.715219],[-106.617989,31.715275],[-106.61868,31.715518],[-106.619243,31.715634],[-106.619878,31.715706],[-106.620509,31.715807],[-106.620705,31.715838]]}},{"type":"Feature","properties":{"waterway":"stream"},"geometry":{"type":"LineString","coordinates":[[-106.613255,31.708862],[-106.61377,31.709154],[-106.61436,31.709553],[-106.614714,31.709793],[-106.615637,31.710651],[-106.616602,31.710742],[-106.618104,31.710706],[-106.619222,31.711126],[-106.61959,31.711265],[-106.621216,31.711874],[-106.622804,31.71244],[-106.623331,31.712691],[-106.624263,31.713134],[-106.624752,31.713121],[-106.625511,31.712947],[-106.625973,31.713034],[-106.626192,31.713231],[-106.626423,31.71322],[-106.626719,31.713406],[-106.627053,31.713471],[-106.627426,31.71381],[-106.627953,31.714084],[-106.629212,31.714149],[-106.630626,31.714346],[-106.631744,31.714401],[-106.63258,31.714455],[-106.633441,31.714959],[-106.634058,31.715352],[-106.634816,31.715779],[-106.635112,31.716402],[-106.6353,31.716568],[-106.636083,31.716992],[-106.636508,31.717914],[-106.637364,31.718542],[-106.637556,31.719031],[-106.638117,31.719458],[-106.638457,31.71986],[-106.639018,31.720551],[-106.639889,31.722372],[-106.639623,31.724445],[-106.638826,31.72565],[-106.63817,31.727408],[-106.638845,31.729436],[-106.639519,31.731162]]}},{"type":"Feature","properties":{"waterway":"stream"},"geometry":{"type":"LineString","coordinates":[[-106.602731,31.701129],[-106.603054,31.700898],[-106.603124,31.700786],[-106.603306,31.700752],[-106.603477,31.700632],[-106.603689,31.70034],[-106.60382,31.70028],[-106.604223,31.700246],[-106.604526,31.700006],[-106.604896,31.699937],[-106.605172,31.699791],[-106.605448,31.699751],[-106.605857,31.699848],[-106.606238,31.699637],[-106.606467,31.699443],[-106.606819,31.699321],[-106.60721,31.699151],[-106.607591,31.699111],[-106.607938,31.699393],[-106.60862,31.699461],[-106.609651,31.699556],[-106.609993,31.699588],[-106.610573,31.69988],[-106.611216,31.699899],[-106.611882,31.699844],[-106.612568,31.699844],[-106.613191,31.699643],[-106.614049,31.700118],[-106.614714,31.700081],[-106.615422,31.700264],[-106.616073,31.700439],[-106.616302,31.700501],[-106.616967,31.700519],[-106.618426,31.700519],[-106.619843,31.701049],[-106.621109,31.702144],[-106.622525,31.703459],[-106.62555,31.705503],[-106.627653,31.707183],[-106.629842,31.709355]]}},{"type":"Feature","properties":{"waterway":"stream"},"geometry":{"type":"LineString","coordinates":[[-106.608491,31.70083],[-106.609436,31.700136],[-106.609942,31.700022],[-106.610573,31.69988]]}},{"type":"Feature","properties":{"waterway":"stream"},"geometry":{"type":"LineString","coordinates":[[-106.606803,31.705619],[-106.606932,31.705553],[-106.606993,31.705507],[-106.607128,31.705507],[-106.607308,31.70543],[-106.607376,31.705355],[-106.607454,31.705269],[-106.607998,31.70501],[-106.6095,31.70501],[-106.610744,31.705905],[-106.612504,31.706671],[-106.61331,31.706847],[-106.613598,31.706909],[-106.614328,31.707329],[-106.614848,31.707392],[-106.615229,31.707438],[-106.616517,31.708059],[-106.618061,31.708406],[-106.619263,31.708698],[-106.620023,31.708773],[-106.620551,31.708826],[-106.621115,31.708908],[-106.621674,31.709051],[-106.622462,31.709116],[-106.622753,31.709227],[-106.623441,31.709083],[-106.62416,31.709051],[-106.624764,31.709149]]}},{"type":"Feature","properties":{"highway":"cycleway","surface":"unpaved"},"geometry":{"type":"LineString","coordinates":[[-106.611248,31.71194],[-106.610644,31.711887],[-106.609951,31.711763],[-106.608659,31.711076],[-106.605896,31.709819],[-106.605711,31.709828],[-106.605407,31.709938],[-106.604946,31.710125],[-106.604714,31.710205],[-106.604512,31.710286],[-106.60417,31.710424]]}},{"type":"Feature","properties":{"highway":"unclassified","surface":"unpaved"},"geometry":{"type":"LineString","coordinates":[[-106.619053,31.713193],[-106.618911,31.713646],[-106.61885,31.713817],[-106.618801,31.713929],[-106.618722,31.714087],[-106.618613,31.714265],[-106.618494,31.714431],[-106.618353,31.714619],[-106.618264,31.714744],[-106.618152,31.714929],[-106.618063,31.715088],[-106.618012,31.715194],[-106.617989,31.715275],[-106.617977,31.715336],[-106.617979,31.715376],[-106.617989,31.715432],[-106.618011,31.715508],[-106.618019,31.715572],[-106.618015,31.715634],[-106.618,31.715695],[-106.617972,31.715771],[-106.61792,31.715886],[-106.617685,31.716413],[-106.617344,31.717216],[-106.617141,31.717768]]}},{"type":"Feature","properties":{"highway":"track"},"geometry":{"type":"LineString","coordinates":[[-106.613396,31.737169],[-106.613286,31.737179],[-106.613159,31.737191],[-106.612921,31.737201],[-106.612495,31.737218],[-106.612302,31.73723],[-106.612174,31.737237],[-106.612023,31.737244],[-106.611784,31.737251],[-106.611594,31.737261],[-106.611014,31.737301],[-106.610422,31.737347],[-106.609121,31.737418],[-106.608142,31.737463],[-106.607321,31.737518],[-106.604698,31.737669],[-106.603944,31.737703],[-106.603611,31.737719]]}},{"type":"Feature","properties":{"highway":"track"},"geometry":{"type":"LineString","coordinates":[[-106.613396,31.737169],[-106.613517,31.737171],[-106.61364,31.737196],[-106.613706,31.737222],[-106.613849,31.737276],[-106.614024,31.737322],[-106.61422,31.737331],[-106.614359,31.737324],[-106.614474,31.737306],[-106.61452,31.737293],[-106.614667,31.737253],[-106.61481,31.737226],[-106.615038,31.737203],[-106.615612,31.737174],[-106.615995,31.737148],[-106.616245,31.737139],[-106.616899,31.73713],[-106.617273,31.737113],[-106.617972,31.737063],[-106.618565,31.737018],[-106.619503,31.736977],[-106.620118,31.736975],[-106.620407,31.736966],[-106.620786,31.736927],[-106.621267,31.736858],[-106.621484,31.736842],[-106.621861,31.736821],[-106.621972,31.736826],[-106.622133,31.736838],[-106.622238,31.736854],[-106.622335,31.736856],[-106.622406,31.736853],[-106.622894,31.736827],[-106.623664,31.73679],[-106.623752,31.73679],[-106.623884,31.736808],[-106.624012,31.736825],[-106.624136,31.736829],[-106.624273,31.736806],[-106.624525,31.736772],[-106.624656,31.736756],[-106.624798,31.736747],[-106.624972,31.736747],[-106.625217,31.736777],[-106.62531,31.736777],[-106.625479,31.736767],[-106.625646,31.736738],[-106.625858,31.736692],[-106.625973,31.736692],[-106.626089,31.736729],[-106.626217,31.736753],[-106.626336,31.736765],[-106.626403,31.736765],[-106.626516,31.736754],[-106.626708,31.736709],[-106.626822,31.736668],[-106.626898,31.736652],[-106.626971,31.736653],[-106.62725,31.736664],[-106.627604,31.736666],[-106.627805,31.736656],[-106.628007,31.736636],[-106.628451,31.736565],[-106.628864,31.736473],[-106.628969,31.736455],[-106.629141,31.736444],[-106.629228,31.736448],[-106.629288,31.736457],[-106.629473,31.736499],[-106.629641,31.736534],[-106.62975,31.736554],[-106.629786,31.736556],[-106.629829,31.736551],[-106.629949,31.73653],[-106.630133,31.736513],[-106.630301,31.736511],[-106.630842,31.736517],[-106.631053,31.736523],[-106.631197,31.736532],[-106.631335,31.736534],[-106.631497,31.736526],[-106.631957,31.736507],[-106.63219,31.736489],[-106.632464,31.736478],[-106.632735,31.736494],[-106.632958,31.736542],[-106.633167,31.736576],[-106.633269,31.736569],[-106.633363,31.736562],[-106.633451,31.736546],[-106.633687,31.736464],[-106.633801,31.736432],[-106.633969,31.736384],[-106.634122,31.736348],[-106.634417,31.736288],[-106.634712,31.736254],[-106.634979,31.736241],[-106.635203,31.736235],[-106.635429,31.736221],[-106.63552,31.73622],[-106.63564,31.736206],[-106.635996,31.73614],[-106.636597,31.736002],[-106.636721,31.73597],[-106.636764,31.735962],[-106.636852,31.73595],[-106.63694,31.735951],[-106.637057,31.735947],[-106.637275,31.735925],[-106.637815,31.735847],[-106.637921,31.735831],[-106.63811,31.735809],[-106.638245,31.735802],[-106.63844,31.735808],[-106.638825,31.735825],[-106.639229,31.735871],[-106.639636,31.736063],[-106.640009,31.736236]]}},{"type":"Feature","properties":{"highway":"track"},"geometry":{"type":"LineString","coordinates":[[-106.6174,31.714222],[-106.617099,31.714748],[-106.617001,31.714882],[-106.616939,31.71495],[-106.616871,31.71502],[-106.616723,31.715153],[-106.616651,31.715216],[-106.616519,31.715286],[-106.616365,31.715338],[-106.616199,31.715376],[-106.616027,31.715395],[-106.615875,31.715409],[-106.61541,31.715418],[-106.612731,31.715409],[-106.609759,31.71542],[-106.608281,31.715441],[-106.604963,31.715444],[-106.603721,31.715448],[-106.59921,31.715463]]}},{"type":"Feature","properties":{"highway":"cycleway","surface":"unpaved"},"geometry":{"type":"LineString","coordinates":[[-106.6174,31.714222],[-106.617937,31.714196],[-106.61851,31.714261],[-106.618613,31.714265]]}},{"type":"Feature","properties":{"highway":"track"},"geometry":{"type":"LineString","coordinates":[[-106.612165,31.716862],[-106.610455,31.72102],[-106.609201,31.72407],[-106.608789,31.72507],[-106.608299,31.72624]]}},{"type":"Feature","properties":{"highway":"track"},"geometry":{"type":"LineString","coordinates":[[-106.617141,31.717768],[-106.617073,31.718065],[-106.617004,31.71824],[-106.616926,31.718396],[-106.616861,31.718498],[-106.61677,31.718628],[-106.616683,31.718767],[-106.616537,31.719053],[-106.616477,31.719186],[-106.616376,31.719386],[-106.616076,31.719949],[-106.615856,31.720335],[-106.615644,31.720647],[-106.6154,31.721072],[-106.615258,31.7214],[-106.615097,31.72172],[-106.615021,31.721891],[-106.61492,31.722078],[-106.614826,31.722215],[-106.614724,31.722347],[-106.614614,31.722523],[-106.614525,31.722703],[-106.614458,31.722886],[-106.614399,31.723054],[-106.614319,31.723271],[-106.614238,31.723456],[-106.614211,31.723525],[-106.61419,31.723577],[-106.61411,31.723705],[-106.614035,31.723817],[-106.613927,31.723958],[-106.613857,31.724072],[-106.61378,31.724225],[-106.613715,31.724382],[-106.613643,31.72456],[-106.613552,31.72474],[-106.613428,31.724953],[-106.613238,31.725254],[-106.61284,31.726014]]}},{"type":"Feature","properties":{"highway":"track"},"geometry":{"type":"LineString","coordinates":[[-106.619568,31.710551],[-106.619662,31.710864],[-106.619667,31.71096],[-106.619662,31.711039],[-106.619638,31.71114],[-106.61959,31.711265],[-106.61952,31.711578],[-106.619469,31.71177],[-106.619402,31.712087],[-106.619337,31.712349],[-106.619289,31.712584],[-106.619216,31.712792],[-106.619147,31.712947],[-106.619053,31.713193]]}},{"type":"Feature","properties":{"highway":"track"},"geometry":{"type":"LineString","coordinates":[[-106.617141,31.717768],[-106.617633,31.717306]]}},{"type":"Feature","properties":{"highway":"unclassified","surface":"unpaved"},"geometry":{"type":"LineString","coordinates":[[-106.608299,31.72624],[-106.610169,31.724471],[-106.612511,31.722221],[-106.61259,31.722145],[-106.61592,31.718955],[-106.616116,31.718771],[-106.617141,31.717768]]}},{"type":"Feature","properties":{"highway":"track"},"geometry":{"type":"LineString","coordinates":[[-106.619053,31.713193],[-106.617941,31.713313],[-106.617187,31.713393]]}},{"type":"Feature","properties":{"highway":"track"},"geometry":{"type":"LineString","coordinates":[[-106.607814,31.70323],[-106.607949,31.703224],[-106.608262,31.703379],[-106.608506,31.703587],[-106.608741,31.703587],[-106.609089,31.70369],[-106.609402,31.703846],[-106.609559,31.704038],[-106.609759,31.704024],[-106.609977,31.704172],[-106.610307,31.704261],[-106.610577,31.704246],[-106.610716,31.70446],[-106.611117,31.704549],[-106.611682,31.704816],[-106.611804,31.704934],[-106.612196,31.704964],[-106.612509,31.705082],[-106.612701,31.70526],[-106.613084,31.705238],[-106.613449,31.705349],[-106.613571,31.705475],[-106.61378,31.705578],[-106.613832,31.705675],[-106.614432,31.705875],[-106.615107,31.70606]]}},{"type":"Feature","properties":{"highway":"cycleway","surface":"unpaved"},"geometry":{"type":"LineString","coordinates":[[-106.605709,31.709483],[-106.605851,31.709491],[-106.606125,31.709494],[-106.606434,31.70954],[-106.606676,31.709624],[-106.607093,31.709864],[-106.607402,31.710059],[-106.607608,31.71007],[-106.607855,31.710188],[-106.608029,31.710207],[-106.608339,31.710268],[-106.608639,31.710402],[-106.6088,31.710676],[-106.608993,31.710817],[-106.609463,31.711084],[-106.609782,31.711256],[-106.610064,31.711324],[-106.610346,31.711332],[-106.610561,31.711488],[-106.610853,31.711656],[-106.611032,31.711664],[-106.611207,31.711767],[-106.611431,31.71166],[-106.611718,31.711755],[-106.611823,31.711853]]}},{"type":"Feature","properties":{"waterway":"stream"},"geometry":{"type":"LineString","coordinates":[[-106.60567,31.718529],[-106.606103,31.718733],[-106.606736,31.719122],[-106.606857,31.719375],[-106.607138,31.719689],[-106.607908,31.719682],[-106.608317,31.719907],[-106.608622,31.720269],[-106.608774,31.720392],[-106.609143,31.720508],[-106.609416,31.720644],[-106.610041,31.720746],[-106.610234,31.720869],[-106.610455,31.72102],[-106.610796,31.721251],[-106.611461,31.72147],[-106.611919,31.7219],[-106.612456,31.722002],[-106.61259,31.722145],[-106.612673,31.722234],[-106.612889,31.72248],[-106.61313,31.722698],[-106.613306,31.723005],[-106.613571,31.723135],[-106.613932,31.723251],[-106.614211,31.723525],[-106.614638,31.723947],[-106.614999,31.724377],[-106.615496,31.724779],[-106.615705,31.725072],[-106.616234,31.725345],[-106.616499,31.725639],[-106.617213,31.726396],[-106.617983,31.727024],[-106.618858,31.727392],[-106.619981,31.727638],[-106.621056,31.728116],[-106.621994,31.728464],[-106.623109,31.7289],[-106.623582,31.728852],[-106.623959,31.728866],[-106.62469,31.728532]]}},{"type":"Feature","properties":{"waterway":"stream"},"geometry":{"type":"LineString","coordinates":[[-106.597583,31.721661],[-106.597773,31.721656],[-106.598158,31.721876],[-106.598716,31.722096],[-106.599102,31.722307],[-106.599153,31.722561],[-106.599435,31.722605],[-106.599602,31.722576],[-106.599786,31.722635],[-106.59989,31.722825],[-106.600212,31.722967],[-106.600539,31.722933],[-106.600781,31.723006],[-106.600896,31.723119],[-106.600936,31.723373],[-106.601103,31.723437],[-106.601368,31.723403],[-106.601598,31.723437],[-106.601684,31.723559],[-106.601868,31.723706],[-106.602063,31.723911],[-106.602391,31.72397],[-106.602667,31.724024],[-106.602656,31.724249],[-106.603001,31.724455],[-106.603076,31.724699],[-106.603185,31.724826],[-106.603685,31.725144],[-106.603984,31.725506],[-106.604215,31.725707],[-106.60445,31.725966],[-106.604639,31.726082],[-106.605043,31.726328],[-106.605796,31.726803],[-106.606596,31.727248],[-106.607028,31.727483],[-106.607263,31.72761],[-106.60755,31.728058],[-106.607867,31.728554],[-106.608436,31.729253],[-106.609,31.730002],[-106.609115,31.730672],[-106.609598,31.731528],[-106.609845,31.732105],[-106.610012,31.732736],[-106.610271,31.73302],[-106.610996,31.733495],[-106.611513,31.734248],[-106.612721,31.735901],[-106.613519,31.737053],[-106.613706,31.737222],[-106.613882,31.737379],[-106.614142,31.737421],[-106.614381,31.737404],[-106.61452,31.737293],[-106.614805,31.737067],[-106.615024,31.736934],[-106.615643,31.737099],[-106.616343,31.737025],[-106.616892,31.736927],[-106.617205,31.736909],[-106.617601,31.736986],[-106.618055,31.736916],[-106.618929,31.736902],[-106.619816,31.736867],[-106.620418,31.736801],[-106.620991,31.736832],[-106.621387,31.73673],[-106.624067,31.736657],[-106.625787,31.736573],[-106.626582,31.736559],[-106.628389,31.736467],[-106.629411,31.73641],[-106.631016,31.73635],[-106.631796,31.7363],[-106.632719,31.736265],[-106.633012,31.736252],[-106.633535,31.736338],[-106.633801,31.736432],[-106.634111,31.736541],[-106.634927,31.736743],[-106.636048,31.737205],[-106.636666,31.737298],[-106.637087,31.737321],[-106.637617,31.737142],[-106.638323,31.737113],[-106.63854,31.736968],[-106.639082,31.736842],[-106.639576,31.736781],[-106.639955,31.736535]]}},{"type":"Feature","properties":{"name":"Lomas de Poleo","place":"hamlet"},"geometry":{"type":"Point","coordinates":[-106.574558,31.765418]}},{"type":"Feature","properties":{"name":"Anexas","place":"suburb"},"geometry":{"type":"Point","coordinates":[-106.510819,31.727346]}},{"type":"Feature","properties":{"amenity":"pharmacy"},"geometry":{"type":"Point","coordinates":[-106.498629,31.742076]}},{"type":"Feature","properties":{"name":"Felipe Ángeles","place":"suburb"},"geometry":{"type":"Point","coordinates":[-106.52081,31.758066]}},{"type":"Feature","properties":{"name":"Postal","place":"suburb"},"geometry":{"type":"Point","coordinates":[-106.508879,31.745713]}},{"type":"Feature","properties":{"name":"Durango","place":"suburb"},"geometry":{"type":"Point","coordinates":[-106.504674,31.742173]}},{"type":"Feature","properties":{"amenity":"pharmacy"},"geometry":{"type":"Point","coordinates":[-106.513539,31.764197]}},{"type":"Feature","properties":{"natural":"peak"},"geometry":{"type":"Point","coordinates":[-106.530695,31.767442]}},{"type":"Feature","properties":{"ele":"1580","natural":"peak"},"geometry":{"type":"Point","coordinates":[-106.585052,31.721063]}},{"type":"Feature","properties":{"access":"yes","amenity":"drinking_water","name":"El Pocito","natural":"spring"},"geometry":{"type":"Point","coordinates":[-106.513001,31.707473]}},{"type":"Feature","properties":{"amenity":"pharmacy","name":"Farmalivio"},"geometry":{"type":"Point","coordinates":[-106.507778,31.745287]}},{"type":"Feature","properties":{"amenity":"police","name":"Estacion de Policia Distrito Delicias"},"geometry":{"type":"Point","coordinates":[-106.493203,31.740696]}},{"type":"Feature","properties":{"amenity":"drinking_water"},"geometry":{"type":"Point","coordinates":[-106.490083,31.756995]}},{"type":"Feature","properties":{"name":"Cerro de la Biblia","natural":"peak"},"geometry":{"type":"Point","coordinates":[-106.520527,31.704192]}},{"type":"Feature","properties":{"ele":"1380","name":"Cerrito Castejón","natural":"peak"},"geometry":{"type":"Point","coordinates":[-106.583583,31.707994]}},{"type":"Feature","properties":{"ele":"1400","name":"Cerro de la Cruz","natural":"peak"},"geometry":{"type":"Point","coordinates":[-106.50794,31.705021]}},{"type":"Feature","properties":{"name":"Cima Real","natural":"peak"},"geometry":{"type":"Point","coordinates":[-106.50545,31.702422]}},{"type":"Feature","properties":{"amenity":"pharmacy"},"geometry":{"type":"Point","coordinates":[-106.529819,31.732883]}},{"type":"Feature","properties":{"amenity":"doctors","name":"Maspóns Pediatric Gastro"},"geometry":{"type":"Point","coordinates":[-106.497185,31.769117]}},{"type":"Feature","properties":{"amenity":"shelter"},"geometry":{"type":"Point","coordinates":[-106.501929,31.7642]}},{"type":"Feature","properties":{"ele":"1190","natural":"peak"},"geometry":{"type":"Point","coordinates":[-106.519138,31.755355]}},{"type":"Feature","properties":{"name":"Las Marraneras","place":"suburb"},"geometry":{"type":"Point","coordinates":[-106.546041,31.72785]}},{"type":"Feature","properties":{"highway":"motorway_link","oneway":"yes"},"geometry":{"type":"LineString","coordinates":[[-106.499201,31.759047],[-106.499837,31.759204],[-106.499998,31.759249],[-106.500386,31.759364],[-106.500653,31.759455],[-106.500955,31.759552],[-106.501338,31.759689],[-106.501692,31.759833],[-106.501878,31.759917],[-106.502086,31.760032]]}},{"type":"Feature","properties":{"highway":"motorway_link","oneway":"yes","surface":"concrete"},"geometry":{"type":"LineString","coordinates":[[-106.507494,31.766555],[-106.507533,31.766569],[-106.507576,31.766599],[-106.507611,31.766628],[-106.507637,31.766657],[-106.507893,31.767046],[-106.508246,31.767522],[-106.509266,31.768967],[-106.509392,31.769164]]}},{"type":"Feature","properties":{"highway":"motorway_link","oneway":"yes"},"geometry":{"type":"LineString","coordinates":[[-106.508235,31.76611],[-106.508143,31.765968],[-106.507754,31.765406],[-106.507309,31.764845],[-106.507076,31.764554],[-106.506909,31.764344],[-106.506442,31.763887]]}},{"type":"Feature","properties":{"highway":"motorway_link","oneway":"yes","surface":"asphalt"},"geometry":{"type":"LineString","coordinates":[[-106.493522,31.76153],[-106.493613,31.761468],[-106.493627,31.761459],[-106.493763,31.761336],[-106.493868,31.761221],[-106.493947,31.761121],[-106.494045,31.760987],[-106.494133,31.760877],[-106.494219,31.760784],[-106.494294,31.760698],[-106.494396,31.760593],[-106.494525,31.760471],[-106.49463,31.760385],[-106.494782,31.760265],[-106.49495,31.760147],[-106.495142,31.760017]]}},{"type":"Feature","properties":{"highway":"motorway_link","oneway":"yes","surface":"concrete"},"geometry":{"type":"LineString","coordinates":[[-106.504774,31.762144],[-106.505291,31.762981],[-106.505662,31.763536],[-106.505901,31.763877],[-106.506116,31.764186]]}},{"type":"Feature","properties":{"highway":"motorway_link","oneway":"yes"},"geometry":{"type":"LineString","coordinates":[[-106.504397,31.761285],[-106.504086,31.760828],[-106.503924,31.760632],[-106.503778,31.76047],[-106.503675,31.760355],[-106.503541,31.76022],[-106.503338,31.760051],[-106.503142,31.759899],[-106.502923,31.759743],[-106.502784,31.759658],[-106.502725,31.759622],[-106.502613,31.759567]]}},{"type":"Feature","properties":{"highway":"motorway_link","oneway":"yes"},"geometry":{"type":"LineString","coordinates":[[-106.501299,31.759065],[-106.501053,31.759031],[-106.500818,31.75899],[-106.500537,31.758941],[-106.500205,31.758885],[-106.49999,31.758853],[-106.49982,31.758832],[-106.499613,31.758808],[-106.499209,31.758861]]}},{"type":"Feature","properties":{"highway":"motorway_link","oneway":"yes"},"geometry":{"type":"LineString","coordinates":[[-106.495472,31.759507],[-106.495256,31.759556],[-106.495019,31.759665],[-106.494831,31.759755],[-106.494747,31.759798],[-106.494701,31.759821],[-106.494531,31.759917],[-106.494446,31.759968],[-106.494336,31.76]]}},{"type":"Feature","properties":{"highway":"tertiary","name":"West Franklin Avenue"},"geometry":{"type":"LineString","coordinates":[[-106.496827,31.759322],[-106.496619,31.758743],[-106.496603,31.758713],[-106.496543,31.758628],[-106.496455,31.758541],[-106.496377,31.75849],[-106.496309,31.758457],[-106.496219,31.758423],[-106.496035,31.758389],[-106.495597,31.758347],[-106.495369,31.758326]]}},{"type":"Feature","properties":{"highway":"tertiary","name":"Arizona Avenue","oneway":"yes"},"geometry":{"type":"LineString","coordinates":[[-106.492911,31.765363],[-106.493021,31.765293],[-106.493344,31.765088],[-106.493657,31.764886],[-106.493688,31.764867],[-106.493712,31.764851],[-106.493767,31.764816]]}},{"type":"Feature","properties":{"highway":"unclassified","name":"West Crosby Avenue"},"geometry":{"type":"LineString","coordinates":[[-106.499942,31.766539],[-106.500305,31.766304],[-106.500372,31.766261],[-106.500428,31.766228],[-106.501155,31.765794],[-106.501236,31.765746]]}},{"type":"Feature","properties":{"highway":"residential","name":"West Crosby Avenue"},"geometry":{"type":"LineString","coordinates":[[-106.496953,31.76844],[-106.497003,31.768408],[-106.497039,31.768386],[-106.497058,31.768375],[-106.497141,31.768322],[-106.497386,31.768167],[-106.497696,31.767972],[-106.497808,31.767901],[-106.497899,31.767844],[-106.498055,31.767746]]}},{"type":"Feature","properties":{"highway":"residential","name":"Fewel Street"},"geometry":{"type":"LineString","coordinates":[[-106.500288,31.761476],[-106.499974,31.761842],[-106.499657,31.762211]]}},{"type":"Feature","properties":{"highway":"residential","name":"Fewel Street"},"geometry":{"type":"LineString","coordinates":[[-106.499101,31.764123],[-106.499074,31.764174],[-106.499068,31.7642],[-106.49906,31.764257],[-106.499047,31.76566]]}},{"type":"Feature","properties":{"highway":"residential","name":"Fewel Street","surface":"asphalt"},"geometry":{"type":"LineString","coordinates":[[-106.50031,31.759435],[-106.500178,31.759843],[-106.500039,31.760257],[-106.499926,31.760586],[-106.499903,31.760639],[-106.499884,31.760678],[-106.499866,31.760711],[-106.499849,31.76074],[-106.499829,31.760767],[-106.499664,31.760949],[-106.499645,31.76097],[-106.49958,31.761043]]}},{"type":"Feature","properties":{"highway":"residential","name":"Fewel Street"},"geometry":{"type":"LineString","coordinates":[[-106.499493,31.762108],[-106.499258,31.76251],[-106.49903,31.762927],[-106.49853,31.763789],[-106.498489,31.76386]]}},{"type":"Feature","properties":{"highway":"tertiary","name":"East Rio Grande Avenue","oneway":"no"},"geometry":{"type":"LineString","coordinates":[[-106.492275,31.764634],[-106.492365,31.764577],[-106.492702,31.764362],[-106.493016,31.764162],[-106.493047,31.764142],[-106.493075,31.764125],[-106.493123,31.764094]]}},{"type":"Feature","properties":{"highway":"unclassified","name":"West Main Drive","oneway":"yes"},"geometry":{"type":"LineString","coordinates":[[-106.497749,31.75923],[-106.497765,31.75922],[-106.497789,31.759213],[-106.49791,31.759204],[-106.498312,31.759185],[-106.498593,31.759185],[-106.49888,31.759193],[-106.499101,31.759209],[-106.499487,31.759251],[-106.499727,31.759289],[-106.499977,31.75934],[-106.50031,31.759435],[-106.501199,31.759715],[-106.501576,31.759842],[-106.501927,31.759978],[-106.502086,31.760032]]}},{"type":"Feature","properties":{"highway":"unclassified","name":"West San Francisco Avenue","oneway":"yes"},"geometry":{"type":"LineString","coordinates":[[-106.494514,31.757591],[-106.494007,31.757659],[-106.493539,31.757722],[-106.493511,31.757724],[-106.493481,31.757724],[-106.49345,31.757717]]}},{"type":"Feature","properties":{"highway":"secondary","name":"West Wyoming Avenue","oneway":"yes","surface":"asphalt"},"geometry":{"type":"LineString","coordinates":[[-106.492891,31.760811],[-106.492808,31.760863],[-106.492454,31.761082],[-106.492407,31.761112],[-106.492109,31.761303],[-106.492039,31.761349],[-106.491958,31.761401],[-106.491732,31.761546],[-106.491612,31.76162],[-106.49127,31.761842],[-106.49123,31.761868],[-106.491183,31.761898]]}},{"type":"Feature","properties":{"highway":"residential","name":"Flores Place"},"geometry":{"type":"LineString","coordinates":[[-106.490746,31.751221],[-106.49093,31.750964],[-106.491086,31.750745]]}},{"type":"Feature","properties":{"highway":"residential","name":"Garcia Way"},"geometry":{"type":"LineString","coordinates":[[-106.490353,31.75035],[-106.490529,31.750115]]}},{"type":"Feature","properties":{"highway":"residential","name":"Charles Road"},"geometry":{"type":"LineString","coordinates":[[-106.489908,31.750108],[-106.490079,31.750198],[-106.490269,31.750306],[-106.490353,31.75035],[-106.491086,31.750745],[-106.491597,31.751018],[-106.491916,31.751201]]}},{"type":"Feature","properties":{"highway":"tertiary","name":"Montana Avenue"},"geometry":{"type":"LineString","coordinates":[[-106.492486,31.763367],[-106.492432,31.763401],[-106.492411,31.763414],[-106.492064,31.763647],[-106.491752,31.763845],[-106.49164,31.763917]]}},{"type":"Feature","properties":{"highway":"residential","name":"West Nevada Avenue"},"geometry":{"type":"LineString","coordinates":[[-106.497067,31.764641],[-106.497583,31.764531],[-106.498087,31.764426]]}},{"type":"Feature","properties":{"highway":"residential","name":"West Nevada Avenue","surface":"asphalt"},"geometry":{"type":"LineString","coordinates":[[-106.494294,31.765417],[-106.494352,31.765382],[-106.494386,31.765367],[-106.494406,31.765357],[-106.494472,31.765326],[-106.494523,31.765301],[-106.494634,31.765249],[-106.494753,31.765194],[-106.49514,31.765016],[-106.495229,31.764976],[-106.495317,31.764939],[-106.495707,31.764776],[-106.496082,31.764621],[-106.496531,31.764439],[-106.496872,31.7643],[-106.496961,31.764274]]}},{"type":"Feature","properties":{"highway":"residential","name":"North Coldwell Street","oneway":"yes"},"geometry":{"type":"LineString","coordinates":[[-106.49541,31.759196],[-106.495427,31.759171],[-106.495432,31.759139],[-106.495391,31.758782],[-106.495361,31.758462],[-106.495363,31.758395],[-106.495369,31.758326]]}}],"attribution":"© OpenStreetMap contributors"}
