{"type":"FeatureCollection","features":[{"type":"Feature","properties":{"highway":"track"},"geometry":{"type":"LineString","coordinates":[[-106.843202,31.728389],[-106.842414,31.724294],[-106.839425,31.703817],[-106.837879,31.695346],[-106.836448,31.689573],[-106.836292,31.688773],[-106.835933,31.688551],[-106.835161,31.68828],[-106.829921,31.68843],[-106.816832,31.689256],[-106.785607,31.690912],[-106.773421,31.691731],[-106.772262,31.691622],[-106.754141,31.692475],[-106.75059,31.692315],[-106.745725,31.690048],[-106.742393,31.688372],[-106.740247,31.68797],[-106.73976,31.688222],[-106.739159,31.687893],[-106.737743,31.687638],[-106.734224,31.687784],[-106.731649,31.688368],[-106.730033,31.688335],[-106.725785,31.689321],[-106.723124,31.68954],[-106.721922,31.690088],[-106.720592,31.690453],[-106.71836,31.690782],[-106.715699,31.690964],[-106.713725,31.691147],[-106.711236,31.691549],[-106.710406,31.692348],[-106.710105,31.693261],[-106.709691,31.69374],[-106.708846,31.694326],[-106.707938,31.694729],[-106.689541,31.704365],[-106.685387,31.706637],[-106.685306,31.706678],[-106.685149,31.706715],[-106.684755,31.706698]]}},{"type":"Feature","properties":{"highway":"path","surface":"unpaved"},"geometry":{"type":"LineString","coordinates":[[-106.835161,31.68828],[-106.835902,31.688328],[-106.836502,31.688291],[-106.836696,31.687926],[-106.838949,31.682156],[-106.840484,31.678301],[-106.84103,31.676788],[-106.842704,31.672679],[-106.843004,31.672186],[-106.858411,31.664954],[-106.863389,31.65542],[-106.865964,31.650342],[-106.869569,31.646488],[-106.878731,31.637098],[-106.877336,31.605524],[-106.87719,31.6027]]}},{"type":"Feature","properties":{"highway":"track"},"geometry":{"type":"LineString","coordinates":[[-106.821294,31.748785],[-106.821058,31.744442],[-106.820521,31.737709],[-106.820178,31.732727],[-106.81992,31.729241],[-106.818719,31.711645],[-106.817153,31.693682],[-106.816832,31.689256],[-106.816831,31.680481],[-106.816745,31.674856],[-106.817088,31.665378],[-106.817217,31.659461]]}},{"type":"Feature","properties":{"highway":"track"},"geometry":{"type":"LineString","coordinates":[[-106.817088,31.665378],[-106.802604,31.671167],[-106.790459,31.67597],[-106.786854,31.677413]]}},{"type":"Feature","properties":{"highway":"track"},"geometry":{"type":"LineString","coordinates":[[-106.816867,31.689747],[-106.808369,31.690743],[-106.798234,31.691962],[-106.785371,31.69347],[-106.754449,31.697172]]}},{"type":"Feature","properties":{"highway":"track"},"geometry":{"type":"LineString","coordinates":[[-106.840484,31.678301],[-106.828827,31.678389]]}},{"type":"Feature","properties":{"highway":"track"},"geometry":{"type":"LineString","coordinates":[[-106.786039,31.650109],[-106.770611,31.650602],[-106.763744,31.650803],[-106.756449,31.651059]]}},{"type":"Feature","properties":{"highway":"track"},"geometry":{"type":"LineString","coordinates":[[-106.786082,31.65146],[-106.786254,31.658072],[-106.78649,31.664209],[-106.786541,31.667709]]}},{"type":"Feature","properties":{"highway":"track"},"geometry":{"type":"LineString","coordinates":[[-106.764338,31.68478],[-106.764312,31.68397],[-106.764273,31.6806],[-106.764221,31.678771],[-106.764117,31.673804],[-106.763987,31.66356],[-106.763856,31.657539],[-106.763809,31.652538],[-106.763744,31.650803],[-106.763637,31.643861],[-106.763637,31.642071],[-106.763551,31.633229],[-106.763444,31.629411],[-106.763337,31.624423],[-106.763294,31.617772],[-106.763101,31.608635],[-106.763093,31.606378]]}},{"type":"Feature","properties":{"highway":"track"},"geometry":{"type":"LineString","coordinates":[[-106.764273,31.6806],[-106.766918,31.680667],[-106.766944,31.684591]]}},{"type":"Feature","properties":{"highway":"track"},"geometry":{"type":"LineString","coordinates":[[-106.764273,31.6806],[-106.753018,31.680578]]}},{"type":"Feature","properties":{"highway":"track"},"geometry":{"type":"LineString","coordinates":[[-106.758085,31.68509],[-106.764338,31.68478],[-106.766944,31.684591],[-106.771373,31.68438],[-106.786275,31.683731]]}},{"type":"Feature","properties":{"highway":"track"},"geometry":{"type":"LineString","coordinates":[[-106.787541,31.669926],[-106.789285,31.673561],[-106.793115,31.681454],[-106.797425,31.690283],[-106.803237,31.702259]]}},{"type":"Feature","properties":{"highway":"track"},"geometry":{"type":"LineString","coordinates":[[-106.741363,31.724432],[-106.74134,31.717607],[-106.741405,31.710233],[-106.741362,31.707494],[-106.741383,31.700995],[-106.74134,31.692835],[-106.741277,31.688153]]}},{"type":"Feature","properties":{"highway":"trunk","name":"Carretera Samalayuca-El Oasis","oneway":"no","ref":"MEX 2","surface":"asphalt"},"geometry":{"type":"LineString","coordinates":[[-106.684906,31.764494],[-106.684925,31.758812],[-106.684925,31.75072],[-106.6849,31.745342],[-106.684799,31.735255],[-106.684779,31.731596],[-106.684783,31.715708],[-106.684755,31.706698],[-106.684724,31.704198],[-106.684721,31.687797],[-106.684688,31.679337],[-106.684691,31.670976],[-106.684665,31.654052],[-106.684673,31.634816],[-106.684658,31.632708],[-106.684658,31.624709],[-106.68463,31.613063]]}},{"type":"Feature","properties":{"highway":"track"},"geometry":{"type":"LineString","coordinates":[[-106.58879,31.651171],[-106.589283,31.65168],[-106.589763,31.652218],[-106.590926,31.653433],[-106.591308,31.653869],[-106.591531,31.654068],[-106.591877,31.654502],[-106.59296,31.655612],[-106.594771,31.657637]]}},{"type":"Feature","properties":{"highway":"track"},"geometry":{"type":"LineString","coordinates":[[-106.588496,31.654089],[-106.590351,31.652825],[-106.591477,31.652085],[-106.592936,31.651073],[-106.595474,31.649374],[-106.598072,31.647603],[-106.600663,31.645896]]}},{"type":"Feature","properties":{"highway":"track"},"geometry":{"type":"LineString","coordinates":[[-106.591877,31.654502],[-106.594454,31.652756],[-106.595562,31.652057],[-106.597059,31.651034],[-106.599554,31.649287],[-106.601153,31.649603]]}},{"type":"Feature","properties":{"highway":"track"},"geometry":{"type":"LineString","coordinates":[[-106.58618,31.652978],[-106.586999,31.653456],[-106.588256,31.654244]]}},{"type":"Feature","properties":{"highway":"track"},"geometry":{"type":"LineString","coordinates":[[-106.601287,31.659865],[-106.604406,31.668363]]}},{"type":"Feature","properties":{"highway":"cycleway"},"geometry":{"type":"LineString","coordinates":[[-106.589024,31.651018],[-106.589098,31.649747],[-106.588772,31.648937],[-106.58859,31.648716],[-106.58846,31.648627],[-106.588121,31.647939],[-106.587861,31.647795],[-106.587574,31.64724],[-106.587496,31.646719],[-106.587165,31.645922]]}},{"type":"Feature","properties":{"bicycle":"yes","foot":"yes","highway":"cycleway","oneway":"no","surface":"gravel"},"geometry":{"type":"LineString","coordinates":[[-106.567891,31.692191],[-106.568131,31.692056],[-106.568403,31.692],[-106.568565,31.691586],[-106.568478,31.691387],[-106.568389,31.691118],[-106.568452,31.691014],[-106.568878,31.690693],[-106.569074,31.690172],[-106.569126,31.689851],[-106.569425,31.689385],[-106.569634,31.688953],[-106.569595,31.688432],[-106.569673,31.688055],[-106.57022,31.687756],[-106.570454,31.687279],[-106.570715,31.686459],[-106.57108,31.686082],[-106.570793,31.685683],[-106.570585,31.685317],[-106.57022,31.684907],[-106.570103,31.684652],[-106.569673,31.684231],[-106.569503,31.683876],[-106.569282,31.683632],[-106.569217,31.683333],[-106.568566,31.68279],[-106.568096,31.68228],[-106.567836,31.681969],[-106.567549,31.681537],[-106.567132,31.681238],[-106.567002,31.68095],[-106.566598,31.68065],[-106.566442,31.680307],[-106.566155,31.680052],[-106.56609,31.679896],[-106.565869,31.679841],[-106.565647,31.679597],[-106.565426,31.679143],[-106.564683,31.678688],[-106.564657,31.678433],[-106.564488,31.678289],[-106.56424,31.677857],[-106.56398,31.677712],[-106.563641,31.677679],[-106.563198,31.677225],[-106.563224,31.67687],[-106.562938,31.676682],[-106.562482,31.676504],[-106.562,31.676149],[-106.561961,31.675751],[-106.561687,31.675152],[-106.561231,31.674996],[-106.560736,31.674475],[-106.560372,31.674276],[-106.560176,31.673888],[-106.560254,31.67361],[-106.560254,31.6732],[-106.559577,31.672336],[-106.559369,31.671803],[-106.558873,31.671582],[-106.55847,31.671271],[-106.557865,31.670616],[-106.557897,31.670297],[-106.557908,31.669859],[-106.557661,31.669484],[-106.557307,31.669301],[-106.556932,31.669037],[-106.556749,31.66869],[-106.556697,31.668434],[-106.55695,31.667819],[-106.557038,31.667348],[-106.557285,31.666976],[-106.557212,31.666481],[-106.557009,31.666006],[-106.556547,31.665202],[-106.556537,31.66491],[-106.556751,31.664554],[-106.557019,31.664399],[-106.557577,31.664034],[-106.557599,31.663796],[-106.557684,31.663614],[-106.557577,31.663431],[-106.557727,31.663267],[-106.557727,31.663102],[-106.557642,31.662801],[-106.557588,31.662198],[-106.557717,31.661267],[-106.557684,31.661057],[-106.557712,31.66098]]}},{"type":"Feature","properties":{"highway":"cycleway","surface":"unpaved"},"geometry":{"type":"LineString","coordinates":[[-106.599165,31.668643],[-106.598832,31.668734],[-106.598607,31.66909],[-106.59822,31.669236],[-106.597974,31.669364],[-106.597641,31.669364],[-106.59713,31.66952],[-106.596486,31.669629],[-106.595756,31.669666],[-106.595005,31.669666],[-106.594104,31.669702],[-106.593353,31.669867],[-106.592602,31.669922],[-106.592066,31.66994],[-106.591615,31.670177],[-106.591272,31.670616],[-106.589899,31.670725],[-106.589212,31.670853],[-106.588869,31.670835],[-106.588289,31.670981],[-106.587302,31.671017],[-106.586444,31.670762],[-106.586101,31.67078],[-106.585349,31.670616],[-106.585135,31.670488],[-106.584191,31.670232],[-106.583955,31.670068],[-106.583375,31.669867],[-106.583054,31.669575],[-106.582624,31.669374],[-106.582146,31.669606],[-106.581662,31.670141],[-106.581036,31.670646],[-106.580341,31.671155],[-106.579766,31.671512],[-106.579245,31.672063],[-106.578456,31.672805],[-106.577639,31.673512],[-106.5782,31.673756],[-106.578861,31.673688],[-106.57976,31.673965],[-106.579933,31.674076],[-106.579841,31.674554],[-106.579228,31.675381],[-106.579126,31.675894]]}},{"type":"Feature","properties":{"highway":"track"},"geometry":{"type":"LineString","coordinates":[[-106.584847,31.653859],[-106.584548,31.654059],[-106.584096,31.654275],[-106.583991,31.654366],[-106.583853,31.654564],[-106.583756,31.654783],[-106.583704,31.654863],[-106.583512,31.655096],[-106.583319,31.655284],[-106.583284,31.655368],[-106.583272,31.655735],[-106.583237,31.655813],[-106.583154,31.655916],[-106.582661,31.656363],[-106.582611,31.656432],[-106.582584,31.656483],[-106.582452,31.657022],[-106.582398,31.657186],[-106.582362,31.657259],[-106.58224,31.657423],[-106.582162,31.65757],[-106.582115,31.657783],[-106.582127,31.657856],[-106.582199,31.658009],[-106.582292,31.658137],[-106.582387,31.658234],[-106.58243,31.658307],[-106.582521,31.659037],[-106.582657,31.659458],[-106.582682,31.659585],[-106.582681,31.659655],[-106.582617,31.659853],[-106.582635,31.659971],[-106.582866,31.660653],[-106.583007,31.660965],[-106.583171,31.661239],[-106.583393,31.661518],[-106.583398,31.661593],[-106.583336,31.661728],[-106.583355,31.661807],[-106.583616,31.662091],[-106.583862,31.662534],[-106.584161,31.662957],[-106.584526,31.663293],[-106.584684,31.663547],[-106.584868,31.663703],[-106.58501,31.663854],[-106.585199,31.664131],[-106.585247,31.664264],[-106.585297,31.664348],[-106.585435,31.664508],[-106.585997,31.665262],[-106.586135,31.665412],[-106.586463,31.665616],[-106.586515,31.665742],[-106.586534,31.665902],[-106.586538,31.665996],[-106.5865,31.666153]]}},{"type":"Feature","properties":{"highway":"path"},"geometry":{"type":"LineString","coordinates":[[-106.568262,31.660633],[-106.568359,31.660838],[-106.568375,31.660966],[-106.568482,31.661161],[-106.568541,31.661363],[-106.568569,31.661545],[-106.568715,31.6618],[-106.568901,31.661891],[-106.569158,31.662188],[-106.569272,31.662376],[-106.56949,31.662437],[-106.569585,31.662564],[-106.570036,31.66278],[-106.570229,31.662894],[-106.570265,31.663002]]}},{"type":"Feature","properties":{"highway":"path","surface":"unpaved"},"geometry":{"type":"LineString","coordinates":[[-106.578475,31.667532],[-106.578121,31.667406],[-106.57803,31.667251],[-106.577841,31.667096],[-106.577667,31.666874],[-106.577335,31.666679],[-106.577153,31.666648],[-106.576955,31.666655],[-106.576714,31.66649],[-106.576512,31.666429],[-106.576465,31.666291],[-106.576275,31.66614],[-106.576046,31.666133],[-106.575907,31.666016],[-106.575638,31.665962],[-106.575504,31.665868],[-106.575168,31.665548],[-106.574871,31.665204],[-106.574586,31.664932],[-106.574412,31.664905],[-106.5742,31.664785],[-106.573891,31.664559],[-106.573803,31.664333],[-106.573706,31.664292],[-106.57367,31.664427],[-106.573555,31.66436],[-106.573436,31.664168],[-106.573303,31.664096],[-106.573096,31.664029],[-106.572557,31.663732],[-106.572402,31.663521],[-106.572574,31.663322],[-106.572495,31.6631],[-106.572239,31.663025],[-106.571982,31.66301],[-106.571678,31.662908],[-106.571443,31.662803],[-106.571253,31.662961],[-106.57098,31.663096],[-106.570661,31.663096],[-106.570441,31.663032],[-106.570265,31.663002]]}},{"type":"Feature","properties":{"waterway":"stream"},"geometry":{"type":"LineString","coordinates":[[-106.56874,31.691382],[-106.568831,31.6914],[-106.568944,31.69146],[-106.569001,31.691548],[-106.569122,31.691632],[-106.569228,31.691679],[-106.569337,31.691774],[-106.56949,31.691832],[-106.569563,31.691962],[-106.569691,31.692031],[-106.569764,31.692159],[-106.570069,31.692338],[-106.570241,31.69234],[-106.570354,31.692366],[-106.570472,31.692436],[-106.570626,31.692465],[-106.571032,31.692394],[-106.571152,31.692441],[-106.57131,31.692463],[-106.571428,31.692426],[-106.571573,31.692449],[-106.572342,31.692308],[-106.57259,31.692215],[-106.57277,31.692117],[-106.572998,31.692071],[-106.573095,31.69191],[-106.573287,31.691826],[-106.573336,31.691665],[-106.573258,31.691378],[-106.57335,31.691161],[-106.57349,31.691048],[-106.573612,31.691004],[-106.573828,31.690888],[-106.573987,31.690881],[-106.574203,31.690691],[-106.574479,31.690544],[-106.574764,31.690417],[-106.574813,31.690262],[-106.574859,31.690205],[-106.57555,31.689858],[-106.575827,31.689734],[-106.57662,31.689641],[-106.577057,31.689127],[-106.576962,31.6887],[-106.577086,31.688545],[-106.577464,31.68862],[-106.577785,31.688743],[-106.57801,31.688713],[-106.578505,31.68901],[-106.579051,31.689499],[-106.579604,31.689802],[-106.579939,31.68992],[-106.580215,31.690366],[-106.580608,31.690335],[-106.580848,31.690199],[-106.581045,31.690211],[-106.581147,31.690056],[-106.581569,31.689976],[-106.581831,31.690217],[-106.582346,31.690248],[-106.582778,31.690329],[-106.58297,31.689983],[-106.58261,31.689615],[-106.582658,31.689513],[-106.583078,31.68934],[-106.583257,31.688687],[-106.583066,31.688483],[-106.58358,31.687882],[-106.584396,31.687606],[-106.584864,31.687035],[-106.58478,31.686453],[-106.585079,31.686117],[-106.585643,31.686168],[-106.585655,31.685882],[-106.585966,31.685209],[-106.586398,31.684464],[-106.586458,31.684005],[-106.586674,31.683689],[-106.58629,31.682802],[-106.586254,31.682067],[-106.587105,31.681251],[-106.588376,31.680364],[-106.589994,31.679955],[-106.591912,31.679578],[-106.593303,31.67966],[-106.594681,31.680037],[-106.59576,31.680037],[-106.596768,31.680135],[-106.598109,31.679787],[-106.598457,31.679711],[-106.599524,31.679548],[-106.600351,31.67917],[-106.601541,31.678386],[-106.603314,31.676886],[-106.605999,31.674735],[-106.607598,31.67334]]}},{"type":"Feature","properties":{"highway":"track"},"geometry":{"type":"LineString","coordinates":[[-106.588256,31.654244],[-106.590319,31.655512],[-106.600767,31.662123]]}},{"type":"Feature","properties":{"waterway":"stream"},"geometry":{"type":"LineString","coordinates":[[-106.57646,31.667223],[-106.577823,31.667576],[-106.579876,31.668719],[-106.580943,31.669878],[-106.581871,31.670601],[-106.582285,31.67134],[-106.586629,31.673088],[-106.589176,31.673777],[-106.591348,31.674466]]}},{"type":"Feature","properties":{"waterway":"stream"},"geometry":{"type":"LineString","coordinates":[[-106.572827,31.669559],[-106.57494,31.670046],[-106.576855,31.670164],[-106.577665,31.670466],[-106.57802,31.670769],[-106.578889,31.670752],[-106.5796,31.671239],[-106.580508,31.671626],[-106.581495,31.671643],[-106.583154,31.672785],[-106.58497,31.674399],[-106.585701,31.675121],[-106.586827,31.675323],[-106.588327,31.67581],[-106.589117,31.676835],[-106.590282,31.67781],[-106.592039,31.677978],[-106.594112,31.678129],[-106.59585,31.678751],[-106.598109,31.679787]]}},{"type":"Feature","properties":{"waterway":"stream"},"geometry":{"type":"LineString","coordinates":[[-106.579501,31.677575],[-106.582581,31.677541],[-106.587636,31.678263],[-106.59044,31.678818],[-106.591664,31.679507],[-106.591912,31.679578]]}},{"type":"Feature","properties":{"waterway":"stream"},"geometry":{"type":"LineString","coordinates":[[-106.575809,31.675037],[-106.576539,31.674617],[-106.577606,31.674684],[-106.577981,31.67413],[-106.578704,31.673885],[-106.579323,31.674078],[-106.579936,31.673777],[-106.581002,31.673424],[-106.581831,31.672886],[-106.583154,31.672785]]}},{"type":"Feature","properties":{"highway":"track"},"geometry":{"type":"LineString","coordinates":[[-106.619818,31.667742],[-106.60445,31.668483],[-106.589262,31.668955]]}},{"type":"Feature","properties":{"highway":"track","name":"Potreros","surface":"unpaved"},"geometry":{"type":"LineString","coordinates":[[-106.604406,31.668363],[-106.606522,31.674279],[-106.607973,31.67817],[-106.611363,31.687592],[-106.614327,31.695406],[-106.616294,31.701078],[-106.619238,31.70563]]}},{"type":"Feature","properties":{"waterway":"stream"},"geometry":{"type":"LineString","coordinates":[[-106.575481,31.692948],[-106.575559,31.692765],[-106.575689,31.692612],[-106.576091,31.692479],[-106.576863,31.692529],[-106.576967,31.69239],[-106.576967,31.692062],[-106.57716,31.691885],[-106.577517,31.691897],[-106.57768,31.691569],[-106.577725,31.691265],[-106.57774,31.691038],[-106.577324,31.690861],[-106.577086,31.690608],[-106.576952,31.690153],[-106.5767,31.689988],[-106.576685,31.689736],[-106.57662,31.689641]]}},{"type":"Feature","properties":{"waterway":"stream"},"geometry":{"type":"LineString","coordinates":[[-106.584133,31.691719],[-106.584394,31.691661],[-106.584535,31.691584],[-106.584712,31.691538],[-106.585448,31.691523],[-106.585829,31.69128],[-106.585886,31.691005],[-106.585886,31.690665],[-106.586038,31.690405],[-106.586343,31.690365],[-106.586419,31.690211],[-106.586581,31.690097],[-106.586781,31.689862],[-106.587067,31.689781],[-106.587343,31.689303],[-106.587619,31.689384],[-106.588066,31.689319],[-106.588285,31.688817],[-106.588742,31.688606],[-106.589142,31.688501],[-106.589104,31.688274],[-106.589238,31.68808],[-106.589523,31.687861],[-106.589495,31.687618],[-106.589676,31.68748],[-106.590152,31.687415],[-106.590104,31.68714],[-106.590237,31.686864],[-106.590609,31.686678],[-106.59078,31.686402],[-106.591209,31.686257],[-106.591637,31.686224],[-106.592094,31.686103],[-106.592437,31.685779],[-106.592732,31.685341],[-106.592904,31.685017],[-106.593161,31.684596],[-106.593189,31.684288],[-106.593465,31.684061],[-106.593913,31.683939],[-106.593989,31.683704],[-106.594122,31.683575],[-106.594246,31.683024],[-106.594446,31.682635],[-106.594903,31.682359],[-106.594999,31.681994],[-106.595189,31.681759],[-106.595817,31.681468],[-106.59616,31.681176],[-106.59637,31.680698],[-106.596665,31.68039],[-106.596768,31.680135]]}},{"type":"Feature","properties":{"waterway":"stream"},"geometry":{"type":"LineString","coordinates":[[-106.58639,31.695234],[-106.586438,31.694853],[-106.586552,31.694667],[-106.586752,31.694067],[-106.586657,31.693914],[-106.586895,31.69367],[-106.587076,31.693322],[-106.587362,31.693338],[-106.587514,31.693111],[-106.587419,31.692909],[-106.5876,31.692787],[-106.58799,31.69265],[-106.588019,31.692471],[-106.588181,31.692082],[-106.588381,31.691993],[-106.588695,31.692026],[-106.588885,31.691718],[-106.589057,31.691629],[-106.589438,31.691572],[-106.589666,31.691288],[-106.589866,31.691102],[-106.589885,31.690908],[-106.590075,31.690543],[-106.590333,31.690292],[-106.590618,31.689919],[-106.590895,31.689854],[-106.591209,31.689733],[-106.591342,31.689538],[-106.591609,31.689263],[-106.592037,31.689238],[-106.592247,31.689028],[-106.592561,31.688906],[-106.592932,31.688655],[-106.593227,31.688501],[-106.593551,31.687748],[-106.593961,31.687748],[-106.59417,31.687529],[-106.594589,31.687213],[-106.594951,31.686848],[-106.595179,31.686856],[-106.595618,31.686743],[-106.59596,31.686548],[-106.596741,31.685819],[-106.597036,31.685706]]}},{"type":"Feature","properties":{"highway":"track"},"geometry":{"type":"LineString","coordinates":[[-106.624553,31.664275],[-106.620784,31.66416]]}},{"type":"Feature","properties":{"highway":"track"},"geometry":{"type":"LineString","coordinates":[[-106.620784,31.66416],[-106.619941,31.667577],[-106.61989,31.66771],[-106.619865,31.667733],[-106.619818,31.667742]]}},{"type":"Feature","properties":{"highway":"cycleway","surface":"unpaved"},"geometry":{"type":"LineString","coordinates":[[-106.579126,31.675894],[-106.578712,31.676364],[-106.578175,31.676876],[-106.578282,31.677131],[-106.578068,31.677314],[-106.577767,31.678026],[-106.57736,31.678446],[-106.577295,31.678702],[-106.577446,31.678975],[-106.577167,31.679487],[-106.577124,31.679688],[-106.57721,31.67998],[-106.576737,31.680491],[-106.576437,31.680893],[-106.576201,31.681112],[-106.576008,31.681514],[-106.576115,31.681715],[-106.57618,31.681915],[-106.576459,31.681952],[-106.576609,31.682244],[-106.576802,31.682372],[-106.577568,31.682204],[-106.578347,31.682427],[-106.578744,31.682307],[-106.579363,31.682599]]}},{"type":"Feature","properties":{"highway":"track"},"geometry":{"type":"LineString","coordinates":[[-106.596436,31.659383],[-106.593111,31.661628],[-106.592371,31.662719],[-106.592258,31.663189],[-106.592323,31.663746],[-106.592328,31.664111],[-106.592285,31.664353],[-106.59214,31.664636],[-106.592113,31.664722],[-106.592071,31.665033],[-106.592071,31.665297],[-106.592044,31.66538],[-106.591985,31.665448],[-106.591781,31.66558],[-106.591475,31.665708],[-106.591325,31.665818],[-106.591073,31.665937],[-106.590848,31.666114],[-106.590692,31.666165],[-106.590365,31.666156]]}},{"type":"Feature","properties":{"highway":"track"},"geometry":{"type":"LineString","coordinates":[[-106.593111,31.661628],[-106.592628,31.661673],[-106.592285,31.661618],[-106.591926,31.661582],[-106.59103,31.661545],[-106.590762,31.6615],[-106.590665,31.661445],[-106.590574,31.661358],[-106.590558,31.661317],[-106.590397,31.661148],[-106.590043,31.660669],[-106.589989,31.66055],[-106.589979,31.660409],[-106.590022,31.660299],[-106.590654,31.659364],[-106.590864,31.659213],[-106.593159,31.658396],[-106.594342,31.658058]]}},{"type":"Feature","properties":{"highway":"track"},"geometry":{"type":"LineString","coordinates":[[-106.642136,31.653381],[-106.643633,31.654486],[-106.643719,31.654568],[-106.643895,31.654673],[-106.644046,31.654797],[-106.644609,31.655171],[-106.645794,31.655997],[-106.64602,31.656249]]}},{"type":"Feature","properties":{"highway":"track"},"geometry":{"type":"LineString","coordinates":[[-106.655273,31.656554],[-106.650676,31.656404],[-106.649877,31.656395],[-106.646444,31.656294],[-106.64602,31.656249],[-106.64492,31.656258],[-106.644013,31.656194],[-106.642774,31.656203],[-106.638139,31.656061],[-106.636316,31.655984],[-106.635447,31.65597],[-106.626461,31.655653]]}},{"type":"Feature","properties":{"highway":"track"},"geometry":{"type":"LineString","coordinates":[[-106.655273,31.656554],[-106.662333,31.656769],[-106.663213,31.656815],[-106.663926,31.656906],[-106.664956,31.656842],[-106.665777,31.656911],[-106.666517,31.656888],[-106.678287,31.657248],[-106.678598,31.657194],[-106.679231,31.657194],[-106.680593,31.657258],[-106.684671,31.657321]]}},{"type":"Feature","properties":{"highway":"track"},"geometry":{"type":"LineString","coordinates":[[-106.665777,31.656911],[-106.66649,31.659586],[-106.666544,31.659705],[-106.666812,31.660828],[-106.667467,31.663252],[-106.667478,31.663348],[-106.667622,31.663873],[-106.66773,31.664352],[-106.6681,31.665727]]}},{"type":"Feature","properties":{"highway":"track"},"geometry":{"type":"LineString","coordinates":[[-106.665777,31.656911],[-106.665234,31.655023],[-106.664844,31.653381],[-106.66464,31.652642],[-106.664544,31.652212],[-106.66404,31.650458],[-106.663975,31.650029],[-106.663884,31.649796],[-106.66375,31.649152],[-106.663739,31.648969],[-106.663675,31.64875],[-106.663675,31.648695],[-106.663584,31.648307],[-106.663482,31.64801],[-106.663375,31.647777],[-106.663305,31.647572],[-106.663246,31.647311],[-106.663171,31.647197],[-106.663267,31.647024],[-106.663267,31.64674],[-106.663144,31.646302],[-106.662978,31.646042],[-106.662903,31.645813],[-106.662918,31.645495],[-106.662618,31.643626],[-106.662366,31.64252],[-106.662264,31.642155],[-106.662221,31.641767],[-106.662023,31.641095]]}},{"type":"Feature","properties":{"highway":"cycleway","surface":"unpaved"},"geometry":{"type":"LineString","coordinates":[[-106.579363,31.682599],[-106.579304,31.682952],[-106.579475,31.683293],[-106.579338,31.683458],[-106.579284,31.683758],[-106.580173,31.684379],[-106.580923,31.685018],[-106.581505,31.685434],[-106.58186,31.686059],[-106.582203,31.686464],[-106.582662,31.686733],[-106.583004,31.687119],[-106.583115,31.687382],[-106.583312,31.687572],[-106.583723,31.688047],[-106.58349,31.688278],[-106.583411,31.688698],[-106.583509,31.689168],[-106.583628,31.689487],[-106.583642,31.689883],[-106.583391,31.690126],[-106.583371,31.690311],[-106.582904,31.690636]]}},{"type":"Feature","properties":{"highway":"cycleway","surface":"unpaved"},"geometry":{"type":"LineString","coordinates":[[-106.582624,31.669374],[-106.582132,31.668987],[-106.581957,31.668913],[-106.581834,31.668838],[-106.581604,31.668794],[-106.581301,31.668647],[-106.580733,31.668302],[-106.580543,31.668081],[-106.580061,31.667934],[-106.579809,31.667772],[-106.579579,31.667708],[-106.57935,31.667543],[-106.578979,31.667464],[-106.578475,31.667532]]}},{"type":"Feature","properties":{"ele":"1750","name":"Cerro Bola","natural":"peak"},"geometry":{"type":"Point","coordinates":[-106.519254,31.670854]}},{"type":"Feature","properties":{"name":"Asfixia","natural":"peak"},"geometry":{"type":"Point","coordinates":[-106.558593,31.682042]}},{"type":"Feature","properties":{"ele":"1290","natural":"peak"},"geometry":{"type":"Point","coordinates":[-106.489454,31.677586]}},{"type":"Feature","properties":{"amenity":"pharmacy"},"geometry":{"type":"Point","coordinates":[-106.474463,31.670935]}},{"type":"Feature","properties":{"name":"Asfixia","natural":"peak"},"geometry":{"type":"Point","coordinates":[-106.55921,31.681489]}},{"type":"Feature","properties":{"natural":"peak"},"geometry":{"type":"Point","coordinates":[-106.564566,31.685205]}},{"type":"Feature","properties":{"natural":"peak"},"geometry":{"type":"Point","coordinates":[-106.557012,31.683689]}},{"type":"Feature","properties":{"natural":"peak"},"geometry":{"type":"Point","coordinates":[-106.554867,31.685095]}},{"type":"Feature","properties":{"natural":"peak"},"geometry":{"type":"Point","coordinates":[-106.556853,31.688918]}},{"type":"Feature","properties":{"natural":"peak"},"geometry":{"type":"Point","coordinates":[-106.547523,31.680517]}},{"type":"Feature","properties":{"highway":"trunk","name":"Periférico Camino Real","oneway":"yes","surface":"concrete"},"geometry":{"type":"LineString","coordinates":[[-106.525216,31.712633],[-106.522677,31.711542],[-106.521644,31.711078],[-106.521251,31.71087],[-106.520543,31.71047],[-106.51981,31.709955],[-106.519289,31.709516],[-106.518978,31.709198],[-106.518525,31.70869],[-106.518096,31.708171],[-106.516598,31.706086],[-106.516004,31.705098],[-106.515803,31.704711],[-106.515542,31.704261],[-106.515146,31.703631],[-106.514577,31.702841],[-106.512627,31.699974],[-106.51126,31.698005],[-106.510876,31.697519],[-106.510394,31.697041],[-106.510154,31.696862],[-106.509866,31.696696],[-106.509378,31.696505],[-106.508809,31.696346],[-106.508133,31.696183],[-106.506742,31.69587],[-106.505862,31.695691],[-106.505156,31.695517],[-106.504502,31.695313],[-106.502328,31.694522],[-106.501931,31.69433],[-106.501783,31.694237],[-106.501505,31.694015],[-106.501402,31.693894],[-106.501255,31.69368],[-106.50114,31.693403],[-106.500969,31.692856],[-106.500607,31.691496],[-106.500408,31.690638],[-106.499878,31.688688]]}},{"type":"Feature","properties":{"highway":"trunk","name":"Periférico Camino Real","oneway":"yes","surface":"concrete"},"geometry":{"type":"LineString","coordinates":[[-106.499731,31.688828],[-106.500215,31.690672],[-106.50077,31.692896],[-106.50095,31.693477],[-106.501111,31.693793],[-106.501211,31.693953],[-106.501344,31.694109],[-106.501648,31.694373],[-106.501961,31.69456],[-106.504417,31.695459],[-106.505092,31.695671],[-106.508765,31.696486],[-106.509042,31.696563],[-106.509537,31.696726],[-106.509986,31.69697],[-106.510229,31.697133],[-106.510558,31.697432],[-106.510853,31.697804],[-106.512861,31.70063],[-106.513865,31.702005],[-106.514452,31.702883],[-106.514645,31.7032],[-106.515039,31.703715],[-106.515522,31.704488],[-106.516479,31.70613],[-106.51694,31.70675],[-106.517313,31.70731],[-106.518088,31.708357],[-106.518282,31.708596],[-106.518903,31.709296],[-106.519418,31.709796],[-106.51983,31.710116],[-106.520683,31.710673],[-106.521019,31.710865],[-106.521573,31.711156],[-106.522173,31.711432],[-106.525129,31.712687]]}},{"type":"Feature","properties":{"highway":"primary","name":"Boulevard Ignacio Zaragoza","oneway":"yes","surface":"paved"},"geometry":{"type":"LineString","coordinates":[[-106.472774,31.66253],[-106.472305,31.662499],[-106.470793,31.662341],[-106.467884,31.662079],[-106.463733,31.661671],[-106.462797,31.6615],[-106.461149,31.661144],[-106.46055,31.661057],[-106.458701,31.660903],[-106.454452,31.660585],[-106.446459,31.659933]]}},{"type":"Feature","properties":{"highway":"primary","name":"Avenida de los Aztecas","oneway":"yes","surface":"paved"},"geometry":{"type":"LineString","coordinates":[[-106.472567,31.663028],[-106.472564,31.663156],[-106.472601,31.663314],[-106.473602,31.66689],[-106.474804,31.671021],[-106.475919,31.675004],[-106.479623,31.687757],[-106.480757,31.691792],[-106.481128,31.693056],[-106.481477,31.694343],[-106.481741,31.695208],[-106.481772,31.695355],[-106.481772,31.695428],[-106.481733,31.695551],[-106.481412,31.695748]]}},{"type":"Feature","properties":{"highway":"secondary","name":"Avenida Oasis de la Revolución","surface":"asphalt"},"geometry":{"type":"LineString","coordinates":[[-106.454356,31.656298],[-106.454101,31.656142],[-106.453953,31.656084],[-106.453644,31.656038],[-106.452127,31.656278],[-106.451895,31.656284],[-106.44717,31.655898],[-106.445548,31.655838]]}},{"type":"Feature","properties":{"highway":"secondary","name":"Calle Daniel García"},"geometry":{"type":"LineString","coordinates":[[-106.450089,31.660371],[-106.450396,31.658131]]}},{"type":"Feature","properties":{"highway":"secondary","name":"Avenida de la Paz"},"geometry":{"type":"LineString","coordinates":[[-106.463784,31.651448],[-106.463533,31.651622],[-106.463359,31.651714],[-106.463246,31.651761],[-106.463034,31.651808],[-106.462072,31.651749],[-106.461562,31.651701],[-106.461271,31.651756],[-106.461219,31.651785],[-106.460309,31.652853],[-106.460132,31.652998],[-106.459704,31.653223],[-106.458343,31.653872],[-106.458176,31.653981],[-106.458044,31.654114],[-106.457988,31.654248],[-106.457894,31.654957],[-106.457413,31.659362],[-106.45727,31.660796],[-106.457186,31.66095]]}},{"type":"Feature","properties":{"highway":"primary","surface":"paved"},"geometry":{"type":"LineString","coordinates":[[-106.472531,31.662981],[-106.472567,31.663028],[-106.472659,31.663098],[-106.472772,31.663138],[-106.472894,31.663144],[-106.473012,31.663116],[-106.473106,31.663061],[-106.473166,31.662998],[-106.473205,31.662925],[-106.47322,31.662845],[-106.473209,31.662755],[-106.473158,31.66266],[-106.473075,31.662585],[-106.472985,31.662543],[-106.47283,31.662523],[-106.472685,31.662558],[-106.472607,31.662604],[-106.472546,31.662666],[-106.472506,31.662739],[-106.472491,31.662874],[-106.472531,31.662981]]}},{"type":"Feature","properties":{"highway":"secondary","name":"Prolongación Los Aztecas","oneway":"yes","surface":"paved"},"geometry":{"type":"LineString","coordinates":[[-106.473209,31.662755],[-106.473415,31.662584],[-106.473545,31.66245]]}},{"type":"Feature","properties":{"highway":"secondary","name":"Calle Barranco Azul","oneway":"yes","surface":"paved"},"geometry":{"type":"LineString","coordinates":[[-106.47604,31.654524],[-106.475716,31.654012],[-106.47564,31.653938],[-106.475522,31.653862],[-106.46619,31.64882],[-106.464508,31.647893],[-106.463479,31.64735],[-106.454399,31.642376],[-106.453653,31.641997],[-106.453405,31.641887],[-106.452985,31.641774],[-106.448082,31.641012],[-106.447652,31.640934],[-106.447263,31.64084],[-106.446777,31.640676],[-106.445053,31.639935],[-106.443335,31.639222],[-106.442999,31.639121],[-106.442311,31.638995],[-106.441857,31.638847],[-106.438227,31.637348]]}},{"type":"Feature","properties":{"highway":"secondary","name":"Los Aztecas","oneway":"yes","surface":"paved"},"geometry":{"type":"LineString","coordinates":[[-106.473545,31.66245],[-106.473075,31.662585]]}},{"type":"Feature","properties":{"highway":"residential","name":"Calle Pino Suárez","oneway":"yes"},"geometry":{"type":"LineString","coordinates":[[-106.473106,31.663061],[-106.473382,31.663124],[-106.473649,31.663222]]}},{"type":"Feature","properties":{"highway":"residential","name":"Calle Pino Suárez"},"geometry":{"type":"LineString","coordinates":[[-106.478516,31.66371],[-106.477128,31.663583],[-106.475729,31.663426],[-106.473649,31.663222]]}},{"type":"Feature","properties":{"highway":"secondary","name":"Calle Profesora Elisa Griensen","oneway":"yes","surface":"paved"},"geometry":{"type":"LineString","coordinates":[[-106.476614,31.676907],[-106.476469,31.676894],[-106.473557,31.677528],[-106.473314,31.677554]]}},{"type":"Feature","properties":{"highway":"secondary","name":"Calle Felipe Arteaga","oneway":"no","surface":"paved"},"geometry":{"type":"LineString","coordinates":[[-106.473628,31.658672],[-106.473721,31.658806],[-106.475075,31.659994],[-106.475218,31.660227],[-106.475245,31.660409]]}},{"type":"Feature","properties":{"highway":"residential","name":"Calle Pino Suárez"},"geometry":{"type":"LineString","coordinates":[[-106.485639,31.664317],[-106.485532,31.66428],[-106.485086,31.664327],[-106.484929,31.664324],[-106.483592,31.664173],[-106.48249,31.664088],[-106.481163,31.663956]]}},{"type":"Feature","properties":{"highway":"residential","name":"Calle 37"},"geometry":{"type":"LineString","coordinates":[[-106.482857,31.661743],[-106.482781,31.662231],[-106.482658,31.663477],[-106.482551,31.664091]]}},{"type":"Feature","properties":{"highway":"residential","name":"Calle Guadalupe H. López"},"geometry":{"type":"LineString","coordinates":[[-106.481787,31.65886],[-106.481628,31.659672],[-106.481481,31.66115],[-106.481212,31.663376],[-106.481163,31.663956]]}},{"type":"Feature","properties":{"highway":"residential","name":"Calle Guadalupe H. López"},"geometry":{"type":"LineString","coordinates":[[-106.48087,31.66864],[-106.480914,31.667587],[-106.480968,31.667086],[-106.481024,31.666044],[-106.481071,31.66553],[-106.481119,31.664495],[-106.481163,31.663956]]}},{"type":"Feature","properties":{"highway":"residential"},"geometry":{"type":"LineString","coordinates":[[-106.482212,31.668246],[-106.482301,31.667211]]}},{"type":"Feature","properties":{"highway":"residential","name":"Privada Pino Suárez"},"geometry":{"type":"LineString","coordinates":[[-106.478611,31.664238],[-106.48043,31.664433],[-106.482433,31.664625],[-106.483132,31.664673]]}}],"attribution":"© OpenStreetMap contributors"}
