{"type":"FeatureCollection","attribution":"\u00a9 OpenStreetMap contributors, build-time only","features":[{"type":"Feature","properties":{"kind":"yes","height_m":7.0},"geometry":{"type":"Polygon","coordinates":[[[-106.581502,31.864516],[-106.581241,31.864521],[-106.581244,31.86465],[-106.581505,31.864646],[-106.581502,31.864516]]]}},{"type":"Feature","properties":{"kind":"yes","height_m":7.0},"geometry":{"type":"Polygon","coordinates":[[[-106.581782,31.877002],[-106.581691,31.876627],[-106.581502,31.87666],[-106.581592,31.877035],[-106.581782,31.877002]]]}},{"type":"Feature","properties":{"kind":"commercial","height_m":10.0,"name":"Quality Inn & Suites El Paso I-10"},"geometry":{"type":"Polygon","coordinates":[[[-106.581573,31.875972],[-106.581331,31.876013],[-106.581265,31.875735],[-106.581102,31.875762],[-106.581197,31.876173],[-106.581317,31.876153],[-106.581325,31.876188],[-106.581612,31.876139],[-106.581573,31.875972]]]}},{"type":"Feature","properties":{"kind":"yes","height_m":7.0},"geometry":{"type":"Polygon","coordinates":[[[-106.580389,31.869088],[-106.58036,31.86894],[-106.579909,31.869003],[-106.579938,31.869151],[-106.580389,31.869088]]]}},{"type":"Feature","properties":{"kind":"yes","height_m":7.0},"geometry":{"type":"Polygon","coordinates":[[[-106.58206,31.866792],[-106.582061,31.867482],[-106.582749,31.867481],[-106.582749,31.867338],[-106.582823,31.867338],[-106.582823,31.867381],[-106.583158,31.867381],[-106.583158,31.867347],[-106.583361,31.867347],[-106.583391,31.867139],[-106.583488,31.867139],[-106.583487,31.866966],[-106.583234,31.866966],[-106.583234,31.866848],[-106.583014,31.866848],[-106.583014,31.86691],[-106.582926,31.86691],[-106.582926,31.866952],[-106.582761,31.866952],[-106.58276,31.866791],[-106.58206,31.866792]]]}},{"type":"Feature","properties":{"kind":"yes","height_m":7.0},"geometry":{"type":"Polygon","coordinates":[[[-106.581802,31.864177],[-106.581625,31.864177],[-106.581626,31.864099],[-106.581289,31.864097],[-106.581287,31.86438],[-106.581625,31.864382],[-106.581626,31.864223],[-106.581802,31.864224],[-106.581802,31.864177]]]}},{"type":"Feature","properties":{"kind":"school","height_m":3.2},"geometry":{"type":"Polygon","coordinates":[[[-106.585703,31.860085],[-106.585754,31.860249],[-106.586256,31.860136],[-106.586205,31.859973],[-106.585703,31.860085]]]}},{"type":"Feature","properties":{"kind":"retail","height_m":8.0},"geometry":{"type":"Polygon","coordinates":[[[-106.586379,31.859975],[-106.586471,31.860244],[-106.586618,31.860208],[-106.586527,31.859939],[-106.586379,31.859975]]]}},{"type":"Feature","properties":{"kind":"roof","height_m":3.0},"geometry":{"type":"Polygon","coordinates":[[[-106.586914,31.860623],[-106.587012,31.860877],[-106.587096,31.860854],[-106.586998,31.860599],[-106.586914,31.860623]]]}},{"type":"Feature","properties":{"kind":"retail","height_m":8.0},"geometry":{"type":"Polygon","coordinates":[[[-106.586852,31.860912],[-106.586795,31.860741],[-106.586668,31.860772],[-106.586725,31.860942],[-106.586852,31.860912]]]}},{"type":"Feature","properties":{"kind":"yes","height_m":7.0},"geometry":{"type":"Polygon","coordinates":[[[-106.584987,31.860595],[-106.584986,31.860921],[-106.585123,31.860921],[-106.585124,31.860595],[-106.584987,31.860595]]]}},{"type":"Feature","properties":{"kind":"yes","height_m":7.0},"geometry":{"type":"Polygon","coordinates":[[[-106.585297,31.860699],[-106.585419,31.860662],[-106.585186,31.860016],[-106.585055,31.859707],[-106.584898,31.859755],[-106.585297,31.860699]]]}},{"type":"Feature","properties":{"kind":"yes","height_m":7.0},"geometry":{"type":"Polygon","coordinates":[[[-106.587278,31.862036],[-106.587146,31.861617],[-106.587089,31.861631],[-106.587076,31.861591],[-106.586804,31.861653],[-106.586817,31.861697],[-106.586389,31.861794],[-106.586527,31.862232],[-106.586925,31.862142],[-106.586943,31.862198],[-106.587181,31.862144],[-106.587156,31.862064],[-106.587278,31.862036]]]}},{"type":"Feature","properties":{"kind":"yes","height_m":7.0},"geometry":{"type":"Polygon","coordinates":[[[-106.591327,31.860606],[-106.591327,31.860763],[-106.591485,31.860763],[-106.591485,31.860606],[-106.591327,31.860606]]]}},{"type":"Feature","properties":{"kind":"yes","height_m":7.0},"geometry":{"type":"Polygon","coordinates":[[[-106.59137,31.86055],[-106.591533,31.86055],[-106.591533,31.86041],[-106.59137,31.86041],[-106.59137,31.86055]]]}},{"type":"Feature","properties":{"kind":"yes","height_m":7.0},"geometry":{"type":"Polygon","coordinates":[[[-106.591995,31.860603],[-106.591837,31.860603],[-106.591837,31.860754],[-106.591995,31.860754],[-106.591995,31.860603]]]}},{"type":"Feature","properties":{"kind":"yes","height_m":7.0},"geometry":{"type":"Polygon","coordinates":[[[-106.592172,31.860608],[-106.592172,31.860756],[-106.592338,31.860756],[-106.592338,31.860608],[-106.592172,31.860608]]]}},{"type":"Feature","properties":{"kind":"yes","height_m":7.0},"geometry":{"type":"Polygon","coordinates":[[[-106.592118,31.860409],[-106.592117,31.860555],[-106.592287,31.860556],[-106.592289,31.860411],[-106.592118,31.860409]]]}},{"type":"Feature","properties":{"kind":"yes","height_m":7.0},"geometry":{"type":"Polygon","coordinates":[[[-106.592097,31.86041],[-106.591928,31.86041],[-106.591928,31.860553],[-106.592097,31.860553],[-106.592097,31.86041]]]}},{"type":"Feature","properties":{"kind":"yes","height_m":7.0},"geometry":{"type":"Polygon","coordinates":[[[-106.591743,31.86041],[-106.591743,31.860549],[-106.591909,31.860549],[-106.591909,31.86041],[-106.591743,31.86041]]]}},{"type":"Feature","properties":{"kind":"yes","height_m":7.0},"geometry":{"type":"Polygon","coordinates":[[[-106.591558,31.860553],[-106.591724,31.860553],[-106.591724,31.860407],[-106.591558,31.860407],[-106.591558,31.860553]]]}},{"type":"Feature","properties":{"kind":"yes","height_m":7.0},"geometry":{"type":"Polygon","coordinates":[[[-106.591665,31.860751],[-106.59182,31.860751],[-106.59182,31.860603],[-106.591665,31.860603],[-106.591665,31.860751]]]}},{"type":"Feature","properties":{"kind":"yes","height_m":7.0},"geometry":{"type":"Polygon","coordinates":[[[-106.591533,31.860102],[-106.591367,31.860102],[-106.591367,31.860241],[-106.591533,31.860241],[-106.591533,31.860102]]]}},{"type":"Feature","properties":{"kind":"yes","height_m":7.0},"geometry":{"type":"Polygon","coordinates":[[[-106.591724,31.860104],[-106.591552,31.860104],[-106.591552,31.860241],[-106.591724,31.860241],[-106.591724,31.860104]]]}},{"type":"Feature","properties":{"kind":"yes","height_m":7.0},"geometry":{"type":"Polygon","coordinates":[[[-106.591743,31.860241],[-106.591912,31.860241],[-106.591912,31.860102],[-106.591743,31.860102],[-106.591743,31.860241]]]}},{"type":"Feature","properties":{"kind":"yes","height_m":7.0},"geometry":{"type":"Polygon","coordinates":[[[-106.591927,31.860241],[-106.592096,31.860241],[-106.592096,31.860099],[-106.591927,31.860099],[-106.591927,31.860241]]]}},{"type":"Feature","properties":{"kind":"yes","height_m":7.0},"geometry":{"type":"Polygon","coordinates":[[[-106.592118,31.860102],[-106.592118,31.860241],[-106.592292,31.860241],[-106.592292,31.860102],[-106.592118,31.860102]]]}},{"type":"Feature","properties":{"kind":"yes","height_m":7.0},"geometry":{"type":"Polygon","coordinates":[[[-106.592789,31.86012],[-106.592633,31.86012],[-106.592633,31.860264],[-106.592789,31.860264],[-106.592789,31.86012]]]}},{"type":"Feature","properties":{"kind":"yes","height_m":7.0},"geometry":{"type":"Polygon","coordinates":[[[-106.592627,31.860427],[-106.592791,31.860427],[-106.59279,31.860278],[-106.592626,31.860279],[-106.592627,31.860427]]]}},{"type":"Feature","properties":{"kind":"yes","height_m":7.0},"geometry":{"type":"Polygon","coordinates":[[[-106.592628,31.860446],[-106.592628,31.860587],[-106.592789,31.860587],[-106.592789,31.860446],[-106.592628,31.860446]]]}},{"type":"Feature","properties":{"kind":"yes","height_m":7.0},"geometry":{"type":"Polygon","coordinates":[[[-106.592791,31.860606],[-106.59263,31.860606],[-106.59263,31.860754],[-106.592791,31.860754],[-106.592791,31.860606]]]}},{"type":"Feature","properties":{"kind":"yes","height_m":7.0},"geometry":{"type":"Polygon","coordinates":[[[-106.593212,31.860606],[-106.593054,31.860606],[-106.593054,31.860751],[-106.593212,31.860751],[-106.593212,31.860606]]]}},{"type":"Feature","properties":{"kind":"yes","height_m":7.0},"geometry":{"type":"Polygon","coordinates":[[[-106.593435,31.860606],[-106.59328,31.860606],[-106.59328,31.860763],[-106.593435,31.860763],[-106.593435,31.860606]]]}},{"type":"Feature","properties":{"kind":"yes","height_m":7.0},"geometry":{"type":"Polygon","coordinates":[[[-106.593435,31.860446],[-106.593277,31.860446],[-106.593277,31.86059],[-106.593435,31.86059],[-106.593435,31.860446]]]}},{"type":"Feature","properties":{"kind":"yes","height_m":7.0},"geometry":{"type":"Polygon","coordinates":[[[-106.593054,31.860587],[-106.593215,31.860587],[-106.593215,31.860444],[-106.593054,31.860444],[-106.593054,31.860587]]]}},{"type":"Feature","properties":{"kind":"yes","height_m":7.0},"geometry":{"type":"Polygon","coordinates":[[[-106.593215,31.86028],[-106.593052,31.86028],[-106.593052,31.860428],[-106.593215,31.860428],[-106.593215,31.86028]]]}},{"type":"Feature","properties":{"kind":"yes","height_m":7.0},"geometry":{"type":"Polygon","coordinates":[[[-106.593274,31.860282],[-106.593274,31.860428],[-106.593435,31.860428],[-106.593435,31.860282],[-106.593274,31.860282]]]}},{"type":"Feature","properties":{"kind":"yes","height_m":7.0},"geometry":{"type":"Polygon","coordinates":[[[-106.593277,31.860264],[-106.593438,31.860264],[-106.593438,31.860118],[-106.593277,31.860118],[-106.593277,31.860264]]]}},{"type":"Feature","properties":{"kind":"yes","height_m":7.0},"geometry":{"type":"Polygon","coordinates":[[[-106.593052,31.86012],[-106.593052,31.860264],[-106.593212,31.860264],[-106.593212,31.86012],[-106.593052,31.86012]]]}},{"type":"Feature","properties":{"kind":"yes","height_m":7.0},"geometry":{"type":"Polygon","coordinates":[[[-106.593634,31.86054],[-106.593634,31.860754],[-106.593805,31.860754],[-106.593805,31.86054],[-106.593634,31.86054]]]}},{"type":"Feature","properties":{"kind":"yes","height_m":7.0},"geometry":{"type":"Polygon","coordinates":[[[-106.593854,31.860489],[-106.593854,31.860756],[-106.594017,31.860756],[-106.594017,31.860489],[-106.593854,31.860489]]]}},{"type":"Feature","properties":{"kind":"yes","height_m":7.0},"geometry":{"type":"Polygon","coordinates":[[[-106.594203,31.860755],[-106.594385,31.860755],[-106.594378,31.860486],[-106.594201,31.860487],[-106.594203,31.860755]]]}},{"type":"Feature","properties":{"kind":"yes","height_m":7.0},"geometry":{"type":"Polygon","coordinates":[[[-106.5942,31.86036],[-106.594379,31.86036],[-106.594379,31.860209],[-106.594323,31.860209],[-106.594323,31.860168],[-106.5942,31.860168],[-106.5942,31.86036]]]}},{"type":"Feature","properties":{"kind":"yes","height_m":7.0},"geometry":{"type":"Polygon","coordinates":[[[-106.593936,31.860142],[-106.593767,31.860148],[-106.593767,31.860175],[-106.593727,31.860175],[-106.593725,31.860318],[-106.593934,31.86032],[-106.593936,31.860142]]]}},{"type":"Feature","properties":{"kind":"yes","height_m":7.0},"geometry":{"type":"Polygon","coordinates":[[[-106.593964,31.86035],[-106.594162,31.86035],[-106.594162,31.860191],[-106.594055,31.860191],[-106.594055,31.860143],[-106.593964,31.860143],[-106.593964,31.86035]]]}},{"type":"Feature","properties":{"kind":"yes","height_m":7.0},"geometry":{"type":"Polygon","coordinates":[[[-106.594637,31.860366],[-106.594787,31.860366],[-106.594787,31.860205],[-106.594736,31.860205],[-106.594736,31.860155],[-106.594637,31.860193],[-106.594637,31.860366]]]}},{"type":"Feature","properties":{"kind":"yes","height_m":7.0},"geometry":{"type":"Polygon","coordinates":[[[-106.594802,31.860756],[-106.594803,31.860487],[-106.594644,31.860487],[-106.594644,31.860756],[-106.594802,31.860756]]]}},{"type":"Feature","properties":{"kind":"yes","height_m":7.0},"geometry":{"type":"Polygon","coordinates":[[[-106.595004,31.860496],[-106.595004,31.860756],[-106.595162,31.860756],[-106.595162,31.860496],[-106.595004,31.860496]]]}},{"type":"Feature","properties":{"kind":"yes","height_m":7.0},"geometry":{"type":"Polygon","coordinates":[[[-106.595383,31.860763],[-106.595386,31.860492],[-106.595217,31.860491],[-106.595214,31.860762],[-106.595383,31.860763]]]}},{"type":"Feature","properties":{"kind":"yes","height_m":7.0},"geometry":{"type":"Polygon","coordinates":[[[-106.595852,31.860761],[-106.596021,31.860761],[-106.596021,31.860622],[-106.595852,31.860622],[-106.595852,31.860761]]]}},{"type":"Feature","properties":{"kind":"yes","height_m":7.0},"geometry":{"type":"Polygon","coordinates":[[[-106.596023,31.860802],[-106.595852,31.860802],[-106.595852,31.860945],[-106.596023,31.860945],[-106.596023,31.860802]]]}},{"type":"Feature","properties":{"kind":"yes","height_m":7.0},"geometry":{"type":"Polygon","coordinates":[[[-106.596499,31.860178],[-106.596497,31.860663],[-106.596775,31.860664],[-106.596776,31.860453],[-106.596699,31.860453],[-106.596699,31.860387],[-106.596623,31.860387],[-106.596623,31.860263],[-106.59658,31.860262],[-106.596581,31.860178],[-106.596499,31.860178]]]}},{"type":"Feature","properties":{"kind":"yes","height_m":7.0},"geometry":{"type":"Polygon","coordinates":[[[-106.597253,31.860023],[-106.597152,31.860022],[-106.597151,31.860066],[-106.596994,31.860063],[-106.59699,31.860224],[-106.597247,31.860228],[-106.597253,31.860023]]]}},{"type":"Feature","properties":{"kind":"retail","height_m":8.0},"geometry":{"type":"Polygon","coordinates":[[[-106.582527,31.879521],[-106.582062,31.879521],[-106.582062,31.879684],[-106.582527,31.879699],[-106.582527,31.879521]]]}},{"type":"Feature","properties":{"kind":"house","height_m":5.0},"geometry":{"type":"Polygon","coordinates":[[[-106.609684,31.869663],[-106.609604,31.869667],[-106.609609,31.869731],[-106.609423,31.869763],[-106.609402,31.86949],[-106.609566,31.869481],[-106.609599,31.869573],[-106.609677,31.869568],[-106.609684,31.869663]]]}},{"type":"Feature","properties":{"kind":"yes","height_m":7.0,"name":"Bet-El Motors"},"geometry":{"type":"Polygon","coordinates":[[[-106.594282,31.879904],[-106.594232,31.879763],[-106.594013,31.87982],[-106.594076,31.879995],[-106.594262,31.879947],[-106.59425,31.879913],[-106.594282,31.879904]]]}},{"type":"Feature","properties":{"kind":"yes","height_m":7.0},"geometry":{"type":"Polygon","coordinates":[[[-106.59553,31.871586],[-106.59575,31.871544],[-106.595795,31.871712],[-106.595575,31.871755],[-106.59553,31.871586]]]}},{"type":"Feature","properties":{"kind":"yes","height_m":7.0},"geometry":{"type":"Polygon","coordinates":[[[-106.594808,31.869177],[-106.595045,31.86911],[-106.595247,31.869622],[-106.59501,31.869689],[-106.594808,31.869177]]]}}]}