{"type":"FeatureCollection","features":[{"type":"Feature","properties":{"bicycle":"designated","foot":"designated","highway":"cycleway","name":"Bordo de Rio Bravo","oneway":"no","surface":"compacted"},"geometry":{"type":"LineString","coordinates":[[-106.458818,31.762577],[-106.455512,31.763845],[-106.454734,31.764105],[-106.454164,31.764237],[-106.453759,31.764303],[-106.453394,31.764334],[-106.453043,31.764349],[-106.452412,31.764329],[-106.451864,31.764266],[-106.45143,31.76417],[-106.450899,31.764026],[-106.450481,31.763881],[-106.450047,31.763684],[-106.449685,31.763489],[-106.438077,31.756235],[-106.437539,31.755926],[-106.436671,31.755484],[-106.435631,31.755009],[-106.434764,31.754677],[-106.434136,31.754467],[-106.43312,31.754156],[-106.432113,31.753916],[-106.431411,31.753708],[-106.430612,31.753639],[-106.429873,31.753552],[-106.429504,31.753474],[-106.427197,31.752818],[-106.426739,31.752696],[-106.42638,31.752625],[-106.423772,31.752351],[-106.423094,31.752249],[-106.421678,31.751987],[-106.41999,31.751552],[-106.418349,31.751046],[-106.416963,31.750477],[-106.415355,31.749725],[-106.400467,31.741641],[-106.390757,31.736397],[-106.382669,31.732007],[-106.382129,31.731636],[-106.381026,31.730742],[-106.380604,31.730306],[-106.380283,31.729939],[-106.379682,31.729169],[-106.379247,31.728457],[-106.378875,31.727745],[-106.378494,31.726663],[-106.375703,31.717036],[-106.375241,31.715602],[-106.374961,31.71493],[-106.374607,31.714192],[-106.374291,31.713672],[-106.373884,31.713089],[-106.373461,31.712549],[-106.372892,31.711917],[-106.371962,31.711045],[-106.371477,31.710657],[-106.352636,31.698179],[-106.351911,31.697627],[-106.351022,31.696796],[-106.35026,31.695904],[-106.349796,31.69523],[-106.34944,31.694551],[-106.336403,31.665392],[-106.335842,31.664098],[-106.33549,31.663395],[-106.335134,31.662802],[-106.334761,31.662254],[-106.334134,31.661512],[-106.332473,31.659755],[-106.331254,31.658401],[-106.330452,31.657382],[-106.330259,31.657111],[-106.329638,31.656101],[-106.325941,31.650327],[-106.323594,31.647446]]}},{"type":"Feature","properties":{"highway":"residential","name":"Calle Petunias"},"geometry":{"type":"LineString","coordinates":[[-106.516281,31.763735],[-106.518004,31.765561],[-106.519213,31.76695],[-106.520075,31.767905],[-106.520492,31.768317],[-106.521037,31.768961],[-106.522527,31.770246],[-106.522615,31.770347],[-106.52276,31.770705],[-106.522786,31.770866],[-106.52278,31.770958],[-106.522728,31.771155],[-106.522483,31.7717]]}},{"type":"Feature","properties":{"highway":"residential","name":"Calle Parral"},"geometry":{"type":"LineString","coordinates":[[-106.519304,31.770777],[-106.52036,31.771599],[-106.520774,31.771943],[-106.520968,31.77207],[-106.521115,31.77215],[-106.521801,31.772369],[-106.522564,31.772557]]}},{"type":"Feature","properties":{"highway":"trunk","name":"Boulevard Ingeniero Bernardo Norzagaray","oneway":"yes"},"geometry":{"type":"LineString","coordinates":[[-106.517765,31.768735],[-106.5179,31.768903],[-106.518176,31.769187],[-106.519074,31.770089],[-106.519213,31.770208],[-106.519588,31.770481],[-106.520798,31.771191],[-106.52119,31.771399],[-106.52144,31.771512],[-106.521917,31.771683],[-106.52281,31.771897],[-106.523556,31.772015],[-106.523937,31.772033],[-106.524606,31.772012]]}},{"type":"Feature","properties":{"highway":"residential","name":"Calle Miraflores"},"geometry":{"type":"LineString","coordinates":[[-106.515922,31.760359],[-106.516293,31.761335],[-106.516355,31.761438],[-106.516406,31.76148],[-106.517145,31.762335],[-106.517311,31.762548],[-106.51796,31.763273],[-106.518778,31.764227],[-106.519638,31.76516],[-106.520423,31.766099],[-106.520835,31.766554],[-106.521284,31.767014]]}},{"type":"Feature","properties":{"highway":"residential","name":"Calle Pénjamo"},"geometry":{"type":"LineString","coordinates":[[-106.518749,31.761921],[-106.519043,31.761419],[-106.51954,31.760831],[-106.519686,31.760637],[-106.520157,31.760097],[-106.52091,31.759501]]}},{"type":"Feature","properties":{"highway":"residential","name":"Calle Valladolid"},"geometry":{"type":"LineString","coordinates":[[-106.518992,31.760406],[-106.518957,31.760089],[-106.518973,31.759988],[-106.519,31.759931],[-106.519501,31.759475],[-106.519694,31.759372],[-106.52002,31.759262],[-106.522209,31.758854],[-106.524392,31.758581],[-106.525003,31.758523]]}},{"type":"Feature","properties":{"highway":"residential","name":"Calle Centauro"},"geometry":{"type":"LineString","coordinates":[[-106.519764,31.75822],[-106.520053,31.758729],[-106.520293,31.759211],[-106.520378,31.759418]]}},{"type":"Feature","properties":{"highway":"residential","name":"Calle Arroyo De Las Víboras"},"geometry":{"type":"LineString","coordinates":[[-106.519613,31.757803],[-106.520252,31.757548],[-106.520793,31.757302],[-106.520989,31.757192],[-106.521155,31.757047],[-106.521233,31.756947],[-106.521353,31.756731],[-106.521463,31.756469],[-106.521521,31.756063]]}},{"type":"Feature","properties":{"highway":"residential","name":"Calle Fray García de San Francisco"},"geometry":{"type":"LineString","coordinates":[[-106.515419,31.748567],[-106.515776,31.748682],[-106.516407,31.748855],[-106.517715,31.749267],[-106.518367,31.749447],[-106.520487,31.750088],[-106.520842,31.750228],[-106.520891,31.750311]]}},{"type":"Feature","properties":{"highway":"residential","name":"Calle Francisco Javier Mina"},"geometry":{"type":"LineString","coordinates":[[-106.511797,31.743934],[-106.513118,31.744325],[-106.515825,31.74509],[-106.516505,31.745313],[-106.517739,31.745675],[-106.519012,31.746026],[-106.520323,31.74644],[-106.52158,31.746799]]}},{"type":"Feature","properties":{"highway":"residential"},"geometry":{"type":"LineString","coordinates":[[-106.519503,31.740009],[-106.520439,31.740029]]}},{"type":"Feature","properties":{"highway":"cycleway","name":"Bordo","surface":"gravel"},"geometry":{"type":"LineString","coordinates":[[-106.516696,31.771447],[-106.516903,31.771455],[-106.517042,31.771439],[-106.517307,31.771356],[-106.517443,31.771357],[-106.517834,31.771473],[-106.517945,31.771527],[-106.518277,31.771803],[-106.518546,31.771985],[-106.519451,31.772534],[-106.521227,31.77366],[-106.522001,31.774255],[-106.522581,31.774778]]}},{"type":"Feature","properties":{"highway":"motorway_link","oneway":"yes"},"geometry":{"type":"LineString","coordinates":[[-106.51961,31.788801],[-106.519676,31.789168],[-106.520027,31.789849],[-106.520589,31.790646]]}},{"type":"Feature","properties":{"highway":"residential","name":"Calle Violetas"},"geometry":{"type":"LineString","coordinates":[[-106.518914,31.756089],[-106.52,31.756383],[-106.520813,31.756639]]}},{"type":"Feature","properties":{"highway":"residential","name":"Calle Acacias"},"geometry":{"type":"LineString","coordinates":[[-106.515498,31.75285],[-106.518059,31.753655],[-106.51937,31.754024],[-106.519975,31.754228],[-106.520273,31.754398],[-106.520439,31.754527],[-106.520491,31.754614],[-106.520505,31.754768]]}},{"type":"Feature","properties":{"highway":"residential","name":"Calle Tabasco"},"geometry":{"type":"LineString","coordinates":[[-106.517654,31.768032],[-106.518618,31.767388],[-106.519213,31.76695],[-106.521052,31.765671],[-106.521747,31.765141]]}},{"type":"Feature","properties":{"highway":"primary","name":"Arroyo las Víboras","oneway":"yes"},"geometry":{"type":"LineString","coordinates":[[-106.510858,31.761222],[-106.511051,31.761052],[-106.511089,31.761035],[-106.512156,31.760988],[-106.512361,31.760954],[-106.512677,31.760861],[-106.513778,31.760476],[-106.51501,31.759996],[-106.516286,31.759415],[-106.518589,31.758153],[-106.519072,31.757921],[-106.52016,31.757462],[-106.520496,31.757294],[-106.520676,31.757174],[-106.521036,31.75684],[-106.52118,31.756665],[-106.521319,31.756376],[-106.521462,31.755964]]}},{"type":"Feature","properties":{"highway":"residential","name":"Calle Mochis"},"geometry":{"type":"LineString","coordinates":[[-106.518935,31.771155],[-106.520007,31.771946],[-106.52144,31.772956]]}},{"type":"Feature","properties":{"highway":"residential","name":"Calle Mimbre"},"geometry":{"type":"LineString","coordinates":[[-106.519408,31.757646],[-106.52024,31.755842]]}},{"type":"Feature","properties":{"highway":"path","name":"Calle Doctor Mariano Samaniego"},"geometry":{"type":"LineString","coordinates":[[-106.519745,31.751299],[-106.520456,31.751508]]}},{"type":"Feature","properties":{"access":"private","highway":"service"},"geometry":{"type":"LineString","coordinates":[[-106.518013,31.776395],[-106.517965,31.776175],[-106.517808,31.775934],[-106.517359,31.775619],[-106.517254,31.775506],[-106.517056,31.775234],[-106.517033,31.77515],[-106.517037,31.774536],[-106.51695,31.774089],[-106.51691,31.773964],[-106.51685,31.773854],[-106.516386,31.773235],[-106.516356,31.773143],[-106.516366,31.773083],[-106.516413,31.773038],[-106.516482,31.773015],[-106.516564,31.773024],[-106.516857,31.773141],[-106.517534,31.77334],[-106.518152,31.773614],[-106.518613,31.773972],[-106.519097,31.774228],[-106.519604,31.77454],[-106.520631,31.775005],[-106.520811,31.775116],[-106.521231,31.77547],[-106.522248,31.776459],[-106.522605,31.777011],[-106.522677,31.777071],[-106.522895,31.777204],[-106.52297,31.777297],[-106.523489,31.778287],[-106.5236,31.778526],[-106.523824,31.77929],[-106.523865,31.779476],[-106.523952,31.780065]]}},{"type":"Feature","properties":{"waterway":"drain"},"geometry":{"type":"LineString","coordinates":[[-106.518992,31.784081],[-106.520051,31.783706]]}},{"type":"Feature","properties":{"highway":"tertiary","name":"Calle Higuera"},"geometry":{"type":"LineString","coordinates":[[-106.519798,31.747721],[-106.520832,31.745155]]}},{"type":"Feature","properties":{"waterway":"drain"},"geometry":{"type":"LineString","coordinates":[[-106.519673,31.78768],[-106.519748,31.787661],[-106.519772,31.787633],[-106.519898,31.786833],[-106.520003,31.78637],[-106.520264,31.785832],[-106.520453,31.785182],[-106.520654,31.784835],[-106.520703,31.784683],[-106.520786,31.784593]]}},{"type":"Feature","properties":{"highway":"residential","name":"Calle Miguel Hidalgo"},"geometry":{"type":"LineString","coordinates":[[-106.519798,31.747721],[-106.520447,31.747907],[-106.52106,31.748109]]}},{"type":"Feature","properties":{"highway":"primary","name":"Avenida 16 de Septiembre Poniente"},"geometry":{"type":"LineString","coordinates":[[-106.519541,31.748351],[-106.520562,31.748648]]}},{"type":"Feature","properties":{"highway":"residential","name":"Calle Hospital","surface":"unpaved"},"geometry":{"type":"LineString","coordinates":[[-106.519164,31.74399],[-106.520416,31.744371],[-106.521708,31.744699]]}},{"type":"Feature","properties":{"highway":"primary","name":"West Paisano Drive","oneway":"yes","ref":"US 85"},"geometry":{"type":"LineString","coordinates":[[-106.511877,31.76932],[-106.512158,31.769745],[-106.512408,31.770074],[-106.512591,31.770297],[-106.5129,31.770632],[-106.513172,31.7709],[-106.513557,31.771242],[-106.513916,31.771503],[-106.514112,31.771623],[-106.514748,31.771945],[-106.515002,31.772035],[-106.515581,31.772209],[-106.517041,31.772519],[-106.517524,31.772667],[-106.517792,31.772775],[-106.520093,31.773899],[-106.520428,31.774085],[-106.52079,31.774312],[-106.521532,31.774822],[-106.52189,31.775119],[-106.522289,31.775513],[-106.523108,31.776465],[-106.52331,31.776728],[-106.523547,31.777108],[-106.523695,31.777415],[-106.524021,31.77833]]}},{"type":"Feature","properties":{"highway":"residential","name":"Calle Zapotlán","surface":"unpaved"},"geometry":{"type":"LineString","coordinates":[[-106.5196,31.772356],[-106.52036,31.771599]]}},{"type":"Feature","properties":{"highway":"motorway","name":"Border West Expressway","oneway":"yes","ref":"TX 375 Toll"},"geometry":{"type":"LineString","coordinates":[[-106.51961,31.788801],[-106.519807,31.789214],[-106.520235,31.789901],[-106.520793,31.790712]]}},{"type":"Feature","properties":{"name":"El Paso","place":"city"},"geometry":{"type":"Point","coordinates":[-106.487048,31.7601]}},{"type":"Feature","properties":{"ele":"1232","name":"Mission Hills","place":"hamlet"},"geometry":{"type":"Point","coordinates":[-106.496098,31.788997]}},{"type":"Feature","properties":{"ele":"1182","name":"Gold Hill","natural":"peak"},"geometry":{"type":"Point","coordinates":[-106.479765,31.774869]}},{"type":"Feature","properties":{"amenity":"clinic","name":"Texas Tech Medical Center El Paso"},"geometry":{"type":"Point","coordinates":[-106.434456,31.77319]}},{"type":"Feature","properties":{"name":"Las Playas","place":"neighbourhood"},"geometry":{"type":"Point","coordinates":[-106.454358,31.748102]}},{"type":"Feature","properties":{"amenity":"pharmacy"},"geometry":{"type":"Point","coordinates":[-106.498629,31.742076]}},{"type":"Feature","properties":{"name":"Postal","place":"suburb"},"geometry":{"type":"Point","coordinates":[-106.508879,31.745713]}},{"type":"Feature","properties":{"name":"Durango","place":"suburb"},"geometry":{"type":"Point","coordinates":[-106.504674,31.742173]}},{"type":"Feature","properties":{"amenity":"pharmacy"},"geometry":{"type":"Point","coordinates":[-106.45669,31.744774]}},{"type":"Feature","properties":{"amenity":"pharmacy"},"geometry":{"type":"Point","coordinates":[-106.513539,31.764197]}},{"type":"Feature","properties":{"amenity":"hospital","emergency":"no","name":"El Paso Psychiatric Center"},"geometry":{"type":"Point","coordinates":[-106.43622,31.772]}},{"type":"Feature","properties":{"amenity":"pharmacy"},"geometry":{"type":"Point","coordinates":[-106.487353,31.758866]}},{"type":"Feature","properties":{"amenity":"hospital","emergency":"yes","name":"El Paso Children's Hospital"},"geometry":{"type":"Point","coordinates":[-106.433956,31.771455]}},{"type":"Feature","properties":{"access":"yes","amenity":"drinking_water"},"geometry":{"type":"Point","coordinates":[-106.401565,31.759588]}},{"type":"Feature","properties":{"amenity":"pharmacy","name":"Farmalivio"},"geometry":{"type":"Point","coordinates":[-106.507778,31.745287]}},{"type":"Feature","properties":{"amenity":"drinking_water"},"geometry":{"type":"Point","coordinates":[-106.497346,31.782851]}},{"type":"Feature","properties":{"amenity":"police","name":"Estacion de Policia Distrito Delicias"},"geometry":{"type":"Point","coordinates":[-106.493203,31.740696]}},{"type":"Feature","properties":{"amenity":"fire_station","name":"El Paso Fire Station 5"},"geometry":{"type":"Point","coordinates":[-106.429864,31.776397]}},{"type":"Feature","properties":{"amenity":"drinking_water"},"geometry":{"type":"Point","coordinates":[-106.490083,31.756995]}},{"type":"Feature","properties":{"amenity":"police","name":"UTEP Police"},"geometry":{"type":"Point","coordinates":[-106.507634,31.780144]}},{"type":"Feature","properties":{"amenity":"hospital","name":"Las Palmas Rehabilitation Hospital"},"geometry":{"type":"Point","coordinates":[-106.508826,31.789053]}},{"type":"Feature","properties":{"amenity":"doctors","name":"ConVisión"},"geometry":{"type":"Point","coordinates":[-106.430429,31.747553]}},{"type":"Feature","properties":{"amenity":"pharmacy","name":"Walgreens","ref":"5274"},"geometry":{"type":"Point","coordinates":[-106.503629,31.77856]}},{"type":"Feature","properties":{"amenity":"clinic","name":"Instituto Regional del Tratamiento del Cancer"},"geometry":{"type":"Point","coordinates":[-106.447054,31.743007]}},{"type":"Feature","properties":{"amenity":"doctors","name":"Maspóns Pediatric Gastro"},"geometry":{"type":"Point","coordinates":[-106.497185,31.769117]}},{"type":"Feature","properties":{"amenity":"drinking_water"},"geometry":{"type":"Point","coordinates":[-106.462754,31.782199]}},{"type":"Feature","properties":{"amenity":"shelter"},"geometry":{"type":"Point","coordinates":[-106.501929,31.7642]}},{"type":"Feature","properties":{"amenity":"drinking_water"},"geometry":{"type":"Point","coordinates":[-106.489045,31.758286]}},{"type":"Feature","properties":{"amenity":"shelter"},"geometry":{"type":"Point","coordinates":[-106.45368,31.756972]}},{"type":"Feature","properties":{"amenity":"shelter"},"geometry":{"type":"Point","coordinates":[-106.454154,31.756671]}},{"type":"Feature","properties":{"amenity":"shelter"},"geometry":{"type":"Point","coordinates":[-106.454532,31.756522]}},{"type":"Feature","properties":{"amenity":"shelter"},"geometry":{"type":"Point","coordinates":[-106.455452,31.756075]}},{"type":"Feature","properties":{"amenity":"shelter"},"geometry":{"type":"Point","coordinates":[-106.456305,31.757694]}},{"type":"Feature","properties":{"amenity":"shelter"},"geometry":{"type":"Point","coordinates":[-106.456386,31.758732]}},{"type":"Feature","properties":{"amenity":"shelter"},"geometry":{"type":"Point","coordinates":[-106.456839,31.75893]}},{"type":"Feature","properties":{"amenity":"shelter"},"geometry":{"type":"Point","coordinates":[-106.457202,31.759036]}},{"type":"Feature","properties":{"amenity":"shelter"},"geometry":{"type":"Point","coordinates":[-106.457684,31.75903]}},{"type":"Feature","properties":{"amenity":"shelter"},"geometry":{"type":"Point","coordinates":[-106.457987,31.758962]}},{"type":"Feature","properties":{"amenity":"shelter"},"geometry":{"type":"Point","coordinates":[-106.458415,31.759009]}},{"type":"Feature","properties":{"amenity":"shelter"},"geometry":{"type":"Point","coordinates":[-106.458669,31.75897]}},{"type":"Feature","properties":{"amenity":"shelter"},"geometry":{"type":"Point","coordinates":[-106.45934,31.758997]}},{"type":"Feature","properties":{"amenity":"shelter"},"geometry":{"type":"Point","coordinates":[-106.460323,31.75896]}},{"type":"Feature","properties":{"amenity":"shelter"},"geometry":{"type":"Point","coordinates":[-106.454629,31.759872]}},{"type":"Feature","properties":{"amenity":"shelter"},"geometry":{"type":"Point","coordinates":[-106.46131,31.758902]}},{"type":"Feature","properties":{"amenity":"shelter"},"geometry":{"type":"Point","coordinates":[-106.457482,31.757441]}},{"type":"Feature","properties":{"amenity":"shelter"},"geometry":{"type":"Point","coordinates":[-106.459915,31.752629]}},{"type":"Feature","properties":{"amenity":"shelter"},"geometry":{"type":"Point","coordinates":[-106.460205,31.752506]}},{"type":"Feature","properties":{"amenity":"shelter"},"geometry":{"type":"Point","coordinates":[-106.452695,31.759471]}},{"type":"Feature","properties":{"amenity":"shelter"},"geometry":{"type":"Point","coordinates":[-106.458622,31.753343]}}],"attribution":"© OpenStreetMap contributors"}
