{"type":"FeatureCollection","features":[{"type":"Feature","properties":{"name":"Lomas de Poleo","place":"hamlet"},"geometry":{"type":"Point","coordinates":[-106.574558,31.765418]}},{"type":"Feature","properties":{"name":"Anexas","place":"suburb"},"geometry":{"type":"Point","coordinates":[-106.510819,31.727346]}},{"type":"Feature","properties":{"ele":"1750","name":"Cerro Bola","natural":"peak"},"geometry":{"type":"Point","coordinates":[-106.519254,31.670854]}},{"type":"Feature","properties":{"name":"Asfixia","natural":"peak"},"geometry":{"type":"Point","coordinates":[-106.558593,31.682042]}},{"type":"Feature","properties":{"amenity":"pharmacy"},"geometry":{"type":"Point","coordinates":[-106.498629,31.742076]}},{"type":"Feature","properties":{"name":"Felipe Ángeles","place":"suburb"},"geometry":{"type":"Point","coordinates":[-106.52081,31.758066]}},{"type":"Feature","properties":{"name":"Postal","place":"suburb"},"geometry":{"type":"Point","coordinates":[-106.508879,31.745713]}},{"type":"Feature","properties":{"name":"Durango","place":"suburb"},"geometry":{"type":"Point","coordinates":[-106.504674,31.742173]}},{"type":"Feature","properties":{"amenity":"pharmacy"},"geometry":{"type":"Point","coordinates":[-106.513539,31.764197]}},{"type":"Feature","properties":{"natural":"peak"},"geometry":{"type":"Point","coordinates":[-106.530695,31.767442]}},{"type":"Feature","properties":{"ele":"1580","natural":"peak"},"geometry":{"type":"Point","coordinates":[-106.585052,31.721063]}},{"type":"Feature","properties":{"ele":"1690","natural":"peak"},"geometry":{"type":"Point","coordinates":[-106.579031,31.699619]}},{"type":"Feature","properties":{"ele":"1560","natural":"peak"},"geometry":{"type":"Point","coordinates":[-106.542618,31.699395]}},{"type":"Feature","properties":{"ele":"1500","name":"El Aguila","natural":"peak"},"geometry":{"type":"Point","coordinates":[-106.511899,31.693689]}},{"type":"Feature","properties":{"access":"yes","amenity":"drinking_water","name":"El Pocito","natural":"spring"},"geometry":{"type":"Point","coordinates":[-106.513001,31.707473]}},{"type":"Feature","properties":{"amenity":"pharmacy","name":"Farmalivio"},"geometry":{"type":"Point","coordinates":[-106.507778,31.745287]}},{"type":"Feature","properties":{"amenity":"police","name":"Estacion de Policia Distrito Delicias"},"geometry":{"type":"Point","coordinates":[-106.493203,31.740696]}},{"type":"Feature","properties":{"amenity":"drinking_water"},"geometry":{"type":"Point","coordinates":[-106.490083,31.756995]}},{"type":"Feature","properties":{"name":"Cerro de la Biblia","natural":"peak"},"geometry":{"type":"Point","coordinates":[-106.520527,31.704192]}},{"type":"Feature","properties":{"ele":"1380","name":"Cerrito Castejón","natural":"peak"},"geometry":{"type":"Point","coordinates":[-106.583583,31.707994]}},{"type":"Feature","properties":{"ele":"1400","name":"Cerro de la Cruz","natural":"peak"},"geometry":{"type":"Point","coordinates":[-106.50794,31.705021]}},{"type":"Feature","properties":{"name":"Asfixia","natural":"peak"},"geometry":{"type":"Point","coordinates":[-106.55921,31.681489]}},{"type":"Feature","properties":{"natural":"peak"},"geometry":{"type":"Point","coordinates":[-106.564566,31.685205]}},{"type":"Feature","properties":{"natural":"peak"},"geometry":{"type":"Point","coordinates":[-106.557012,31.683689]}},{"type":"Feature","properties":{"natural":"peak"},"geometry":{"type":"Point","coordinates":[-106.554867,31.685095]}},{"type":"Feature","properties":{"natural":"peak"},"geometry":{"type":"Point","coordinates":[-106.559528,31.692431]}},{"type":"Feature","properties":{"natural":"peak"},"geometry":{"type":"Point","coordinates":[-106.557839,31.690428]}},{"type":"Feature","properties":{"natural":"peak"},"geometry":{"type":"Point","coordinates":[-106.556853,31.688918]}},{"type":"Feature","properties":{"natural":"peak"},"geometry":{"type":"Point","coordinates":[-106.547523,31.680517]}},{"type":"Feature","properties":{"name":"Cima Real","natural":"peak"},"geometry":{"type":"Point","coordinates":[-106.50545,31.702422]}},{"type":"Feature","properties":{"amenity":"pharmacy"},"geometry":{"type":"Point","coordinates":[-106.529819,31.732883]}},{"type":"Feature","properties":{"amenity":"doctors","name":"Maspóns Pediatric Gastro"},"geometry":{"type":"Point","coordinates":[-106.497185,31.769117]}},{"type":"Feature","properties":{"amenity":"shelter"},"geometry":{"type":"Point","coordinates":[-106.501929,31.7642]}},{"type":"Feature","properties":{"ele":"1190","natural":"peak"},"geometry":{"type":"Point","coordinates":[-106.519138,31.755355]}},{"type":"Feature","properties":{"name":"Las Marraneras","place":"suburb"},"geometry":{"type":"Point","coordinates":[-106.546041,31.72785]}},{"type":"Feature","properties":{"name":"El Paso","place":"city"},"geometry":{"type":"Point","coordinates":[-106.487048,31.7601]}},{"type":"Feature","properties":{"ele":"1125","name":"Lakeside","place":"hamlet"},"geometry":{"type":"Point","coordinates":[-106.398318,31.747054]}},{"type":"Feature","properties":{"ele":"1127","name":"Alfalfa","place":"hamlet"},"geometry":{"type":"Point","coordinates":[-106.381651,31.755387]}},{"type":"Feature","properties":{"amenity":"hospital"},"geometry":{"type":"Point","coordinates":[-106.429548,31.708221]}},{"type":"Feature","properties":{"amenity":"pharmacy","name":"Farmacia La Victoria"},"geometry":{"type":"Point","coordinates":[-106.412399,31.668841]}},{"type":"Feature","properties":{"name":"Las Playas","place":"neighbourhood"},"geometry":{"type":"Point","coordinates":[-106.454358,31.748102]}},{"type":"Feature","properties":{"amenity":"pharmacy"},"geometry":{"type":"Point","coordinates":[-106.449671,31.733702]}},{"type":"Feature","properties":{"amenity":"pharmacy"},"geometry":{"type":"Point","coordinates":[-106.397639,31.718058]}},{"type":"Feature","properties":{"ele":"1290","natural":"peak"},"geometry":{"type":"Point","coordinates":[-106.489454,31.677586]}},{"type":"Feature","properties":{"amenity":"pharmacy","name":"Benavides"},"geometry":{"type":"Point","coordinates":[-106.417338,31.721574]}},{"type":"Feature","properties":{"amenity":"pharmacy"},"geometry":{"type":"Point","coordinates":[-106.45669,31.744774]}},{"type":"Feature","properties":{"amenity":"pharmacy"},"geometry":{"type":"Point","coordinates":[-106.403344,31.691298]}},{"type":"Feature","properties":{"amenity":"pharmacy"},"geometry":{"type":"Point","coordinates":[-106.374291,31.694341]}},{"type":"Feature","properties":{"amenity":"pharmacy"},"geometry":{"type":"Point","coordinates":[-106.415822,31.673528]}},{"type":"Feature","properties":{"amenity":"pharmacy"},"geometry":{"type":"Point","coordinates":[-106.42503,31.701335]}},{"type":"Feature","properties":{"amenity":"pharmacy"},"geometry":{"type":"Point","coordinates":[-106.440668,31.737983]}},{"type":"Feature","properties":{"amenity":"hospital","name":"Centro de Salud # 14"},"geometry":{"type":"Point","coordinates":[-106.370873,31.685336]}},{"type":"Feature","properties":{"amenity":"pharmacy"},"geometry":{"type":"Point","coordinates":[-106.447714,31.737152]}},{"type":"Feature","properties":{"amenity":"pharmacy"},"geometry":{"type":"Point","coordinates":[-106.413192,31.732697]}},{"type":"Feature","properties":{"ele":"1137","name":"Ciudad Juárez","place":"city"},"geometry":{"type":"Point","coordinates":[-106.425321,31.690798]}},{"type":"Feature","properties":{"amenity":"pharmacy"},"geometry":{"type":"Point","coordinates":[-106.442507,31.728917]}},{"type":"Feature","properties":{"amenity":"pharmacy"},"geometry":{"type":"Point","coordinates":[-106.437574,31.727742]}},{"type":"Feature","properties":{"amenity":"pharmacy"},"geometry":{"type":"Point","coordinates":[-106.404341,31.693887]}},{"type":"Feature","properties":{"amenity":"pharmacy"},"geometry":{"type":"Point","coordinates":[-106.393388,31.697928]}},{"type":"Feature","properties":{"amenity":"pharmacy"},"geometry":{"type":"Point","coordinates":[-106.384604,31.692614]}},{"type":"Feature","properties":{"name":"Residencial La Florida","place":"neighbourhood"},"geometry":{"type":"Point","coordinates":[-106.39567,31.7051]}},{"type":"Feature","properties":{"amenity":"pharmacy"},"geometry":{"type":"Point","coordinates":[-106.487353,31.758866]}},{"type":"Feature","properties":{"amenity":"pharmacy"},"geometry":{"type":"Point","coordinates":[-106.430299,31.739275]}},{"type":"Feature","properties":{"amenity":"pharmacy"},"geometry":{"type":"Point","coordinates":[-106.445605,31.713538]}},{"type":"Feature","properties":{"amenity":"pharmacy"},"geometry":{"type":"Point","coordinates":[-106.451143,31.716142]}},{"type":"Feature","properties":{"amenity":"pharmacy"},"geometry":{"type":"Point","coordinates":[-106.482016,31.707812]}},{"type":"Feature","properties":{"amenity":"pharmacy","name":"Similares"},"geometry":{"type":"Point","coordinates":[-106.441921,31.660325]}},{"type":"Feature","properties":{"amenity":"pharmacy","name":"Benavides"},"geometry":{"type":"Point","coordinates":[-106.484705,31.738549]}},{"type":"Feature","properties":{"amenity":"pharmacy","name":"Benavides"},"geometry":{"type":"Point","coordinates":[-106.485886,31.739059]}},{"type":"Feature","properties":{"amenity":"fire_station","name":"Estacion De Bomberos 5"},"geometry":{"type":"Point","coordinates":[-106.456149,31.706249]}},{"type":"Feature","properties":{"amenity":"fire_station"},"geometry":{"type":"Point","coordinates":[-106.472965,31.717541]}},{"type":"Feature","properties":{"amenity":"pharmacy","name":"De la Salud"},"geometry":{"type":"Point","coordinates":[-106.486641,31.739874]}},{"type":"Feature","properties":{"amenity":"pharmacy"},"geometry":{"type":"Point","coordinates":[-106.474463,31.670935]}},{"type":"Feature","properties":{"amenity":"hospital","name":"Cruz roja mexicana"},"geometry":{"type":"Point","coordinates":[-106.443602,31.680666]}},{"type":"Feature","properties":{"access":"yes","amenity":"drinking_water"},"geometry":{"type":"Point","coordinates":[-106.401565,31.759588]}},{"type":"Feature","properties":{"amenity":"pharmacy","name":"Farmacia Guadalajara"},"geometry":{"type":"Point","coordinates":[-106.434966,31.720645]}},{"type":"Feature","properties":{"amenity":"pharmacy","name":"Farmacias Similares"},"geometry":{"type":"Point","coordinates":[-106.409326,31.736154]}},{"type":"Feature","properties":{"amenity":"shelter"},"geometry":{"type":"Point","coordinates":[-106.486061,31.738483]}},{"type":"Feature","properties":{"amenity":"doctors","name":"ConVisión"},"geometry":{"type":"Point","coordinates":[-106.430429,31.747553]}},{"type":"Feature","properties":{"amenity":"shelter"},"geometry":{"type":"Point","coordinates":[-106.404529,31.701378]}},{"type":"Feature","properties":{"amenity":"clinic","name":"Instituto Regional del Tratamiento del Cancer"},"geometry":{"type":"Point","coordinates":[-106.447054,31.743007]}},{"type":"Feature","properties":{"amenity":"clinic","name":"Clínica Médica Internacional"},"geometry":{"type":"Point","coordinates":[-106.405273,31.686899]}},{"type":"Feature","properties":{"amenity":"clinic","name":"Servicios Médicos de la Frontera"},"geometry":{"type":"Point","coordinates":[-106.404169,31.687005]}},{"type":"Feature","properties":{"amenity":"pharmacy","name":"Benavides"},"geometry":{"type":"Point","coordinates":[-106.391331,31.659343]}},{"type":"Feature","properties":{"amenity":"pharmacy"},"geometry":{"type":"Point","coordinates":[-106.373118,31.684594]}},{"type":"Feature","properties":{"name":"Pradera Dorada","place":"suburb"},"geometry":{"type":"Point","coordinates":[-106.417948,31.697841]}},{"type":"Feature","properties":{"amenity":"drinking_water"},"geometry":{"type":"Point","coordinates":[-106.489045,31.758286]}},{"type":"Feature","properties":{"amenity":"shelter"},"geometry":{"type":"Point","coordinates":[-106.45368,31.756972]}},{"type":"Feature","properties":{"amenity":"shelter"},"geometry":{"type":"Point","coordinates":[-106.454154,31.756671]}},{"type":"Feature","properties":{"amenity":"shelter"},"geometry":{"type":"Point","coordinates":[-106.454532,31.756522]}},{"type":"Feature","properties":{"amenity":"shelter"},"geometry":{"type":"Point","coordinates":[-106.455452,31.756075]}},{"type":"Feature","properties":{"amenity":"shelter"},"geometry":{"type":"Point","coordinates":[-106.456305,31.757694]}},{"type":"Feature","properties":{"amenity":"shelter"},"geometry":{"type":"Point","coordinates":[-106.456386,31.758732]}},{"type":"Feature","properties":{"amenity":"shelter"},"geometry":{"type":"Point","coordinates":[-106.456839,31.75893]}},{"type":"Feature","properties":{"amenity":"shelter"},"geometry":{"type":"Point","coordinates":[-106.457202,31.759036]}},{"type":"Feature","properties":{"amenity":"shelter"},"geometry":{"type":"Point","coordinates":[-106.457684,31.75903]}},{"type":"Feature","properties":{"amenity":"shelter"},"geometry":{"type":"Point","coordinates":[-106.457987,31.758962]}},{"type":"Feature","properties":{"amenity":"shelter"},"geometry":{"type":"Point","coordinates":[-106.458415,31.759009]}},{"type":"Feature","properties":{"amenity":"shelter"},"geometry":{"type":"Point","coordinates":[-106.458669,31.75897]}},{"type":"Feature","properties":{"amenity":"shelter"},"geometry":{"type":"Point","coordinates":[-106.45934,31.758997]}},{"type":"Feature","properties":{"amenity":"shelter"},"geometry":{"type":"Point","coordinates":[-106.460323,31.75896]}},{"type":"Feature","properties":{"amenity":"shelter"},"geometry":{"type":"Point","coordinates":[-106.454629,31.759872]}},{"type":"Feature","properties":{"amenity":"shelter"},"geometry":{"type":"Point","coordinates":[-106.46131,31.758902]}},{"type":"Feature","properties":{"amenity":"shelter"},"geometry":{"type":"Point","coordinates":[-106.457482,31.757441]}},{"type":"Feature","properties":{"amenity":"shelter"},"geometry":{"type":"Point","coordinates":[-106.459915,31.752629]}},{"type":"Feature","properties":{"amenity":"shelter"},"geometry":{"type":"Point","coordinates":[-106.460205,31.752506]}},{"type":"Feature","properties":{"amenity":"shelter"},"geometry":{"type":"Point","coordinates":[-106.452695,31.759471]}},{"type":"Feature","properties":{"amenity":"shelter"},"geometry":{"type":"Point","coordinates":[-106.458622,31.753343]}},{"type":"Feature","properties":{"amenity":"shelter"},"geometry":{"type":"Point","coordinates":[-106.458786,31.753139]}},{"type":"Feature","properties":{"amenity":"shelter"},"geometry":{"type":"Point","coordinates":[-106.441039,31.754782]}},{"type":"Feature","properties":{"amenity":"shelter"},"geometry":{"type":"Point","coordinates":[-106.440709,31.754516]}},{"type":"Feature","properties":{"amenity":"drinking_water"},"geometry":{"type":"Point","coordinates":[-106.488653,31.759452]}},{"type":"Feature","properties":{"name":"El Segundo Barrio","place":"neighbourhood"},"geometry":{"type":"Point","coordinates":[-106.47802,31.754578]}},{"type":"Feature","properties":{"name":"Chihuahuita","place":"neighbourhood"},"geometry":{"type":"Point","coordinates":[-106.489903,31.750289]}},{"type":"Feature","properties":{"name":"Downtown Historic District","place":"quarter"},"geometry":{"type":"Point","coordinates":[-106.488164,31.758853]}},{"type":"Feature","properties":{"name":"Downtown","place":"suburb"},"geometry":{"type":"Point","coordinates":[-106.489009,31.760264]}},{"type":"Feature","properties":{"ele":"1137","name":"Loma Terrace","place":"hamlet"},"geometry":{"type":"Point","coordinates":[-106.331928,31.731499]}},{"type":"Feature","properties":{"ele":"1116","name":"Delip Colonia","place":"hamlet"},"geometry":{"type":"Point","coordinates":[-106.279425,31.671223]}},{"type":"Feature","properties":{"ele":"1115","name":"Rio Vista Addition Colonia","place":"hamlet"},"geometry":{"type":"Point","coordinates":[-106.293592,31.655113]}},{"type":"Feature","properties":{"ele":"1116","name":"Moon Addition Number 2 Colonia","place":"hamlet"},"geometry":{"type":"Point","coordinates":[-106.293592,31.661224]}},{"type":"Feature","properties":{"ele":"1116","name":"La Junta Addition Colonia","place":"hamlet"},"geometry":{"type":"Point","coordinates":[-106.300537,31.654001]}},{"type":"Feature","properties":{"ele":"1122","name":"San Jose","place":"hamlet"},"geometry":{"type":"Point","coordinates":[-106.363039,31.721221]}},{"type":"Feature","properties":{"ele":"1117","name":"Adobe Colonia","place":"hamlet"},"geometry":{"type":"Point","coordinates":[-106.302481,31.651224]}},{"type":"Feature","properties":{"ele":"1116","name":"Bagge Estates Colonia","place":"hamlet"},"geometry":{"type":"Point","coordinates":[-106.284425,31.670112]}},{"type":"Feature","properties":{"ele":"1115","name":"Monterosales Colonia","place":"hamlet"},"geometry":{"type":"Point","coordinates":[-106.285536,31.652057]}},{"type":"Feature","properties":{"ele":"1115","name":"Ellen Park Colonia","place":"hamlet"},"geometry":{"type":"Point","coordinates":[-106.273592,31.653168]}},{"type":"Feature","properties":{"ele":"1115","name":"Gurdev Colonia","place":"hamlet"},"geometry":{"type":"Point","coordinates":[-106.276647,31.664001]}},{"type":"Feature","properties":{"ele":"1116","name":"Calcutta Colonia","place":"hamlet"},"geometry":{"type":"Point","coordinates":[-106.276647,31.671223]}},{"type":"Feature","properties":{"ele":"1115","name":"San Agustin Colonia","place":"hamlet"},"geometry":{"type":"Point","coordinates":[-106.273592,31.666224]}},{"type":"Feature","properties":{"ele":"1116","name":"Moon Addition Number 3 Colonia","place":"hamlet"},"geometry":{"type":"Point","coordinates":[-106.287481,31.664001]}},{"type":"Feature","properties":{"ele":"1115","name":"Rio Rancho Estates Colonia","place":"hamlet"},"geometry":{"type":"Point","coordinates":[-106.268592,31.664001]}},{"type":"Feature","properties":{"ele":"1116","name":"Socorro","place":"town"},"geometry":{"type":"Point","coordinates":[-106.303315,31.654557]}},{"type":"Feature","properties":{"ele":"1115","name":"La Fuente Colonia","place":"hamlet"},"geometry":{"type":"Point","coordinates":[-106.276647,31.657057]}},{"type":"Feature","properties":{"ele":"1114","name":"Hillcrest Manor Colonia","place":"hamlet"},"geometry":{"type":"Point","coordinates":[-106.25748,31.656224]}},{"type":"Feature","properties":{"ele":"1116","name":"Spanish Trail Additon Colonia","place":"hamlet"},"geometry":{"type":"Point","coordinates":[-106.296648,31.657057]}},{"type":"Feature","properties":{"ele":"1117","name":"Socorro Village Addition Colonia","place":"hamlet"},"geometry":{"type":"Point","coordinates":[-106.306648,31.654001]}},{"type":"Feature","properties":{"ele":"1124","name":"Tigua","place":"hamlet"},"geometry":{"type":"Point","coordinates":[-106.364151,31.741777]}},{"type":"Feature","properties":{"ele":"1116","name":"North Loop Acres Colonia","place":"hamlet"},"geometry":{"type":"Point","coordinates":[-106.281648,31.671223]}},{"type":"Feature","properties":{"ele":"1116","name":"Grijalva Gardens Colonia","place":"hamlet"},"geometry":{"type":"Point","coordinates":[-106.272481,31.672057]}},{"type":"Feature","properties":{"ele":"1116","name":"Algodon Colonia","place":"hamlet"},"geometry":{"type":"Point","coordinates":[-106.302481,31.657057]}},{"type":"Feature","properties":{"ele":"1116","name":"Mary Lou Park Colonia","place":"hamlet"},"geometry":{"type":"Point","coordinates":[-106.263591,31.651224]}},{"type":"Feature","properties":{"ele":"1129","name":"Hacienda Heights","place":"hamlet"},"geometry":{"type":"Point","coordinates":[-106.353595,31.742888]}},{"type":"Feature","properties":{"ele":"1116","name":"Moon Addition Colonia","place":"hamlet"},"geometry":{"type":"Point","coordinates":[-106.291648,31.662057]}},{"type":"Feature","properties":{"ele":"1119","name":"Ysleta","place":"suburb"},"geometry":{"type":"Point","coordinates":[-106.324982,31.698445]}},{"type":"Feature","properties":{"ele":"1115","name":"Buford View Estates Colonia","place":"hamlet"},"geometry":{"type":"Point","coordinates":[-106.292916,31.651966]}},{"type":"Feature","properties":{"ele":"1154","name":"Del Norte Heights","place":"hamlet"},"geometry":{"type":"Point","coordinates":[-106.365262,31.757609]}},{"type":"Feature","properties":{"ele":"1117","name":"Frank Colonia","place":"hamlet"},"geometry":{"type":"Point","coordinates":[-106.307481,31.660112]}},{"type":"Feature","properties":{"ele":"1117","name":"Sunshine Colonia","place":"hamlet"},"geometry":{"type":"Point","coordinates":[-106.299426,31.666223]}},{"type":"Feature","properties":{"ele":"1116","name":"Moon Addition Number 4 Colonia","place":"hamlet"},"geometry":{"type":"Point","coordinates":[-106.287481,31.662057]}},{"type":"Feature","properties":{"amenity":"fire_station"},"geometry":{"type":"Point","coordinates":[-106.342674,31.66886]}},{"type":"Feature","properties":{"amenity":"pharmacy","name":"Walgreens"},"geometry":{"type":"Point","coordinates":[-106.319713,31.766383]}},{"type":"Feature","properties":{"amenity":"pharmacy","name":"Walgreens","ref":"1293"},"geometry":{"type":"Point","coordinates":[-106.353729,31.760775]}},{"type":"Feature","properties":{"name":"Desarrollo Altozano","place":"suburb"},"geometry":{"type":"Point","coordinates":[-106.334305,31.654988]}},{"type":"Feature","properties":{"amenity":"police","name":"El Paso Police Department"},"geometry":{"type":"Point","coordinates":[-106.308097,31.714001]}},{"type":"Feature","properties":{"amenity":"clinic","name":"Action Behavior Centers - ABA Therapy for Autism"},"geometry":{"type":"Point","coordinates":[-106.300871,31.7324]}},{"type":"Feature","properties":{"amenity":"clinic","emergency":"yes","name":"Trinity ER"},"geometry":{"type":"Point","coordinates":[-106.300372,31.764294]}},{"type":"Feature","properties":{"amenity":"doctors"},"geometry":{"type":"Point","coordinates":[-106.31846,31.758681]}},{"type":"Feature","properties":{"amenity":"clinic","name":"Upper Valley Urgent Care Center - Eastlake"},"geometry":{"type":"Point","coordinates":[-106.266632,31.684303]}},{"type":"Feature","properties":{"amenity":"clinic","name":"DaVita Dialysis"},"geometry":{"type":"Point","coordinates":[-106.269205,31.654409]}},{"type":"Feature","properties":{"amenity":"clinic","name":"Ysleta del Sur Pueblo Health Clinic"},"geometry":{"type":"Point","coordinates":[-106.322146,31.683982]}},{"type":"Feature","properties":{"name":"Stonehaven","place":"neighbourhood"},"geometry":{"type":"Point","coordinates":[-106.361196,31.769274]}},{"type":"Feature","properties":{"name":"Vista de Sol West","place":"neighbourhood"},"geometry":{"type":"Point","coordinates":[-106.330487,31.768428]}},{"type":"Feature","properties":{"name":"Travis White","place":"neighbourhood"},"geometry":{"type":"Point","coordinates":[-106.346963,31.764511]}},{"type":"Feature","properties":{"name":"Vista de Oro","place":"neighbourhood"},"geometry":{"type":"Point","coordinates":[-106.334565,31.760077]}},{"type":"Feature","properties":{"name":"Vista Hills Park","place":"neighbourhood"},"geometry":{"type":"Point","coordinates":[-106.324996,31.760222]}},{"type":"Feature","properties":{"name":"Vista Hills","place":"neighbourhood"},"geometry":{"type":"Point","coordinates":[-106.310541,31.75896]}},{"type":"Feature","properties":{"name":"Vista del Sol East","place":"neighbourhood"},"geometry":{"type":"Point","coordinates":[-106.310717,31.766778]}},{"type":"Feature","properties":{"name":"O'Shea Keleher","place":"neighbourhood"},"geometry":{"type":"Point","coordinates":[-106.293046,31.763225]}},{"type":"Feature","properties":{"name":"Marty Robbins North","place":"neighbourhood"},"geometry":{"type":"Point","coordinates":[-106.289239,31.754661]}},{"type":"Feature","properties":{"name":"Marty Robbins South","place":"neighbourhood"},"geometry":{"type":"Point","coordinates":[-106.29331,31.745112]}},{"type":"Feature","properties":{"name":"Sun Ridge South","place":"neighbourhood"},"geometry":{"type":"Point","coordinates":[-106.258667,31.766776]}},{"type":"Feature","properties":{"name":"Stone Ridge","place":"neighbourhood"},"geometry":{"type":"Point","coordinates":[-106.298486,31.738508]}},{"type":"Feature","properties":{"name":"Las Palmas","place":"neighbourhood"},"geometry":{"type":"Point","coordinates":[-106.306337,31.73637]}},{"type":"Feature","properties":{"name":"Lower Valley","place":"suburb"},"geometry":{"type":"Point","coordinates":[-106.354254,31.735281]}},{"type":"Feature","properties":{"ele":"1226","name":"Horizon City","place":"town"},"geometry":{"type":"Point","coordinates":[-106.207479,31.692612]}},{"type":"Feature","properties":{"ele":"1173","name":"Spark's Addition Number 3 Colonia","place":"hamlet"},"geometry":{"type":"Point","coordinates":[-106.23748,31.672057]}},{"type":"Feature","properties":{"ele":"1173","name":"Spark's Addition Number 2 Colonia","place":"hamlet"},"geometry":{"type":"Point","coordinates":[-106.244425,31.679001]}},{"type":"Feature","properties":{"ele":"1153","name":"Spark's Addition Colonia","place":"hamlet"},"geometry":{"type":"Point","coordinates":[-106.245536,31.671224]}},{"type":"Feature","properties":{"ele":"1162","name":"Sparks","place":"hamlet"},"geometry":{"type":"Point","coordinates":[-106.239702,31.672612]}},{"type":"Feature","properties":{"ele":"1194","name":"Spark's Addition Number 4 Colonia","place":"hamlet"},"geometry":{"type":"Point","coordinates":[-106.235535,31.679001]}},{"type":"Feature","properties":{"amenity":"clinic","name":"Action Behavior Centers - ABA Therapy for Autism"},"geometry":{"type":"Point","coordinates":[-106.242898,31.697973]}},{"type":"Feature","properties":{"ele":"1147","name":"Prado Verde","place":"hamlet"},"geometry":{"type":"Point","coordinates":[-106.613602,31.889826]}},{"type":"Feature","properties":{"ele":"1254","name":"Mastodon","place":"hamlet"},"geometry":{"type":"Point","coordinates":[-106.695825,31.82205]}},{"type":"Feature","properties":{"ele":"1253","name":"Strauss","place":"hamlet"},"geometry":{"type":"Point","coordinates":[-106.698796,31.864245]}},{"type":"Feature","properties":{"ele":"1216","name":"Lizard","place":"hamlet"},"geometry":{"type":"Point","coordinates":[-106.628879,31.821773]}},{"type":"Feature","properties":{"ele":"1156","name":"Santa Teresa","place":"town"},"geometry":{"type":"Point","coordinates":[-106.646571,31.858873]}},{"type":"Feature","properties":{"ele":"1147","name":"Prado Verde Addition Number 1 Colonia","place":"quarter"},"geometry":{"type":"Point","coordinates":[-106.613602,31.88816]}},{"type":"Feature","properties":{"ele":"1148","name":"Orange","place":"hamlet"},"geometry":{"type":"Point","coordinates":[-106.636102,31.860938]}},{"type":"Feature","properties":{"amenity":"clinic","name":"Women's Reproductive Clinic of New Mexico"},"geometry":{"type":"Point","coordinates":[-106.624811,31.849113]}},{"type":"Feature","properties":{"amenity":"fire_station","name":"Sunland Park Fire Department Station 2"},"geometry":{"type":"Point","coordinates":[-106.641816,31.86113]}},{"type":"Feature","properties":{"ele":"1148","name":"Montoya","place":"hamlet"},"geometry":{"type":"Point","coordinates":[-106.580823,31.850661]}},{"type":"Feature","properties":{"ele":"1232","name":"Mission Hills","place":"hamlet"},"geometry":{"type":"Point","coordinates":[-106.496098,31.788997]}},{"type":"Feature","properties":{"ele":"1150","name":"Borderland","place":"quarter"},"geometry":{"type":"Point","coordinates":[-106.597356,31.886173]}},{"type":"Feature","properties":{"ele":"1146","name":"Green Acres Colonia","place":"quarter"},"geometry":{"type":"Point","coordinates":[-106.599435,31.87566]}},{"type":"Feature","properties":{"ele":"1155","name":"Sunland Park","place":"town"},"geometry":{"type":"Point","coordinates":[-106.579989,31.796496]}},{"type":"Feature","properties":{"ele":"1241","name":"Coronado Hills","place":"hamlet"},"geometry":{"type":"Point","coordinates":[-106.527488,31.828162]}},{"type":"Feature","properties":{"ele":"1160","name":"Buena Vista","place":"neighbourhood"},"geometry":{"type":"Point","coordinates":[-106.539648,31.807616]}},{"type":"Feature","properties":{"ele":"1392","name":"Crazycat Mountain","natural":"peak"},"geometry":{"type":"Point","coordinates":[-106.494491,31.794828]}},{"type":"Feature","properties":{"ele":"1378","name":"Flag Hill","natural":"peak"},"geometry":{"type":"Point","coordinates":[-106.498043,31.81344]}},{"type":"Feature","properties":{"ele":"1870","name":"Mount Franklin","natural":"peak"},"geometry":{"type":"Point","coordinates":[-106.49221,31.832051]}},{"type":"Feature","properties":{"ele":"2070","name":"South Franklin Mountain","natural":"peak"},"geometry":{"type":"Point","coordinates":[-106.490821,31.86455]}},{"type":"Feature","properties":{"ele":"1400","name":"Sierra de Cristo Rey","natural":"peak"},"geometry":{"type":"Point","coordinates":[-106.545812,31.787231]}},{"type":"Feature","properties":{"name":"Puerto de Anapra","place":"town"},"geometry":{"type":"Point","coordinates":[-106.560451,31.775239]}},{"type":"Feature","properties":{"amenity":"fire_station"},"geometry":{"type":"Point","coordinates":[-106.579509,31.836773]}},{"type":"Feature","properties":{"ele":"1982","name":"The Mammoth","natural":"peak"},"geometry":{"type":"Point","coordinates":[-106.496107,31.865119]}},{"type":"Feature","properties":{"ele":"1240","natural":"peak"},"geometry":{"type":"Point","coordinates":[-106.567238,31.869507]}},{"type":"Feature","properties":{"ele":"1220","natural":"peak"},"geometry":{"type":"Point","coordinates":[-106.56491,31.864661]}},{"type":"Feature","properties":{"ele":"1240","natural":"peak"},"geometry":{"type":"Point","coordinates":[-106.562392,31.860876]}},{"type":"Feature","properties":{"name":"Point 5150","natural":"peak"},"geometry":{"type":"Point","coordinates":[-106.504618,31.850567]}},{"type":"Feature","properties":{"amenity":"pharmacy","name":"Walgreens"},"geometry":{"type":"Point","coordinates":[-106.579046,31.842066]}},{"type":"Feature","properties":{"amenity":"clinic","emergency":"yes","name":"Sun City West Emergency Room"},"geometry":{"type":"Point","coordinates":[-106.578521,31.864256]}},{"type":"Feature","properties":{"amenity":"pharmacy","name":"CVS Pharmacy"},"geometry":{"type":"Point","coordinates":[-106.558842,31.858941]}},{"type":"Feature","properties":{"amenity":"pharmacy","name":"Walgreens"},"geometry":{"type":"Point","coordinates":[-106.556746,31.858867]}},{"type":"Feature","properties":{"amenity":"pharmacy","name":"CVS Pharmacy"},"geometry":{"type":"Point","coordinates":[-106.547635,31.818701]}},{"type":"Feature","properties":{"amenity":"drinking_water"},"geometry":{"type":"Point","coordinates":[-106.497346,31.782851]}},{"type":"Feature","properties":{"amenity":"police","name":"UTEP Police"},"geometry":{"type":"Point","coordinates":[-106.507634,31.780144]}},{"type":"Feature","properties":{"amenity":"hospital","name":"Rio Vista Behavioral Health"},"geometry":{"type":"Point","coordinates":[-106.573722,31.880101]}},{"type":"Feature","properties":{"amenity":"hospital","name":"Las Palmas Rehabilitation Hospital"},"geometry":{"type":"Point","coordinates":[-106.508826,31.789053]}},{"type":"Feature","properties":{"access":"yes","amenity":"drinking_water"},"geometry":{"type":"Point","coordinates":[-106.571479,31.885006]}},{"type":"Feature","properties":{"natural":"peak"},"geometry":{"type":"Point","coordinates":[-106.537542,31.783399]}},{"type":"Feature","properties":{"amenity":"clinic","name":"Passport Health El Paso Travel Clinic"},"geometry":{"type":"Point","coordinates":[-106.566482,31.840575]}},{"type":"Feature","properties":{"amenity":"pharmacy","name":"Walgreens","ref":"5274"},"geometry":{"type":"Point","coordinates":[-106.503629,31.77856]}},{"type":"Feature","properties":{"amenity":"doctors","name":"Access Allergy"},"geometry":{"type":"Point","coordinates":[-106.560452,31.860479]}},{"type":"Feature","properties":{"amenity":"drinking_water"},"geometry":{"type":"Point","coordinates":[-106.49975,31.807868]}},{"type":"Feature","properties":{"amenity":"drinking_water"},"geometry":{"type":"Point","coordinates":[-106.509535,31.85152]}},{"type":"Feature","properties":{"name":"Upper Valley","place":"suburb"},"geometry":{"type":"Point","coordinates":[-106.60167,31.855158]}},{"type":"Feature","properties":{"name":"West Side","place":"suburb"},"geometry":{"type":"Point","coordinates":[-106.535929,31.848529]}},{"type":"Feature","properties":{"ele":"1220","name":"Sunrise Acres","place":"hamlet"},"geometry":{"type":"Point","coordinates":[-106.445265,31.860661]}},{"type":"Feature","properties":{"ele":"1186","name":"Britton Davis","place":"hamlet"},"geometry":{"type":"Point","coordinates":[-106.422486,31.860384]}},{"type":"Feature","properties":{"ele":"1185","name":"Mountain View","place":"hamlet"},"geometry":{"type":"Point","coordinates":[-106.414986,31.866495]}},{"type":"Feature","properties":{"ele":"1195","name":"Del Norte Acres","place":"hamlet"},"geometry":{"type":"Point","coordinates":[-106.435351,31.867301]}},{"type":"Feature","properties":{"ele":"1187","name":"Planeport","place":"hamlet"},"geometry":{"type":"Point","coordinates":[-106.432547,31.827845]}},{"type":"Feature","properties":{"ele":"1174","name":"Caisson Hill","natural":"peak"},"geometry":{"type":"Point","coordinates":[-106.381651,31.770665]}},{"type":"Feature","properties":{"ele":"1593","name":"Comanche Peak","natural":"peak"},"geometry":{"type":"Point","coordinates":[-106.482487,31.796774]}},{"type":"Feature","properties":{"ele":"1171","name":"Engineer Hill","natural":"peak"},"geometry":{"type":"Point","coordinates":[-106.399152,31.776775]}},{"type":"Feature","properties":{"ele":"1182","name":"Gold Hill","natural":"peak"},"geometry":{"type":"Point","coordinates":[-106.479765,31.774869]}},{"type":"Feature","properties":{"ele":"1711","name":"Ranger Peak","natural":"peak"},"geometry":{"type":"Point","coordinates":[-106.483043,31.805107]}},{"type":"Feature","properties":{"ele":"1593","name":"Sugarloaf Mountain","natural":"peak"},"geometry":{"type":"Point","coordinates":[-106.468043,31.829273]}},{"type":"Feature","properties":{"amenity":"clinic","name":"Texas Tech Medical Center El Paso"},"geometry":{"type":"Point","coordinates":[-106.434456,31.77319]}},{"type":"Feature","properties":{"amenity":"fire_station"},"geometry":{"type":"Point","coordinates":[-106.41659,31.884857]}},{"type":"Feature","properties":{"amenity":"fire_station"},"geometry":{"type":"Point","coordinates":[-106.447416,31.854607]}},{"type":"Feature","properties":{"amenity":"shelter","name":"Smoke Pit"},"geometry":{"type":"Point","coordinates":[-106.430734,31.801499]}},{"type":"Feature","properties":{"amenity":"shelter","name":"Smoke Pit"},"geometry":{"type":"Point","coordinates":[-106.435515,31.804063]}},{"type":"Feature","properties":{"amenity":"hospital","emergency":"no","name":"El Paso Psychiatric Center"},"geometry":{"type":"Point","coordinates":[-106.43622,31.772]}},{"type":"Feature","properties":{"amenity":"hospital","emergency":"yes","name":"El Paso Children's Hospital"},"geometry":{"type":"Point","coordinates":[-106.433956,31.771455]}},{"type":"Feature","properties":{"name":"Angel's Triangle","place":"neighbourhood"},"geometry":{"type":"Point","coordinates":[-106.435423,31.864779]}},{"type":"Feature","properties":{"amenity":"fire_station","name":"El Paso Fire Station 5"},"geometry":{"type":"Point","coordinates":[-106.429864,31.776397]}},{"type":"Feature","properties":{"amenity":"shelter"},"geometry":{"type":"Point","coordinates":[-106.391459,31.827962]}},{"type":"Feature","properties":{"amenity":"police","name":"El Paso Police Department Northeast Regional Command Center"},"geometry":{"type":"Point","coordinates":[-106.41548,31.887378]}},{"type":"Feature","properties":{"amenity":"pharmacy","name":"CVS Pharmacy"},"geometry":{"type":"Point","coordinates":[-106.427438,31.869325]}},{"type":"Feature","properties":{"amenity":"clinic"},"geometry":{"type":"Point","coordinates":[-106.462736,31.819822]}},{"type":"Feature","properties":{"amenity":"drinking_water"},"geometry":{"type":"Point","coordinates":[-106.462754,31.782199]}},{"type":"Feature","properties":{"name":"Normandy Park","place":"neighbourhood"},"geometry":{"type":"Point","coordinates":[-106.404514,31.786737]}},{"type":"Feature","properties":{"name":"Cielo Vista North","place":"neighbourhood"},"geometry":{"type":"Point","coordinates":[-106.383744,31.788484]}},{"type":"Feature","properties":{"name":"Cielo Vista South","place":"neighbourhood"},"geometry":{"type":"Point","coordinates":[-106.378456,31.783572]}},{"type":"Feature","properties":{"name":"North East","place":"suburb"},"geometry":{"type":"Point","coordinates":[-106.423288,31.87682]}},{"type":"Feature","properties":{"ele":"1220","name":"Turf Estates Number 1 Colonia","place":"hamlet"},"geometry":{"type":"Point","coordinates":[-106.253593,31.80622]}},{"type":"Feature","properties":{"amenity":"police","name":"El Paso County Sheriff's Office Patrol Station"},"geometry":{"type":"Point","coordinates":[-106.255947,31.808836]}},{"type":"Feature","properties":{"name":"Cielo Vista East","place":"neighbourhood"},"geometry":{"type":"Point","coordinates":[-106.367168,31.782858]}},{"type":"Feature","properties":{"name":"Montclair","place":"neighbourhood"},"geometry":{"type":"Point","coordinates":[-106.358731,31.784774]}},{"type":"Feature","properties":{"name":"Cork","place":"neighbourhood"},"geometry":{"type":"Point","coordinates":[-106.351959,31.792706]}},{"type":"Feature","properties":{"name":"Eastwood Heights","place":"neighbourhood"},"geometry":{"type":"Point","coordinates":[-106.351493,31.781518]}},{"type":"Feature","properties":{"name":"Scotsdale","place":"neighbourhood"},"geometry":{"type":"Point","coordinates":[-106.340694,31.792804]}},{"type":"Feature","properties":{"name":"Album","place":"neighbourhood"},"geometry":{"type":"Point","coordinates":[-106.343694,31.77924]}},{"type":"Feature","properties":{"name":"Pico Norte","place":"neighbourhood"},"geometry":{"type":"Point","coordinates":[-106.331625,31.779739]}},{"type":"Feature","properties":{"name":"Glen Cove","place":"neighbourhood"},"geometry":{"type":"Point","coordinates":[-106.318828,31.777629]}},{"type":"Feature","properties":{"name":"East Glen","place":"neighbourhood"},"geometry":{"type":"Point","coordinates":[-106.308449,31.776595]}},{"type":"Feature","properties":{"name":"Pebble Brook","place":"neighbourhood"},"geometry":{"type":"Point","coordinates":[-106.326991,31.794707]}},{"type":"Feature","properties":{"name":"Pebble Hills North","place":"neighbourhood"},"geometry":{"type":"Point","coordinates":[-106.319185,31.796407]}},{"type":"Feature","properties":{"name":"Indian Ridge North","place":"neighbourhood"},"geometry":{"type":"Point","coordinates":[-106.308143,31.7959]}},{"type":"Feature","properties":{"name":"Pebble Hills Park","place":"neighbourhood"},"geometry":{"type":"Point","coordinates":[-106.328748,31.787622]}},{"type":"Feature","properties":{"name":"Pebble Hills South","place":"neighbourhood"},"geometry":{"type":"Point","coordinates":[-106.318546,31.787559]}},{"type":"Feature","properties":{"name":"Esper","place":"neighbourhood"},"geometry":{"type":"Point","coordinates":[-106.2985,31.800918]}},{"type":"Feature","properties":{"name":"Indian Ridge East","place":"neighbourhood"},"geometry":{"type":"Point","coordinates":[-106.29763,31.78988]}},{"type":"Feature","properties":{"name":"Loma Linda","place":"neighbourhood"},"geometry":{"type":"Point","coordinates":[-106.289485,31.794584]}},{"type":"Feature","properties":{"name":"Montana West","place":"neighbourhood"},"geometry":{"type":"Point","coordinates":[-106.289819,31.800757]}},{"type":"Feature","properties":{"name":"Montana East","place":"neighbourhood"},"geometry":{"type":"Point","coordinates":[-106.276126,31.80202]}},{"type":"Feature","properties":{"name":"Upper Vista Real","place":"neighbourhood"},"geometry":{"type":"Point","coordinates":[-106.276538,31.794004]}},{"type":"Feature","properties":{"name":"Vista Real West","place":"neighbourhood"},"geometry":{"type":"Point","coordinates":[-106.28124,31.786797]}},{"type":"Feature","properties":{"name":"Indian Ridge South","place":"neighbourhood"},"geometry":{"type":"Point","coordinates":[-106.308078,31.78819]}},{"type":"Feature","properties":{"name":"Sandy Creek","place":"neighbourhood"},"geometry":{"type":"Point","coordinates":[-106.297929,31.775659]}},{"type":"Feature","properties":{"name":"Vista Hills East","place":"neighbourhood"},"geometry":{"type":"Point","coordinates":[-106.28919,31.77583]}},{"type":"Feature","properties":{"name":"Stanton Heights","place":"neighbourhood"},"geometry":{"type":"Point","coordinates":[-106.28974,31.788028]}},{"type":"Feature","properties":{"name":"Vista Real East","place":"neighbourhood"},"geometry":{"type":"Point","coordinates":[-106.270948,31.786726]}},{"type":"Feature","properties":{"name":"Tierra Humeda","place":"neighbourhood"},"geometry":{"type":"Point","coordinates":[-106.264256,31.7856]}},{"type":"Feature","properties":{"name":"El Dorado West","place":"neighbourhood"},"geometry":{"type":"Point","coordinates":[-106.263914,31.800644]}},{"type":"Feature","properties":{"name":"Sun Ridge North","place":"neighbourhood"},"geometry":{"type":"Point","coordinates":[-106.262971,31.773787]}},{"type":"Feature","properties":{"name":"Los Paseos","place":"neighbourhood"},"geometry":{"type":"Point","coordinates":[-106.27887,31.770595]}},{"type":"Feature","properties":{"name":"Far East El Paso","place":"suburb"},"geometry":{"type":"Point","coordinates":[-106.26888,31.771595]}},{"type":"Feature","properties":{"name":"East El Paso","place":"suburb"},"geometry":{"type":"Point","coordinates":[-106.325444,31.773489]}},{"type":"Feature","properties":{"amenity":"pharmacy","name":"Walmart Pharmacy"},"geometry":{"type":"Point","coordinates":[-106.22953,31.796121]}},{"type":"Feature","properties":{"amenity":"clinic","name":"Sun City Sports Medicine Family Clinic"},"geometry":{"type":"Point","coordinates":[-106.246494,31.796368]}},{"type":"Feature","properties":{"amenity":"fire_station","name":"El Paso Fire Station 37"},"geometry":{"type":"Point","coordinates":[-106.248515,31.796822]}},{"type":"Feature","properties":{"name":"Eastview","place":"neighbourhood"},"geometry":{"type":"Point","coordinates":[-106.246063,31.79215]}},{"type":"Feature","properties":{"name":"El Dorado East","place":"neighbourhood"},"geometry":{"type":"Point","coordinates":[-106.249363,31.803006]}},{"type":"Feature","properties":{"name":"Las Tierras","place":"neighbourhood"},"geometry":{"type":"Point","coordinates":[-106.233388,31.80473]}},{"type":"Feature","properties":{"ele":"1177","name":"La Union Vieja","place":"hamlet"},"geometry":{"type":"Point","coordinates":[-106.669437,31.940936]}},{"type":"Feature","properties":{"ele":"1149","name":"Schuman Estates Colonia","place":"hamlet"},"geometry":{"type":"Point","coordinates":[-106.611658,31.918159]}},{"type":"Feature","properties":{"ele":"1158","name":"La Union","place":"village"},"geometry":{"type":"Point","coordinates":[-106.663132,31.949673]}},{"type":"Feature","properties":{"ele":"1149","name":"Ponderosa Mobile Home Colonia","place":"hamlet"},"geometry":{"type":"Point","coordinates":[-106.614436,31.925103]}},{"type":"Feature","properties":{"name":"El Ojito","place":"hamlet"},"geometry":{"type":"Point","coordinates":[-106.678353,32.00533]}},{"type":"Feature","properties":{"ele":"1199","name":"Hacienda Acres","place":"hamlet"},"geometry":{"type":"Point","coordinates":[-106.577491,32.002045]}},{"type":"Feature","properties":{"ele":"1207","name":"Westway","place":"suburb"},"geometry":{"type":"Point","coordinates":[-106.575002,31.959111]}},{"type":"Feature","properties":{"ele":"1171","name":"Polkinghorn Addition Colonia","place":"hamlet"},"geometry":{"type":"Point","coordinates":[-106.591657,31.920103]}},{"type":"Feature","properties":{"ele":"1168","name":"R W Jones Colonia","place":"hamlet"},"geometry":{"type":"Point","coordinates":[-106.597491,31.997045]}},{"type":"Feature","properties":{"ele":"1149","name":"La Union Estates Colonia","place":"hamlet"},"geometry":{"type":"Point","coordinates":[-106.604436,31.917048]}},{"type":"Feature","properties":{"ele":"1161","name":"Nuway","place":"hamlet"},"geometry":{"type":"Point","coordinates":[-106.597769,31.937325]}},{"type":"Feature","properties":{"ele":"1157","name":"Vinton","place":"village"},"geometry":{"type":"Point","coordinates":[-106.595383,31.956262]}},{"type":"Feature","properties":{"ele":"1159","name":"Anthony","place":"town"},"geometry":{"type":"Point","coordinates":[-106.596857,32.005908]}},{"type":"Feature","properties":{"ele":"1156","name":"Nuway Addition Colonia","place":"hamlet"},"geometry":{"type":"Point","coordinates":[-106.600547,31.935103]}},{"type":"Feature","properties":{"ele":"1149","name":"Serene Acres Colonia","place":"hamlet"},"geometry":{"type":"Point","coordinates":[-106.604436,31.913992]}},{"type":"Feature","properties":{"ele":"1150","name":"Canutillo","place":"town"},"geometry":{"type":"Point","coordinates":[-106.598098,31.912468]}},{"type":"Feature","properties":{"ele":"1184","name":"La Tuna","place":"hamlet"},"geometry":{"type":"Point","coordinates":[-106.590547,31.980935]}},{"type":"Feature","properties":{"ele":"2081","name":"Anthonys Nose","natural":"peak"},"geometry":{"type":"Point","coordinates":[-106.4986,31.959547]}},{"type":"Feature","properties":{"ele":"2186","name":"North Franklin Mountain","natural":"peak"},"geometry":{"type":"Point","coordinates":[-106.493636,31.902876]}},{"type":"Feature","properties":{"amenity":"drinking_water"},"geometry":{"type":"Point","coordinates":[-106.584638,31.982589]}},{"type":"Feature","properties":{"name":"Anthony","place":"village"},"geometry":{"type":"Point","coordinates":[-106.596817,31.995653]}},{"type":"Feature","properties":{"ele":"1985","name":"Indian Peak","natural":"peak"},"geometry":{"type":"Point","coordinates":[-106.484988,31.906493]}},{"type":"Feature","properties":{"amenity":"drinking_water"},"geometry":{"type":"Point","coordinates":[-106.40822,31.938917]}},{"type":"Feature","properties":{"amenity":"shelter"},"geometry":{"type":"Point","coordinates":[-106.421008,31.922041]}},{"type":"Feature","properties":{"amenity":"doctors","name":"Well Med"},"geometry":{"type":"Point","coordinates":[-106.433958,31.897231]}},{"type":"Feature","properties":{"amenity":"pharmacy","name":"Walgreens"},"geometry":{"type":"Point","coordinates":[-106.438211,31.922433]}},{"type":"Feature","properties":{"amenity":"pharmacy","name":"Walmart Pharmacy"},"geometry":{"type":"Point","coordinates":[-106.437378,31.896344]}},{"type":"Feature","properties":{"amenity":"hospital","name":"The Hospitals Of Providence Northeast Campus"},"geometry":{"type":"Point","coordinates":[-106.406799,31.937823]}},{"type":"Feature","properties":{"name":"Castner Range","natural":"peak"},"geometry":{"type":"Point","coordinates":[-106.467765,31.901216]}},{"type":"Feature","properties":{"access":"yes","amenity":"drinking_water"},"geometry":{"type":"Point","coordinates":[-106.449247,31.932505]}},{"type":"Feature","properties":{"ele":"1221","name":"Newman","place":"hamlet"},"geometry":{"type":"Point","coordinates":[-106.327762,31.997881]}},{"type":"Feature","properties":{"ele":"1370","name":"Black Mountain","natural":"peak"},"geometry":{"type":"Point","coordinates":[-106.793611,32.070099]}},{"type":"Feature","properties":{"ele":"1318","name":"Little Black Mountain","natural":"peak"},"geometry":{"type":"Point","coordinates":[-106.792779,32.12232]}},{"type":"Feature","properties":{"ele":"1166","name":"La Mesa","place":"village"},"geometry":{"type":"Point","coordinates":[-106.707775,32.122042]}},{"type":"Feature","properties":{"ele":"1168","name":"Berino","place":"village"},"geometry":{"type":"Point","coordinates":[-106.619329,32.069263]}},{"type":"Feature","properties":{"ele":"1165","name":"Vado","place":"village"},"geometry":{"type":"Point","coordinates":[-106.662495,32.111765]}},{"type":"Feature","properties":{"name":"Chamberino","place":"village"},"geometry":{"type":"Point","coordinates":[-106.68618,32.037007]}},{"type":"Feature","properties":{"amenity":"fire_station"},"geometry":{"type":"Point","coordinates":[-106.702071,32.113349]}},{"type":"Feature","properties":{"amenity":"fire_station"},"geometry":{"type":"Point","coordinates":[-106.707209,32.122458]}},{"type":"Feature","properties":{"ele":"1619","name":"North Anthonys Nose","natural":"peak"},"geometry":{"type":"Point","coordinates":[-106.534158,32.039267]}},{"type":"Feature","properties":{"ele":"1239","name":"Chaparral","place":"town"},"geometry":{"type":"Point","coordinates":[-106.40895,32.02387]}},{"type":"Feature","properties":{"ele":"1165","name":"San Miguel","place":"village"},"geometry":{"type":"Point","coordinates":[-106.734999,32.155375]}},{"type":"Feature","properties":{"ele":"1174","name":"Santo Tomas","place":"hamlet"},"geometry":{"type":"Point","coordinates":[-106.746112,32.181764]}},{"type":"Feature","properties":{"ele":"1181","name":"San Pablo","place":"hamlet"},"geometry":{"type":"Point","coordinates":[-106.772691,32.249578]}},{"type":"Feature","properties":{"ele":"1285","name":"Santo Tomas Mountain","natural":"peak"},"geometry":{"type":"Point","coordinates":[-106.780835,32.170652]}},{"type":"Feature","properties":{"ele":"1249","name":"Black Mesa","natural":"peak"},"geometry":{"type":"Point","coordinates":[-106.774724,32.174263]}},{"type":"Feature","properties":{"ele":"1170","name":"Mesquite","place":"village"},"geometry":{"type":"Point","coordinates":[-106.696005,32.163951]}},{"type":"Feature","properties":{"ele":"1263","name":"Vado Hill","natural":"peak"},"geometry":{"type":"Point","coordinates":[-106.638329,32.13732]}},{"type":"Feature","properties":{"ele":"1319","name":"Booker Hill","natural":"peak"},"geometry":{"type":"Point","coordinates":[-106.563604,32.159542]}},{"type":"Feature","properties":{"ele":"1426","name":"Peña Blanca","natural":"peak"},"geometry":{"type":"Point","coordinates":[-106.603885,32.222318]}},{"type":"Feature","properties":{"ele":"1597","name":"Pyramid Peak","natural":"peak"},"geometry":{"type":"Point","coordinates":[-106.600551,32.198152]}},{"type":"Feature","properties":{"ele":"1527","name":"Deer Hill","natural":"peak"},"geometry":{"type":"Point","coordinates":[-106.500825,32.21954]}},{"type":"Feature","properties":{"ele":"1366","name":"Black Hills","natural":"peak"},"geometry":{"type":"Point","coordinates":[-106.474435,32.218429]}},{"type":"Feature","properties":{"ele":"1251","name":"Alvarado","place":"hamlet"},"geometry":{"type":"Point","coordinates":[-106.237206,32.13649]}},{"type":"Feature","properties":{"ele":"1192","name":"Tortugas","place":"hamlet"},"geometry":{"type":"Point","coordinates":[-106.754311,32.269516]}},{"type":"Feature","properties":{"ele":"1183","name":"Four Points","place":"hamlet"},"geometry":{"type":"Point","coordinates":[-106.786115,32.265095]}},{"type":"Feature","properties":{"ele":"1188","name":"Fairacres","place":"hamlet"},"geometry":{"type":"Point","coordinates":[-106.846673,32.303982]}},{"type":"Feature","properties":{"ele":"1182","name":"Mesilla Park","place":"hamlet"},"geometry":{"type":"Point","coordinates":[-106.76667,32.275928]}},{"type":"Feature","properties":{"ele":"1191","name":"Picacho","place":"hamlet"},"geometry":{"type":"Point","coordinates":[-106.849729,32.324815]}},{"type":"Feature","properties":{"ele":"1192","name":"San Ysidro","place":"hamlet"},"geometry":{"type":"Point","coordinates":[-106.811117,32.350926]}},{"type":"Feature","properties":{"ele":"1191","name":"Las Cruces","place":"city"},"geometry":{"type":"Point","coordinates":[-106.779807,32.314035]}},{"type":"Feature","properties":{"ele":"1193","name":"University Park","place":"hamlet"},"geometry":{"type":"Point","coordinates":[-106.748736,32.283185]}},{"type":"Feature","properties":{"amenity":"police"},"geometry":{"type":"Point","coordinates":[-106.732317,32.290406]}},{"type":"Feature","properties":{"amenity":"drinking_water"},"geometry":{"type":"Point","coordinates":[-106.743556,32.343411]}},{"type":"Feature","properties":{"amenity":"drinking_water"},"geometry":{"type":"Point","coordinates":[-106.743226,32.338494]}},{"type":"Feature","properties":{"amenity":"clinic","name":"Nights Evening Weekends (NEW) Urgent Care Center"},"geometry":{"type":"Point","coordinates":[-106.752246,32.315049]}},{"type":"Feature","properties":{"amenity":"doctors","name":"Pawan Jain MD PC"},"geometry":{"type":"Point","coordinates":[-106.734582,32.292484]}},{"type":"Feature","properties":{"amenity":"doctors","name":"Exclusive Psychiatric Care"},"geometry":{"type":"Point","coordinates":[-106.742549,32.305565]}},{"type":"Feature","properties":{"amenity":"doctors","name":"G. Pavia MD"},"geometry":{"type":"Point","coordinates":[-106.742964,32.30524]}},{"type":"Feature","properties":{"amenity":"doctors","name":"Sergio Huerta D.O. Family Practise"},"geometry":{"type":"Point","coordinates":[-106.737853,32.300852]}},{"type":"Feature","properties":{"amenity":"doctors","name":"M Crawley Pediatric"},"geometry":{"type":"Point","coordinates":[-106.73779,32.300299]}},{"type":"Feature","properties":{"amenity":"doctors","name":"Roderick A Fields M.D."},"geometry":{"type":"Point","coordinates":[-106.738469,32.300661]}},{"type":"Feature","properties":{"amenity":"drinking_water"},"geometry":{"type":"Point","coordinates":[-106.7636,32.359375]}},{"type":"Feature","properties":{"amenity":"drinking_water"},"geometry":{"type":"Point","coordinates":[-106.74122,32.329419]}},{"type":"Feature","properties":{"amenity":"clinic","name":"Concentra Urgent Care"},"geometry":{"type":"Point","coordinates":[-106.755577,32.311183]}},{"type":"Feature","properties":{"name":"Mesilla","place":"village"},"geometry":{"type":"Point","coordinates":[-106.795206,32.274117]}},{"type":"Feature","properties":{"amenity":"pharmacy","name":"CVS Pharmacy"},"geometry":{"type":"Point","coordinates":[-106.7761,32.341705]}},{"type":"Feature","properties":{"amenity":"doctors","name":"Southwest Retina Consultants"},"geometry":{"type":"Point","coordinates":[-106.733771,32.318587]}},{"type":"Feature","properties":{"amenity":"pharmacy","name":"Walmart Pharmacy"},"geometry":{"type":"Point","coordinates":[-106.785464,32.2888]}},{"type":"Feature","properties":{"amenity":"pharmacy","name":"Walgreens"},"geometry":{"type":"Point","coordinates":[-106.748236,32.361922]}},{"type":"Feature","properties":{"amenity":"pharmacy","name":"Walmart Pharmacy"},"geometry":{"type":"Point","coordinates":[-106.746576,32.360079]}},{"type":"Feature","properties":{"amenity":"pharmacy","name":"Walgreens"},"geometry":{"type":"Point","coordinates":[-106.751787,32.312332]}},{"type":"Feature","properties":{"amenity":"fire_station"},"geometry":{"type":"Point","coordinates":[-106.76279,32.297997]}},{"type":"Feature","properties":{"amenity":"doctors","name":"Muojicare Foot and Ankle Center"},"geometry":{"type":"Point","coordinates":[-106.736991,32.367824]}},{"type":"Feature","properties":{"amenity":"doctors","name":"Kanaka Chelliah MD Family Medicine"},"geometry":{"type":"Point","coordinates":[-106.736987,32.36788]}},{"type":"Feature","properties":{"amenity":"doctors","name":"RIME Forensic Medicine"},"geometry":{"type":"Point","coordinates":[-106.73699,32.367925]}},{"type":"Feature","properties":{"amenity":"clinic","name":"Planned Parenthood - Las Cruces Health Center"},"geometry":{"type":"Point","coordinates":[-106.733828,32.290659]}},{"type":"Feature","properties":{"amenity":"drinking_water","name":"Twice The Ice"},"geometry":{"type":"Point","coordinates":[-106.76244,32.299169]}},{"type":"Feature","properties":{"amenity":"pharmacy","name":"Walgreens"},"geometry":{"type":"Point","coordinates":[-106.773464,32.341646]}},{"type":"Feature","properties":{"amenity":"pharmacy","name":"Walgreens"},"geometry":{"type":"Point","coordinates":[-106.816032,32.311492]}},{"type":"Feature","properties":{"ele":"1502","name":"Tortugas Mountain","natural":"peak"},"geometry":{"type":"Point","coordinates":[-106.697778,32.292594]}},{"type":"Feature","properties":{"amenity":"police","name":"East Area Command"},"geometry":{"type":"Point","coordinates":[-106.725936,32.330987]}},{"type":"Feature","properties":{"amenity":"fire_station","name":"Station 8"},"geometry":{"type":"Point","coordinates":[-106.726199,32.330753]}},{"type":"Feature","properties":{"ele":"1867","name":"Boyd","place":"hamlet"},"geometry":{"type":"Point","coordinates":[-106.573607,32.322593]}},{"type":"Feature","properties":{"ele":"2564","name":"Baldy Peak","natural":"peak"},"geometry":{"type":"Point","coordinates":[-106.560273,32.32176]}},{"type":"Feature","properties":{"ele":"2440","name":"Rabbit Ears","natural":"peak"},"geometry":{"type":"Point","coordinates":[-106.577775,32.368426]}},{"type":"Feature","properties":{"ele":"2565","name":"The Needles","natural":"peak"},"geometry":{"type":"Point","coordinates":[-106.572496,32.354815]}},{"type":"Feature","properties":{"ele":"1917","name":"Chimney Rock","natural":"peak"},"geometry":{"type":"Point","coordinates":[-106.57566,32.301048]}},{"type":"Feature","properties":{"ele":"2554","name":"Granite Peak","natural":"peak"},"geometry":{"type":"Point","coordinates":[-106.520827,32.332037]}},{"type":"Feature","properties":{"ele":"2708","name":"Organ Needle","natural":"peak"},"geometry":{"type":"Point","coordinates":[-106.56191,32.345305]}},{"type":"Feature","properties":{"ele":"2668","name":"Organ Peak","natural":"peak"},"geometry":{"type":"Point","coordinates":[-106.548606,32.329815]}},{"type":"Feature","properties":{"ele":"2080","name":"Soledad Peak","natural":"peak"},"geometry":{"type":"Point","coordinates":[-106.516104,32.298427]}},{"type":"Feature","properties":{"ele":"2059","name":"Bar Mountain","natural":"peak"},"geometry":{"type":"Point","coordinates":[-106.590274,32.313427]}},{"type":"Feature","properties":{"ele":"2443","name":"Sugarloaf Peak","natural":"peak"},"geometry":{"type":"Point","coordinates":[-106.543943,32.346452]}},{"type":"Feature","properties":{"name":"Minerva's Temple","natural":"peak"},"geometry":{"type":"Point","coordinates":[-106.559282,32.344983]}},{"type":"Feature","properties":{"ele":"1208","name":"Doña Ana","place":"village"},"geometry":{"type":"Point","coordinates":[-106.814013,32.389436]}},{"type":"Feature","properties":{"ele":"2337","name":"Baylor Peak","natural":"peak"},"geometry":{"type":"Point","coordinates":[-106.577497,32.393147]}},{"type":"Feature","properties":{"ele":"1292","name":"White Sands","place":"village"},"geometry":{"type":"Point","coordinates":[-106.478993,32.381369]}},{"type":"Feature","properties":{"name":"White Sands Missile Range","place":"hamlet"},"geometry":{"type":"Point","coordinates":[-106.483646,32.379967]}}],"attribution":"© OpenStreetMap contributors"}
