{"type":"FeatureCollection","features":[{"type":"Feature","properties":{"name":"Niños Heroes de Chapultepec","place":"village"},"geometry":{"type":"Point","coordinates":[-107.495842,30.961098]}},{"type":"Feature","properties":{"highway":"residential"},"geometry":{"type":"LineString","coordinates":[[-107.496141,30.963511],[-107.496074,30.960159],[-107.496032,30.959088],[-107.496039,30.958609]]}},{"type":"Feature","properties":{"highway":"residential"},"geometry":{"type":"LineString","coordinates":[[-107.493631,30.960193],[-107.493364,30.959944],[-107.49312,30.959633],[-107.492901,30.959139],[-107.494826,30.959097],[-107.496032,30.959088],[-107.497225,30.959112],[-107.497309,30.962577],[-107.496123,30.962616],[-107.494823,30.962622],[-107.493111,30.96266],[-107.493042,30.962315],[-107.492968,30.962169],[-107.49299,30.962009],[-107.493041,30.961849],[-107.493056,30.961678]]}},{"type":"Feature","properties":{"highway":"residential"},"geometry":{"type":"LineString","coordinates":[[-107.494837,30.963203],[-107.494823,30.962622],[-107.494838,30.960168],[-107.494826,30.959097]]}},{"type":"Feature","properties":{"highway":"residential"},"geometry":{"type":"LineString","coordinates":[[-107.497901,30.96012],[-107.49333,30.960197]]}},{"type":"Feature","properties":{"highway":"track"},"geometry":{"type":"LineString","coordinates":[[-107.492054,31.040979],[-107.493488,31.040941],[-107.495856,31.040926],[-107.496155,31.040942],[-107.496968,31.041035],[-107.497444,31.041054],[-107.498064,31.041054],[-107.500334,31.04114],[-107.501612,31.041155],[-107.502176,31.041206],[-107.502668,31.041288],[-107.503105,31.041325],[-107.503285,31.041356],[-107.50351,31.041417],[-107.50386,31.041549],[-107.504202,31.041613],[-107.50485,31.041773],[-107.505072,31.041814],[-107.512509,31.042598]]}},{"type":"Feature","properties":{"highway":"track"},"geometry":{"type":"LineString","coordinates":[[-107.492054,31.040979],[-107.482326,31.040879],[-107.474327,31.040778]]}},{"type":"Feature","properties":{"highway":"track"},"geometry":{"type":"LineString","coordinates":[[-107.492694,30.995498],[-107.492125,30.995468]]}},{"type":"Feature","properties":{"highway":"track"},"geometry":{"type":"LineString","coordinates":[[-107.48656,30.997243],[-107.483186,30.987575]]}},{"type":"Feature","properties":{"highway":"track"},"geometry":{"type":"LineString","coordinates":[[-107.490433,30.971062],[-107.491321,30.97304],[-107.491283,30.973635],[-107.4913,30.973815],[-107.491345,30.973892],[-107.491418,30.973972],[-107.491616,30.974093],[-107.49186,30.974201],[-107.49263,30.974117],[-107.494731,30.974266],[-107.495671,30.974307],[-107.495879,30.974333],[-107.496072,30.974378],[-107.496138,30.974416],[-107.496182,30.974468],[-107.496206,30.974539],[-107.496189,30.974879],[-107.496204,30.975012],[-107.496324,30.975468],[-107.496739,30.976678],[-107.497809,30.979923],[-107.498254,30.981193],[-107.498593,30.982082],[-107.499585,30.984558],[-107.50016,30.985917],[-107.50036,30.986279],[-107.500725,30.986868],[-107.500836,30.987112],[-107.500928,30.9874],[-107.501028,30.987604],[-107.501615,30.988467],[-107.501746,30.988709],[-107.503761,30.992739],[-107.504384,30.994039],[-107.504769,30.994796],[-107.505082,30.995498],[-107.505257,30.996138],[-107.505471,30.996654],[-107.505786,30.997127],[-107.505924,30.997384],[-107.506751,30.998694],[-107.50761,31.000732],[-107.508031,31.001676],[-107.509353,31.004424],[-107.509841,31.005516],[-107.509933,31.005705],[-107.510075,31.005935],[-107.510268,31.006334],[-107.511866,31.009994],[-107.511966,31.010304],[-107.512015,31.010366],[-107.512076,31.010401],[-107.512431,31.0105],[-107.512703,31.010623],[-107.512819,31.010707],[-107.512934,31.010888],[-107.512918,31.011026],[-107.51284,31.011307],[-107.512647,31.011647],[-107.512596,31.011872],[-107.512625,31.012171],[-107.512773,31.012704],[-107.512875,31.01324],[-107.512988,31.013569],[-107.513358,31.014297],[-107.513602,31.014732],[-107.513951,31.015015],[-107.514047,31.015134],[-107.514176,31.015369],[-107.515428,31.017921],[-107.516343,31.019965],[-107.517358,31.02215],[-107.517779,31.02313],[-107.518352,31.024303],[-107.520188,31.027919],[-107.521304,31.029568],[-107.521443,31.029888],[-107.521589,31.030463],[-107.521742,31.03081],[-107.521893,31.031049],[-107.522391,31.031681],[-107.522751,31.032205],[-107.523936,31.03512],[-107.524427,31.036218],[-107.524518,31.036333],[-107.524706,31.036496],[-107.524762,31.03659],[-107.524784,31.036682],[-107.524762,31.037032],[-107.524778,31.03716],[-107.524856,31.037374],[-107.525854,31.039757],[-107.526211,31.040557],[-107.526498,31.041281],[-107.526629,31.041459],[-107.526747,31.041543],[-107.52704,31.041663],[-107.528696,31.042692],[-107.530901,31.043962],[-107.533269,31.046082],[-107.534736,31.049912]]}},{"type":"Feature","properties":{"highway":"track"},"geometry":{"type":"LineString","coordinates":[[-107.528696,31.042692],[-107.52203,31.045764],[-107.514908,31.049958],[-107.513565,31.050321],[-107.512275,31.05073]]}},{"type":"Feature","properties":{"highway":"track"},"geometry":{"type":"LineString","coordinates":[[-107.491771,30.961676],[-107.491677,30.958838],[-107.491372,30.956377],[-107.491297,30.955328],[-107.491318,30.95403],[-107.491372,30.953478],[-107.491544,30.952807],[-107.491583,30.951093],[-107.491474,30.950235],[-107.491554,30.948993],[-107.491631,30.948217],[-107.491675,30.946451],[-107.491592,30.945607],[-107.491651,30.94483],[-107.491573,30.944247],[-107.491543,30.94384],[-107.491484,30.941369],[-107.491508,30.940776],[-107.491549,30.940428],[-107.491593,30.938334],[-107.491529,30.937207],[-107.491527,30.93479],[-107.491544,30.933961],[-107.491501,30.933317],[-107.491576,30.932415],[-107.491565,30.930979],[-107.491604,30.930015],[-107.491672,30.928881],[-107.491578,30.925736],[-107.491605,30.924774],[-107.491602,30.923787],[-107.491675,30.92202],[-107.491664,30.920803],[-107.491707,30.91901],[-107.491712,30.914937],[-107.491667,30.912592],[-107.491688,30.900954],[-107.49172,30.895637]]}},{"type":"Feature","properties":{"highway":"track"},"geometry":{"type":"LineString","coordinates":[[-107.493111,30.96266],[-107.493184,30.962821],[-107.493268,30.963134],[-107.493347,30.963737],[-107.493403,30.965543],[-107.493373,30.967518],[-107.493395,30.967857],[-107.493383,30.968166],[-107.493462,30.968466],[-107.493536,30.969527],[-107.49359,30.96997],[-107.493589,30.970192],[-107.493626,30.970475],[-107.493662,30.970981],[-107.493731,30.971476],[-107.493682,30.971864],[-107.4937,30.972067],[-107.493684,30.972166],[-107.493612,30.972355],[-107.493579,30.972701],[-107.493448,30.973371],[-107.493378,30.973597],[-107.493332,30.973671],[-107.493155,30.973818],[-107.492937,30.973966],[-107.49263,30.974117]]}},{"type":"Feature","properties":{"name":"Bordos los Presones","natural":"water"},"geometry":{"type":"Polygon","coordinates":[[[-107.500784,30.988726],[-107.500866,30.988344],[-107.500586,30.98826],[-107.500488,30.988655],[-107.500784,30.988726]]]}},{"type":"Feature","properties":{"natural":"water"},"geometry":{"type":"Polygon","coordinates":[[[-107.501591,30.987695],[-107.501739,30.98754],[-107.50164,30.987427],[-107.501377,30.987427],[-107.50136,30.987582],[-107.501591,30.987695]]]}},{"type":"Feature","properties":{"highway":"residential"},"geometry":{"type":"LineString","coordinates":[[-107.497893,30.95918],[-107.497903,30.961544],[-107.497928,30.962584]]}},{"type":"Feature","properties":{"highway":"residential"},"geometry":{"type":"LineString","coordinates":[[-107.497893,30.95918],[-107.497878,30.959134],[-107.497846,30.95911],[-107.497225,30.959112]]}},{"type":"Feature","properties":{"highway":"track"},"geometry":{"type":"LineString","coordinates":[[-107.497944,30.963618],[-107.497968,30.963832],[-107.497942,30.964051],[-107.497428,30.965641],[-107.496991,30.966714],[-107.496944,30.966914],[-107.496698,30.968746],[-107.496477,30.970077],[-107.496406,30.970635],[-107.496237,30.97167],[-107.496065,30.973075],[-107.495583,30.976225],[-107.49542,30.977449],[-107.494311,30.984832],[-107.493858,30.988118],[-107.492694,30.995498],[-107.492429,30.996648],[-107.492563,31.001357]]}},{"type":"Feature","properties":{"natural":"water"},"geometry":{"type":"Polygon","coordinates":[[[-107.525884,31.034192],[-107.525654,31.034291],[-107.525481,31.034126],[-107.52573,31.033912],[-107.525884,31.034192]]]}},{"type":"Feature","properties":{"name":"Bordo de Enmedio","natural":"water"},"geometry":{"type":"Polygon","coordinates":[[[-107.518279,31.02045],[-107.518048,31.020697],[-107.517741,31.020582],[-107.517818,31.020385],[-107.518279,31.02045]]]}},{"type":"Feature","properties":{"name":"Bordo de Enmedio","natural":"water"},"geometry":{"type":"Polygon","coordinates":[[[-107.515745,31.009465],[-107.515899,31.009729],[-107.516168,31.009975],[-107.516321,31.009696],[-107.516225,31.009531],[-107.515745,31.009465]]]}},{"type":"Feature","properties":{"highway":"track"},"geometry":{"type":"LineString","coordinates":[[-107.534736,31.049912],[-107.536045,31.053618],[-107.535623,31.054901],[-107.536045,31.057369],[-107.536026,31.058883],[-107.536295,31.060216],[-107.536026,31.061746],[-107.535162,31.063358],[-107.534297,31.065184],[-107.53399,31.066006],[-107.531801,31.066302],[-107.52965,31.067767],[-107.527633,31.069889],[-107.524945,31.07252],[-107.524196,31.074264],[-107.523062,31.077932]]}},{"type":"Feature","properties":{"highway":"track"},"geometry":{"type":"LineString","coordinates":[[-107.492563,31.001357],[-107.492565,31.006502],[-107.492603,31.013844],[-107.492584,31.020246],[-107.492603,31.026895],[-107.492411,31.029627],[-107.492296,31.030943],[-107.492469,31.031734],[-107.492373,31.032375],[-107.492315,31.036703],[-107.492296,31.040979]]}},{"type":"Feature","properties":{"highway":"track"},"geometry":{"type":"LineString","coordinates":[[-107.491771,30.961676],[-107.491838,30.964072],[-107.491613,30.966378],[-107.491602,30.966756],[-107.491514,30.967807],[-107.491321,30.97304]]}},{"type":"Feature","properties":{"highway":"track"},"geometry":{"type":"LineString","coordinates":[[-107.49186,30.974201],[-107.491843,30.974944],[-107.491938,30.980075],[-107.491872,30.981164],[-107.491828,30.982753],[-107.491926,30.984246],[-107.49174,30.987317],[-107.491831,30.988056],[-107.491736,30.988812],[-107.491807,30.989415],[-107.491748,30.990232],[-107.491795,30.990886],[-107.491748,30.991857],[-107.49176,30.992255],[-107.49164,30.992889],[-107.49164,30.993461],[-107.491724,30.993962],[-107.491593,30.99437],[-107.491593,30.994953],[-107.491402,30.995321],[-107.491535,30.995612],[-107.49176,30.996363],[-107.49176,30.997017],[-107.491831,30.99998],[-107.491831,31.001196],[-107.491659,31.001459],[-107.491816,31.001812],[-107.491797,31.004455],[-107.491875,31.006407]]}},{"type":"Feature","properties":{"highway":"track"},"geometry":{"type":"LineString","coordinates":[[-107.492296,31.030943],[-107.492191,31.030753],[-107.491893,31.030742],[-107.491452,31.030753]]}},{"type":"Feature","properties":{"highway":"track"},"geometry":{"type":"LineString","coordinates":[[-107.491452,31.030753],[-107.491524,31.03013],[-107.491655,31.029282],[-107.491667,31.028465],[-107.4915,31.027515],[-107.490463,31.027086],[-107.489295,31.026524],[-107.486494,31.023786],[-107.485397,31.022642],[-107.483991,31.0211],[-107.483359,31.020201],[-107.482942,31.01968],[-107.482393,31.018812],[-107.48138,31.016871],[-107.480701,31.016452],[-107.480045,31.016227],[-107.479366,31.015553],[-107.478817,31.01494],[-107.478567,31.014368],[-107.47821,31.014123],[-107.477184,31.01397],[-107.472416,31.013888],[-107.47194,31.013949],[-107.463417,31.017484],[-107.462535,31.017831],[-107.460747,31.018475],[-107.459782,31.019026],[-107.459444,31.020864]]}},{"type":"Feature","properties":{"highway":"track"},"geometry":{"type":"LineString","coordinates":[[-107.49158,30.966899],[-107.468511,30.967676],[-107.454355,30.968047],[-107.445009,30.968434]]}},{"type":"Feature","properties":{"name":"La Laguna","natural":"water"},"geometry":{"type":"Polygon","coordinates":[[[-107.502596,31.05542],[-107.503068,31.055591],[-107.503214,31.055031],[-107.502777,31.055031],[-107.502596,31.05542]]]}},{"type":"Feature","properties":{"highway":"track"},"geometry":{"type":"LineString","coordinates":[[-107.472523,31.066685],[-107.472701,31.066763],[-107.472976,31.066771],[-107.473084,31.066791],[-107.473465,31.066907],[-107.473564,31.066902],[-107.473945,31.066807],[-107.474745,31.066815],[-107.474932,31.066829],[-107.475363,31.066898],[-107.475728,31.066895],[-107.476245,31.066951],[-107.477157,31.066974],[-107.478151,31.066843],[-107.478388,31.066792],[-107.478911,31.066624],[-107.479329,31.066574],[-107.479858,31.066413],[-107.480364,31.066326],[-107.480891,31.066262],[-107.481454,31.066226],[-107.483288,31.06605],[-107.484252,31.065892],[-107.484574,31.065815],[-107.484662,31.065808],[-107.484829,31.065827],[-107.485296,31.065961],[-107.485834,31.066081],[-107.485964,31.066121],[-107.486261,31.066252],[-107.486436,31.066304],[-107.486751,31.066368],[-107.487768,31.066635]]}},{"type":"Feature","properties":{"natural":"water"},"geometry":{"type":"Polygon","coordinates":[[[-107.488677,31.066381],[-107.488799,31.066615],[-107.488968,31.066745],[-107.489161,31.06673],[-107.489272,31.06658],[-107.489225,31.066461],[-107.489108,31.066326],[-107.488934,31.066216],[-107.488712,31.066276],[-107.488677,31.066381]]]}},{"type":"Feature","properties":{"highway":"track"},"geometry":{"type":"LineString","coordinates":[[-107.583173,31.038102],[-107.583047,31.037654],[-107.583065,31.036819],[-107.582632,31.036927],[-107.581964,31.037174],[-107.581531,31.037112],[-107.579384,31.035968],[-107.578789,31.035752],[-107.57776,31.035644],[-107.576551,31.034902],[-107.575902,31.034113],[-107.575775,31.033819],[-107.575072,31.033989],[-107.574801,31.033989],[-107.573935,31.034345],[-107.573159,31.034144],[-107.57269,31.034067],[-107.572203,31.034252],[-107.571409,31.033881],[-107.569009,31.033201],[-107.567114,31.032381],[-107.564949,31.031608],[-107.56116,31.030294],[-107.557031,31.029691],[-107.555483,31.029648],[-107.555026,31.029614],[-107.5547,31.029552],[-107.554559,31.029506],[-107.554546,31.029484],[-107.554648,31.029307],[-107.55464,31.029252],[-107.554603,31.029193],[-107.554548,31.029152],[-107.554458,31.029118],[-107.554196,31.02893],[-107.554043,31.028903],[-107.553612,31.028949],[-107.553209,31.028967],[-107.552265,31.028929],[-107.551685,31.028879],[-107.551507,31.028785],[-107.55119,31.028488],[-107.5511,31.028422],[-107.550905,31.028315],[-107.550512,31.02814],[-107.549323,31.027846],[-107.54898,31.027848],[-107.54866,31.02792],[-107.548632,31.027906],[-107.549535,31.027267],[-107.549627,31.027185],[-107.549782,31.026965],[-107.54996,31.026453],[-107.550026,31.025947],[-107.550053,31.025855],[-107.55031,31.025418],[-107.550449,31.025038],[-107.550712,31.024538],[-107.550789,31.024299],[-107.550897,31.02416],[-107.551084,31.023697],[-107.551235,31.023468],[-107.55147,31.023212],[-107.551728,31.023039],[-107.551851,31.022915],[-107.552442,31.02204],[-107.552471,31.021937],[-107.552526,31.021489],[-107.552558,31.02137],[-107.552966,31.020195],[-107.553042,31.020096],[-107.553479,31.019664],[-107.553776,31.019242],[-107.554245,31.018648],[-107.5548,31.018041],[-107.555242,31.017602],[-107.555868,31.016816],[-107.556065,31.016646],[-107.55662,31.016278],[-107.5568,31.016141],[-107.557185,31.015764],[-107.557443,31.015434],[-107.558291,31.014027],[-107.559229,31.012682],[-107.559933,31.011491],[-107.560781,31.0103],[-107.561106,31.00928],[-107.560835,31.008568],[-107.56024,31.008321],[-107.56116,31.00662],[-107.56208,31.005661],[-107.562405,31.005058],[-107.562982,31.00447],[-107.562603,31.003836],[-107.562892,31.003186],[-107.563524,31.003031],[-107.563812,31.002738],[-107.563848,31.002336],[-107.564083,31.002135],[-107.564029,31.001763],[-107.564462,31.001191],[-107.564787,31.000186],[-107.565003,30.999119],[-107.564733,30.997943]]}},{"type":"Feature","properties":{"highway":"track"},"geometry":{"type":"LineString","coordinates":[[-107.564733,30.997943],[-107.563163,30.998546],[-107.56199,30.998732],[-107.561106,30.999211],[-107.560889,30.999768],[-107.559933,31.000279],[-107.558706,31.001701],[-107.556179,31.004408],[-107.55524,31.005366],[-107.554141,31.006604],[-107.55384,31.006803],[-107.553655,31.006971],[-107.553162,31.007479],[-107.552309,31.008307],[-107.552155,31.008419],[-107.551901,31.008665],[-107.551289,31.009447],[-107.550705,31.010018],[-107.550254,31.010592],[-107.549779,31.011058],[-107.549165,31.011767],[-107.54879,31.012277],[-107.548516,31.012564],[-107.548326,31.012805],[-107.548039,31.013362],[-107.547583,31.01395],[-107.547014,31.014787],[-107.54658,31.015536],[-107.546437,31.015888],[-107.54626,31.016394],[-107.546113,31.016658],[-107.545941,31.01692],[-107.545871,31.017019],[-107.545512,31.017325],[-107.544622,31.018205],[-107.544461,31.018398],[-107.544431,31.018522],[-107.54442,31.018775],[-107.544439,31.018904],[-107.544673,31.019486],[-107.544709,31.019595],[-107.544706,31.019664],[-107.544657,31.019721],[-107.544471,31.020056],[-107.544218,31.020241],[-107.544116,31.020349],[-107.543771,31.020837],[-107.543516,31.021442],[-107.543455,31.021545],[-107.543321,31.021694],[-107.542827,31.022134],[-107.542226,31.022589],[-107.541988,31.022867],[-107.541242,31.0236],[-107.539751,31.025131],[-107.539453,31.025453],[-107.538957,31.026039],[-107.537868,31.027471],[-107.536323,31.029063],[-107.535089,31.030217],[-107.534885,31.030445],[-107.534813,31.030622],[-107.534574,31.031732],[-107.53437,31.032421],[-107.534021,31.033235],[-107.533595,31.034161],[-107.533453,31.034414],[-107.532522,31.035793],[-107.532114,31.036457],[-107.531498,31.03751],[-107.53094,31.038411],[-107.53014,31.039819],[-107.52966,31.040559],[-107.52918,31.041495],[-107.528949,31.042],[-107.528696,31.042692]]}},{"type":"Feature","properties":{"highway":"track"},"geometry":{"type":"LineString","coordinates":[[-107.49214,30.96167],[-107.491771,30.961676]]}},{"type":"Feature","properties":{"highway":"unclassified","surface":"unpaved"},"geometry":{"type":"LineString","coordinates":[[-107.492125,30.995468],[-107.491535,30.995612],[-107.490427,30.995931],[-107.474812,31.001265],[-107.473921,31.001435],[-107.473658,31.001504],[-107.462962,31.005136],[-107.451726,31.008989]]}},{"type":"Feature","properties":{"waterway":"stream"},"geometry":{"type":"LineString","coordinates":[[-107.590874,30.962221],[-107.591207,30.961772],[-107.591295,30.961509],[-107.591638,30.961051],[-107.591687,30.960933],[-107.591732,30.960662],[-107.591925,30.96045],[-107.592006,30.960331],[-107.592108,30.96023],[-107.592333,30.960045],[-107.592612,30.959913],[-107.592768,30.959883],[-107.592925,30.959889],[-107.593378,30.959979]]}},{"type":"Feature","properties":{"waterway":"stream"},"geometry":{"type":"LineString","coordinates":[[-107.577948,30.980869],[-107.577803,30.980917],[-107.577192,30.980794],[-107.577055,30.980734],[-107.576819,30.980549]]}},{"type":"Feature","properties":{"waterway":"stream"},"geometry":{"type":"LineString","coordinates":[[-107.537094,30.953278],[-107.536821,30.953608],[-107.536698,30.9537],[-107.536627,30.953819],[-107.536525,30.95392],[-107.536075,30.95429],[-107.535952,30.954382],[-107.535817,30.954457],[-107.535715,30.954549],[-107.535624,30.954668],[-107.535565,30.954787],[-107.53542,30.954853],[-107.534889,30.955341],[-107.534631,30.955491],[-107.534486,30.955557],[-107.53434,30.955586],[-107.534083,30.955754],[-107.53389,30.955965],[-107.533665,30.956159],[-107.533155,30.956665],[-107.533042,30.956757],[-107.532785,30.956907],[-107.53264,30.956973],[-107.532313,30.957268],[-107.532189,30.957351],[-107.53191,30.957474],[-107.531797,30.957558],[-107.531507,30.95768],[-107.53126,30.957839],[-107.531169,30.957949],[-107.531046,30.958041],[-107.530954,30.958142],[-107.530874,30.958261],[-107.530755,30.958516],[-107.530674,30.958626],[-107.530224,30.959013],[-107.529955,30.959145],[-107.529719,30.959321],[-107.529639,30.95944],[-107.529263,30.959871],[-107.529214,30.959998],[-107.529112,30.960099],[-107.529042,30.960227],[-107.52895,30.960337],[-107.528704,30.960504],[-107.528419,30.960825],[-107.528349,30.960944],[-107.528262,30.961207],[-107.528216,30.96147],[-107.528203,30.961741],[-107.528154,30.961877],[-107.528154,30.962283],[-107.52821,30.962408],[-107.528231,30.962813],[-107.52813,30.963347],[-107.528032,30.963602],[-107.527839,30.963813],[-107.527677,30.964051],[-107.527547,30.964288],[-107.527456,30.964407],[-107.527242,30.9646],[-107.527193,30.964728],[-107.527112,30.964847],[-107.527074,30.964973],[-107.526972,30.965084],[-107.526912,30.965202],[-107.526349,30.965673],[-107.526134,30.965876],[-107.525786,30.966153],[-107.525582,30.966355],[-107.525459,30.966439],[-107.525378,30.966549],[-107.525318,30.966676],[-107.525146,30.966905],[-107.524932,30.967108],[-107.524866,30.967371],[-107.524876,30.967776],[-107.524774,30.967878],[-107.524736,30.968014],[-107.524628,30.968268],[-107.524557,30.968387],[-107.524466,30.968497],[-107.524326,30.968734],[-107.524196,30.96898],[-107.524147,30.969107],[-107.523927,30.969472],[-107.523867,30.969591],[-107.523829,30.969727],[-107.523758,30.969846],[-107.52373,30.969972],[-107.523724,30.970108],[-107.523745,30.970919],[-107.52379,30.971053],[-107.523804,30.971189],[-107.523815,30.971594],[-107.523787,30.971721],[-107.523689,30.971984],[-107.523538,30.972222],[-107.523462,30.972485],[-107.52337,30.972586],[-107.523353,30.972721],[-107.523314,30.972849],[-107.523115,30.973222],[-107.523108,30.973358],[-107.523069,30.973485],[-107.523052,30.97362],[-107.523055,30.973755],[-107.522975,30.973874],[-107.522947,30.97401],[-107.522768,30.974383],[-107.52264,30.9746]]}},{"type":"Feature","properties":{"waterway":"stream"},"geometry":{"type":"LineString","coordinates":[[-107.590302,30.985582],[-107.589624,30.985668],[-107.589398,30.985853],[-107.589141,30.986012],[-107.588959,30.986232],[-107.588857,30.986333],[-107.588733,30.986417]]}},{"type":"Feature","properties":{"waterway":"stream"},"geometry":{"type":"LineString","coordinates":[[-107.575849,30.960014],[-107.575701,30.959963],[-107.575543,30.959939],[-107.575072,30.959922],[-107.574767,30.959874],[-107.574472,30.959798],[-107.574049,30.959617],[-107.573438,30.959494],[-107.57281,30.959489],[-107.572653,30.959465],[-107.572515,30.959405],[-107.572358,30.95939],[-107.57221,30.959356],[-107.572063,30.959314],[-107.571669,30.959079],[-107.571531,30.959018],[-107.571078,30.958901],[-107.570813,30.958771],[-107.570695,30.958674],[-107.57039,30.958608],[-107.570145,30.958441],[-107.570007,30.958381],[-107.56985,30.958366],[-107.569559,30.958453],[-107.569425,30.958528],[-107.569268,30.958531],[-107.568966,30.958591],[-107.568821,30.958648],[-107.568687,30.958723],[-107.56853,30.958699],[-107.568392,30.958639],[-107.568087,30.958573],[-107.567929,30.958558],[-107.567783,30.958579]]}},{"type":"Feature","properties":{"waterway":"stream"},"geometry":{"type":"LineString","coordinates":[[-107.499423,30.951917],[-107.499288,30.951805],[-107.49915,30.951736],[-107.498707,30.9516],[-107.498412,30.951524],[-107.49795,30.951461],[-107.49755,30.951361],[-107.497401,30.9513],[-107.497294,30.951203],[-107.497167,30.951134],[-107.497019,30.951082],[-107.496861,30.951058],[-107.496776,30.951006],[-107.496724,30.950998],[-107.496402,30.950706],[-107.496318,30.950663],[-107.496117,30.950595],[-107.495917,30.950562],[-107.495569,30.950452],[-107.495359,30.950429],[-107.494941,30.950437],[-107.494794,30.950422],[-107.494168,30.950497],[-107.493854,30.950485],[-107.493291,30.950568],[-107.49303,30.950591],[-107.492947,30.950647],[-107.492908,30.950729],[-107.492724,30.950895],[-107.492684,30.950977],[-107.492612,30.951032],[-107.492484,30.951332],[-107.492488,30.951512],[-107.492581,30.951862],[-107.492584,30.951953],[-107.492607,30.952042],[-107.492617,30.952448],[-107.4926,30.952584],[-107.492606,30.952809],[-107.492569,30.952981],[-107.49251,30.953154],[-107.492484,30.953335]]}},{"type":"Feature","properties":{"waterway":"stream"},"geometry":{"type":"LineString","coordinates":[[-107.546871,30.977815],[-107.546622,30.977469],[-107.546213,30.977062],[-107.546075,30.976992],[-107.54578,30.976908],[-107.545475,30.97686],[-107.545161,30.976875],[-107.545005,30.976914],[-107.544903,30.977007],[-107.544522,30.977258],[-107.544308,30.977451],[-107.544072,30.977636],[-107.543819,30.977975],[-107.543636,30.978186],[-107.543577,30.978313],[-107.543496,30.978432],[-107.543447,30.978559],[-107.543381,30.978822],[-107.543357,30.979093],[-107.543273,30.979501],[-107.543266,30.979627],[-107.54313,30.980018],[-107.542958,30.980247],[-107.542835,30.98033],[-107.54269,30.980387],[-107.542577,30.98048],[-107.542486,30.98059],[-107.542427,30.980717],[-107.542346,30.980836],[-107.542311,30.981107],[-107.54216,30.981336],[-107.542069,30.981446],[-107.54201,30.981573],[-107.541835,30.9821],[-107.541625,30.982456],[-107.541649,30.98259],[-107.54166,30.982996],[-107.541611,30.983123],[-107.541635,30.983258],[-107.541921,30.98337],[-107.542146,30.983564],[-107.542181,30.983698],[-107.542247,30.983823],[-107.542282,30.983958],[-107.542244,30.984085],[-107.542072,30.984314],[-107.542012,30.984441],[-107.542005,30.984576],[-107.542034,30.985243],[-107.541942,30.985353],[-107.541808,30.985428],[-107.541696,30.985521],[-107.541325,30.985771],[-107.540922,30.985978],[-107.540609,30.985984],[-107.540464,30.986041],[-107.54034,30.986124],[-107.540136,30.986327],[-107.540013,30.986411],[-107.539432,30.986629],[-107.53933,30.986731],[-107.539207,30.986823],[-107.539003,30.987026],[-107.538922,30.987135],[-107.538525,30.987558],[-107.538455,30.987677],[-107.538332,30.987769],[-107.538241,30.987879],[-107.538015,30.988064],[-107.53766,30.988504],[-107.537231,30.9889],[-107.537038,30.989112],[-107.536802,30.989297],[-107.536545,30.989455],[-107.536399,30.989512],[-107.536097,30.989563],[-107.535952,30.989611],[-107.535829,30.989704],[-107.535748,30.989813],[-107.535699,30.989941],[-107.535597,30.990051],[-107.535339,30.9902],[-107.535194,30.990257],[-107.534926,30.990398],[-107.534384,30.990886],[-107.534293,30.990996],[-107.534169,30.99108],[-107.534067,30.991181],[-107.533976,30.9913],[-107.53398,30.991435]]}},{"type":"Feature","properties":{"waterway":"stream"},"geometry":{"type":"LineString","coordinates":[[-107.597916,31.027773],[-107.598072,31.027752],[-107.598218,31.027704],[-107.598352,31.027638],[-107.598497,31.02759],[-107.598631,31.027515],[-107.598777,31.027467],[-107.598911,31.027392],[-107.599492,31.027191],[-107.599626,31.027125],[-107.599772,31.027086],[-107.600241,31.027023],[-107.600398,31.02702],[-107.600555,31.026989],[-107.601139,31.026536],[-107.601252,31.026443],[-107.601343,31.026333],[-107.601456,31.02625],[-107.601612,31.026201],[-107.601769,31.026189],[-107.601916,31.026222],[-107.602081,31.026125]]}},{"type":"Feature","properties":{"name":"A. el Rincon de Chihuahua","waterway":"stream"},"geometry":{"type":"LineString","coordinates":[[-107.475645,31.027238],[-107.475796,31.027252],[-107.4761,31.027238],[-107.476234,31.027163],[-107.47639,31.027124],[-107.476538,31.027157],[-107.477008,31.027148],[-107.477471,31.027229],[-107.477628,31.027217],[-107.47809,31.027254],[-107.478248,31.027287],[-107.478396,31.027338],[-107.478534,31.027407],[-107.478682,31.02745],[-107.478957,31.027571],[-107.479095,31.027649],[-107.47938,31.027743],[-107.479615,31.027919],[-107.479799,31.028141],[-107.479927,31.028228],[-107.480075,31.028262],[-107.480232,31.028268],[-107.480546,31.028253],[-107.480859,31.028211],[-107.480987,31.028289],[-107.481084,31.028395],[-107.48124,31.028365],[-107.481554,31.02835],[-107.481711,31.028356],[-107.481858,31.02839],[-107.482488,31.028441],[-107.482636,31.028492],[-107.482754,31.02858],[-107.482901,31.028604],[-107.483058,31.028601],[-107.483214,31.028571],[-107.483661,31.028454],[-107.483976,31.028466],[-107.484538,31.028717],[-107.484665,31.028796],[-107.485079,31.028986],[-107.485226,31.029028],[-107.485541,31.029058],[-107.485855,31.029052],[-107.486147,31.028966],[-107.486291,31.02889],[-107.486909,31.028491],[-107.487447,31.02821],[-107.487882,31.028057],[-107.488431,31.027785],[-107.489001,31.027558],[-107.489146,31.02751],[-107.489459,31.027477],[-107.489774,31.027507],[-107.489912,31.027567],[-107.490019,31.027664],[-107.490147,31.027743],[-107.490285,31.027803],[-107.490442,31.027818],[-107.490756,31.027794],[-107.490913,31.0278],[-107.491376,31.027873],[-107.492161,31.027848],[-107.492623,31.027911],[-107.493251,31.027908],[-107.493517,31.028057],[-107.493832,31.028096],[-107.494669,31.028449],[-107.495122,31.028567],[-107.495388,31.028715]]}},{"type":"Feature","properties":{"waterway":"stream"},"geometry":{"type":"LineString","coordinates":[[-107.582483,30.965401],[-107.581735,30.964857],[-107.5817,30.964723],[-107.581593,30.964626],[-107.581506,30.96451],[-107.581302,30.964307],[-107.581256,30.964172],[-107.581119,30.964121],[-107.581001,30.964024],[-107.580873,30.963946],[-107.580776,30.963839],[-107.580624,30.963608],[-107.58043,30.963395],[-107.580291,30.963317],[-107.580011,30.962998],[-107.580007,30.962863],[-107.579951,30.962728],[-107.579844,30.96264],[-107.579757,30.962525],[-107.57965,30.962419],[-107.579584,30.962303],[-107.579549,30.962168],[-107.579099,30.961789],[-107.579054,30.961664],[-107.578891,30.961433],[-107.578773,30.961336],[-107.578645,30.961266],[-107.578569,30.961151],[-107.578441,30.961063],[-107.578247,30.96085],[-107.578002,30.960684],[-107.577736,30.960536],[-107.577614,30.960286],[-107.577538,30.96017],[-107.57739,30.960119],[-107.577233,30.960113],[-107.577087,30.960125],[-107.576929,30.96011],[-107.576302,30.960123],[-107.576144,30.96009],[-107.575996,30.960039],[-107.575849,30.960014]]}},{"type":"Feature","properties":{"waterway":"stream"},"geometry":{"type":"LineString","coordinates":[[-107.585692,30.975348],[-107.585466,30.975533],[-107.585274,30.975753],[-107.585016,30.975912],[-107.584603,30.976101],[-107.584167,30.976245],[-107.58401,30.976257],[-107.58372,30.976362],[-107.58328,30.976749],[-107.583242,30.976876],[-107.582968,30.977207],[-107.582909,30.977334],[-107.582881,30.977461],[-107.582741,30.977707]]}},{"type":"Feature","properties":{"waterway":"stream"},"geometry":{"type":"LineString","coordinates":[[-107.569869,30.966095],[-107.569681,30.966108],[-107.569209,30.966081],[-107.569051,30.966048],[-107.568737,30.966037],[-107.568461,30.965925],[-107.568304,30.96591],[-107.567991,30.965925],[-107.567678,30.965976],[-107.567521,30.965979],[-107.567063,30.96607],[-107.566772,30.966166],[-107.566616,30.966178],[-107.566471,30.966226],[-107.565844,30.966292],[-107.565608,30.966468],[-107.565304,30.966438],[-107.56499,30.966436],[-107.564867,30.966528],[-107.564732,30.966585],[-107.564576,30.966615],[-107.564431,30.966672]]}},{"type":"Feature","properties":{"waterway":"stream"},"geometry":{"type":"LineString","coordinates":[[-107.504555,31.03492],[-107.50454,31.03504],[-107.50448,31.035159],[-107.504308,31.035387],[-107.504191,31.035502]]}},{"type":"Feature","properties":{"waterway":"stream"},"geometry":{"type":"LineString","coordinates":[[-107.584108,30.969806],[-107.583591,30.970412],[-107.583478,30.970495],[-107.58321,30.970645],[-107.582931,30.970777],[-107.582785,30.970816],[-107.582506,30.970939],[-107.582204,30.970999],[-107.582059,30.971065],[-107.581823,30.971241],[-107.581689,30.971307],[-107.581388,30.971376],[-107.580829,30.971631],[-107.580539,30.971745],[-107.580405,30.97181],[-107.580281,30.971894],[-107.580136,30.971942],[-107.57937,30.972625],[-107.578967,30.972831],[-107.578654,30.972865],[-107.57852,30.97293],[-107.578284,30.973115],[-107.57816,30.97319],[-107.577859,30.973286],[-107.577591,30.973418],[-107.577435,30.973457],[-107.577133,30.973517],[-107.57682,30.973551],[-107.576505,30.973539],[-107.576035,30.973566],[-107.575878,30.973551],[-107.575721,30.973563],[-107.575575,30.973602],[-107.575431,30.973668],[-107.575318,30.973752],[-107.575227,30.973862],[-107.575114,30.973963],[-107.574588,30.974253],[-107.574476,30.974355],[-107.574341,30.974421],[-107.573894,30.974529],[-107.573581,30.974562],[-107.573436,30.97461],[-107.573278,30.974595],[-107.572965,30.974601],[-107.572807,30.974578],[-107.570609,30.974576],[-107.570451,30.974561],[-107.570138,30.974586],[-107.569847,30.974664],[-107.56969,30.974667],[-107.569533,30.974652],[-107.569227,30.974568],[-107.568765,30.974505]]}},{"type":"Feature","properties":{"waterway":"stream"},"geometry":{"type":"LineString","coordinates":[[-107.597068,30.998461],[-107.597064,30.998326],[-107.596938,30.997931],[-107.596977,30.997804],[-107.597047,30.997686],[-107.59705,30.997415],[-107.597078,30.997279],[-107.597046,30.996874],[-107.596999,30.996823]]}},{"type":"Feature","properties":{"waterway":"stream"},"geometry":{"type":"LineString","coordinates":[[-107.505087,30.961073],[-107.505038,30.9612],[-107.504946,30.96131],[-107.504876,30.961437],[-107.504764,30.96153],[-107.504458,30.961842],[-107.504419,30.961969]]}},{"type":"Feature","properties":{"name":"Cañon el Salto","waterway":"stream"},"geometry":{"type":"LineString","coordinates":[[-107.581666,31.037623],[-107.581548,31.037526],[-107.5814,31.037475],[-107.581105,31.037409],[-107.580957,31.037349],[-107.580504,31.03725],[-107.580238,31.037102],[-107.5801,31.037041],[-107.579952,31.036999],[-107.579796,31.03702],[-107.57965,31.037068],[-107.579023,31.037117],[-107.578721,31.037177],[-107.578564,31.037189],[-107.578457,31.037092],[-107.578263,31.03687],[-107.578145,31.036783],[-107.577849,31.036698],[-107.577722,31.03662],[-107.577624,31.036514],[-107.577558,31.036389],[-107.577273,31.036277],[-107.577115,31.036253]]}},{"type":"Feature","properties":{"waterway":"stream"},"geometry":{"type":"LineString","coordinates":[[-107.549435,31.034395],[-107.549312,31.034479],[-107.549155,31.0345],[-107.54902,31.034566],[-107.54865,31.034817],[-107.548516,31.034891],[-107.548189,31.035186],[-107.548065,31.03527],[-107.547931,31.035327],[-107.547629,31.035405],[-107.547495,31.03548],[-107.547204,31.035567],[-107.546914,31.03569],[-107.546612,31.03575],[-107.546466,31.035807],[-107.546364,31.035899],[-107.546235,31.036145],[-107.546122,31.036246],[-107.545999,31.03633],[-107.545461,31.036602],[-107.545316,31.036659],[-107.544869,31.036785],[-107.544712,31.036779],[-107.544588,31.036863],[-107.54385,31.037076],[-107.543381,31.037139],[-107.543224,31.037142],[-107.542918,31.037085],[-107.542605,31.037109],[-107.542314,31.037205],[-107.542157,31.037218],[-107.541867,31.037331],[-107.541565,31.037382],[-107.541094,31.037401],[-107.540937,31.037422],[-107.54062,31.037717],[-107.540395,31.037902],[-107.540121,31.038241],[-107.5399,31.038597],[-107.53946,31.038984],[-107.539256,31.039187],[-107.539084,31.039416],[-107.538884,31.03978],[-107.538652,31.040128],[-107.538523,31.040383],[-107.538351,31.040602],[-107.538082,31.040734],[-107.537792,31.040848],[-107.53749,31.040926],[-107.537333,31.040929],[-107.53702,31.040971],[-107.536885,31.041028],[-107.536762,31.041112],[-107.536445,31.041415],[-107.536375,31.041534],[-107.536326,31.04167],[-107.536009,31.041965],[-107.535971,31.042101],[-107.535848,31.042185],[-107.535713,31.042242],[-107.5356,31.042334],[-107.535519,31.042453],[-107.535232,31.043081],[-107.535032,31.043446],[-107.534818,31.043648],[-107.534727,31.043758],[-107.534667,31.043886],[-107.534463,31.044088],[-107.534238,31.044282],[-107.534092,31.044321],[-107.533779,31.044354],[-107.533477,31.044441],[-107.533331,31.044462],[-107.533197,31.044546],[-107.533095,31.044647],[-107.533014,31.044766],[-107.532895,31.045012],[-107.532826,31.045545],[-107.532689,31.045936],[-107.532665,31.046207],[-107.532353,31.046673],[-107.53224,31.046774],[-107.5321,31.047012],[-107.532008,31.047122],[-107.531729,31.047253],[-107.531607,31.047368]]}},{"type":"Feature","properties":{"waterway":"stream"},"geometry":{"type":"LineString","coordinates":[[-107.504305,31.040483],[-107.504215,31.041017],[-107.504155,31.041145],[-107.504042,31.041246],[-107.503972,31.041365],[-107.503859,31.041457],[-107.503666,31.041677],[-107.503553,31.041761],[-107.503515,31.041897],[-107.503518,31.042032],[-107.503543,31.042167],[-107.503553,31.042572],[-107.503819,31.042711],[-107.504075,31.042878],[-107.504508,31.043032],[-107.504646,31.043101],[-107.504743,31.043208],[-107.504896,31.043439],[-107.504993,31.043554],[-107.505084,31.043805],[-107.505087,31.043941],[-107.505174,31.044056],[-107.505302,31.044144],[-107.505358,31.044269],[-107.505382,31.044404],[-107.505427,31.044529],[-107.505494,31.044654],[-107.505718,31.044839],[-107.506102,31.045075],[-107.506535,31.045229],[-107.506831,31.045314],[-107.506948,31.045411],[-107.507035,31.045526],[-107.50724,31.04573],[-107.507295,31.045855],[-107.50733,31.045989],[-107.507437,31.046077],[-107.507524,31.046193],[-107.507656,31.046434],[-107.507757,31.046694],[-107.507823,31.046819],[-107.508334,31.047124],[-107.508452,31.047221],[-107.508539,31.047337],[-107.508584,31.047462],[-107.508702,31.047559],[-107.508829,31.047629],[-107.508885,31.047754],[-107.509028,31.047995],[-107.509108,31.048264],[-107.509261,31.048495],[-107.509388,31.048574],[-107.509547,31.048616],[-107.509664,31.048695],[-107.509741,31.04882],[-107.509821,31.04908],[-107.50987,31.049349],[-107.509956,31.049456],[-107.510171,31.049659],[-107.510299,31.049729],[-107.510544,31.049904],[-107.510624,31.050164],[-107.510607,31.0503],[-107.510537,31.050428],[-107.510572,31.050553],[-107.510679,31.050659],[-107.510797,31.050738],[-107.510955,31.05078],[-107.511052,31.050887],[-107.510858,31.051098],[-107.510633,31.051292],[-107.510461,31.051511],[-107.510433,31.051647],[-107.510426,31.051783],[-107.51044,31.051917],[-107.510485,31.052052],[-107.510572,31.052159],[-107.510828,31.052316],[-107.510935,31.052422],[-107.511688,31.052768]]}},{"type":"Feature","properties":{"waterway":"stream"},"geometry":{"type":"LineString","coordinates":[[-107.531607,31.047368],[-107.531073,31.047393],[-107.530567,31.047691],[-107.526487,31.048258],[-107.524617,31.04926],[-107.524318,31.049437],[-107.523344,31.049853],[-107.523098,31.050047],[-107.52061,31.050655],[-107.519463,31.050858],[-107.518574,31.05092],[-107.51811,31.050794],[-107.517332,31.051476]]}},{"type":"Feature","properties":{"waterway":"stream"},"geometry":{"type":"LineString","coordinates":[[-107.592864,30.983556],[-107.593121,30.983397],[-107.593438,30.983103],[-107.593697,30.98261],[-107.593922,30.982425],[-107.594052,30.982179],[-107.594164,30.982087],[-107.594545,30.981845],[-107.594658,30.981752],[-107.594738,30.981633],[-107.594797,30.981506],[-107.594899,30.981405],[-107.594959,30.981277],[-107.594976,30.981142],[-107.595063,30.980887],[-107.595067,30.980617],[-107.595132,30.980345],[-107.5953,30.979972],[-107.595461,30.979734],[-107.595697,30.979558],[-107.595788,30.979448],[-107.596158,30.979188],[-107.596438,30.979074],[-107.596953,30.978766],[-107.5974,30.978649],[-107.597508,30.978394],[-107.597642,30.978319],[-107.597957,30.978349],[-107.598059,30.978239],[-107.598045,30.978104],[-107.598115,30.977985],[-107.598249,30.977919],[-107.59834,30.9778],[-107.598452,30.977708],[-107.598593,30.97747],[-107.598659,30.977207],[-107.598655,30.977072],[-107.598609,30.976938],[-107.598522,30.976813]]}},{"type":"Feature","properties":{"waterway":"stream"},"geometry":{"type":"LineString","coordinates":[[-107.521811,31.056838],[-107.520655,31.056841],[-107.519972,31.056788],[-107.518957,31.056788],[-107.518134,31.056753],[-107.517259,31.056613],[-107.516489,31.056648],[-107.515772,31.056648],[-107.514004,31.056771]]}},{"type":"Feature","properties":{"waterway":"stream"},"geometry":{"type":"LineString","coordinates":[[-107.508707,30.967821],[-107.507881,30.968279],[-107.507736,30.968327],[-107.507086,30.9687],[-107.506593,30.969043],[-107.506142,30.969413],[-107.506008,30.969479],[-107.505771,30.969655],[-107.505626,30.969712],[-107.505168,30.969802],[-107.504867,30.969898],[-107.504554,30.969913],[-107.50443,30.969978],[-107.504049,30.970229],[-107.503823,30.970405],[-107.503678,30.970471],[-107.503587,30.970581],[-107.503436,30.970818],[-107.50313,30.971131],[-107.502782,30.971399],[-107.502346,30.971543],[-107.501888,30.97166],[-107.501475,30.971857],[-107.501351,30.971932],[-107.501206,30.971989],[-107.500959,30.972156],[-107.500825,30.972222],[-107.500589,30.972407],[-107.500487,30.972508],[-107.500378,30.972763],[-107.500287,30.972864],[-107.500217,30.972991],[-107.500059,30.973373],[-107.499978,30.973483],[-107.499866,30.973584],[-107.499725,30.973821],[-107.49968,30.974093],[-107.499603,30.974347],[-107.499522,30.974466],[-107.499023,30.974989],[-107.498942,30.975099],[-107.498739,30.975311],[-107.498405,30.975759]]}},{"type":"Feature","properties":{"waterway":"stream"},"geometry":{"type":"LineString","coordinates":[[-107.511688,31.052768],[-107.512192,31.053633],[-107.512568,31.054384],[-107.514004,31.056771]]}},{"type":"Feature","properties":{"waterway":"stream"},"geometry":{"type":"LineString","coordinates":[[-107.590134,30.987877],[-107.589636,30.988067],[-107.589175,30.988428],[-107.589056,30.988683],[-107.588916,30.98892],[-107.588878,30.989056]]}},{"type":"Feature","properties":{"waterway":"stream"},"geometry":{"type":"LineString","coordinates":[[-107.561138,31.025153],[-107.560824,31.025178],[-107.5606,31.025002],[-107.560324,31.024872],[-107.560176,31.024821],[-107.560019,31.024833],[-107.559874,31.024872],[-107.559767,31.024811],[-107.559463,31.024772],[-107.559009,31.024655],[-107.558538,31.024646],[-107.558393,31.024703],[-107.558291,31.024804],[-107.558167,31.024879],[-107.558011,31.024927],[-107.557736,31.024815],[-107.557591,31.024872],[-107.557457,31.024947],[-107.557311,31.024995],[-107.557174,31.024943],[-107.557149,31.024809],[-107.557083,31.024684],[-107.556798,31.02459],[-107.55664,31.024575],[-107.556483,31.024587],[-107.556327,31.024627],[-107.55617,31.024621],[-107.556057,31.024704],[-107.5559,31.024698],[-107.555394,31.024591],[-107.55508,31.024597],[-107.554943,31.024555],[-107.554657,31.024434],[-107.554509,31.024392],[-107.553948,31.024141],[-107.553871,31.024026],[-107.553743,31.023947],[-107.553458,31.023836],[-107.55333,31.023757],[-107.553024,31.023682],[-107.552867,31.023685],[-107.55271,31.023661],[-107.552414,31.023586],[-107.552276,31.023516],[-107.552119,31.023519],[-107.55184,31.023651],[-107.551727,31.023743],[-107.55157,31.023756]]}},{"type":"Feature","properties":{"waterway":"stream"},"geometry":{"type":"LineString","coordinates":[[-107.576312,30.951536],[-107.576047,30.951397],[-107.575981,30.951272],[-107.575935,30.951138],[-107.575848,30.951032],[-107.575543,30.950975],[-107.575416,30.950887],[-107.575268,30.950854],[-107.574953,30.950824],[-107.574836,30.950736],[-107.574739,30.95063],[-107.574611,30.950551],[-107.574473,30.950491],[-107.574168,30.950416],[-107.574051,30.950328]]}},{"type":"Feature","properties":{"waterway":"stream"},"geometry":{"type":"LineString","coordinates":[[-107.581423,30.990955],[-107.581219,30.990752],[-107.581091,30.990673],[-107.580943,30.99064],[-107.58063,30.990665],[-107.580472,30.99065],[-107.580316,30.990671],[-107.58002,30.990568],[-107.579725,30.990493],[-107.579568,30.990478],[-107.579422,30.990526],[-107.579288,30.990601],[-107.579074,30.990795],[-107.578773,30.990891],[-107.578627,30.990921],[-107.578469,30.990897],[-107.578306,30.990666],[-107.57825,30.990541],[-107.578247,30.990406],[-107.578139,30.990308],[-107.577982,30.990293],[-107.577196,30.990273],[-107.576726,30.990328],[-107.57657,30.990358],[-107.576313,30.990507],[-107.576011,30.990585],[-107.575709,30.990637],[-107.575552,30.990649],[-107.575238,30.990637],[-107.574952,30.990525]]}},{"type":"Feature","properties":{"waterway":"stream"},"geometry":{"type":"LineString","coordinates":[[-107.592654,30.993571],[-107.592508,30.99361],[-107.592351,30.993595]]}},{"type":"Feature","properties":{"waterway":"stream"},"geometry":{"type":"LineString","coordinates":[[-107.596539,30.95344],[-107.596421,30.953343],[-107.596345,30.953228],[-107.59631,30.953093],[-107.596118,30.952583],[-107.595965,30.952342],[-107.595808,30.951958],[-107.595714,30.951563],[-107.595672,30.951158],[-107.595664,30.950887],[-107.595671,30.950752],[-107.595741,30.950633],[-107.595769,30.950498],[-107.595776,30.950362],[-107.595709,30.950237],[-107.595505,30.950034],[-107.595429,30.949918],[-107.595383,30.949784],[-107.59522,30.949552],[-107.595088,30.949312],[-107.59495,30.949242],[-107.594725,30.949048]]}},{"type":"Feature","properties":{"waterway":"stream"},"geometry":{"type":"LineString","coordinates":[[-107.563506,30.985324],[-107.562749,30.985204],[-107.562435,30.985192],[-107.562277,30.985168],[-107.561806,30.985168],[-107.561334,30.985132],[-107.561021,30.985157],[-107.560864,30.985151],[-107.560416,30.985241],[-107.560271,30.985307],[-107.560035,30.985483],[-107.559901,30.985549],[-107.559665,30.985716],[-107.559207,30.985824],[-107.55905,30.985845],[-107.558916,30.98592],[-107.558769,30.985896],[-107.558631,30.985826],[-107.558524,30.98572],[-107.558386,30.985678],[-107.558071,30.985639],[-107.5576,30.985639],[-107.557443,30.985624],[-107.557295,30.985591],[-107.557,30.985489],[-107.556529,30.985498],[-107.556371,30.985483],[-107.556234,30.985423],[-107.556126,30.985326],[-107.555831,30.985232],[-107.555703,30.985154],[-107.555566,30.985111],[-107.555131,30.984904],[-107.554973,30.984871],[-107.554856,30.984801],[-107.554823,30.984756],[-107.554718,30.984731],[-107.554496,30.984628],[-107.554295,30.984568],[-107.554004,30.98425],[-107.553886,30.984162],[-107.553729,30.984138],[-107.553519,30.984133],[-107.553214,30.984076],[-107.552981,30.983972],[-107.552781,30.983913],[-107.552643,30.983853],[-107.551928,30.983749],[-107.551853,30.983688],[-107.5516,30.983621],[-107.551496,30.983614],[-107.551305,30.983554],[-107.551073,30.98346],[-107.550988,30.983407],[-107.550545,30.98329],[-107.550407,30.98322],[-107.550111,30.983127],[-107.549952,30.983031],[-107.549613,30.982902],[-107.549273,30.982702]]}},{"type":"Feature","properties":{"waterway":"stream"},"geometry":{"type":"LineString","coordinates":[[-107.587417,30.950449],[-107.587269,30.950398],[-107.587014,30.95024],[-107.58701,30.950105],[-107.586985,30.94997],[-107.586878,30.949864],[-107.586761,30.949785],[-107.586362,30.94936],[-107.586296,30.949236],[-107.586272,30.94911],[-107.586216,30.948975],[-107.586223,30.94884],[-107.586095,30.948761],[-107.585792,30.948786],[-107.585487,30.948711],[-107.585329,30.948696],[-107.585212,30.948617],[-107.585064,30.948557],[-107.584759,30.948509],[-107.584304,30.948328]]}},{"type":"Feature","properties":{"waterway":"stream"},"geometry":{"type":"LineString","coordinates":[[-107.520426,30.964905],[-107.520124,30.96538],[-107.519829,30.965692],[-107.519437,30.965925],[-107.519302,30.965973],[-107.519179,30.966057],[-107.519034,30.966123],[-107.51882,30.966325],[-107.51876,30.966444],[-107.518712,30.966986],[-107.518708,30.967256],[-107.518614,30.967655],[-107.518544,30.967774],[-107.518558,30.968315],[-107.518478,30.968848],[-107.518475,30.969119],[-107.518377,30.969788],[-107.518374,30.970059],[-107.518346,30.970195],[-107.518339,30.97033],[-107.518255,30.970729],[-107.518147,30.970983],[-107.518066,30.971102],[-107.517964,30.971203],[-107.517743,30.971559],[-107.517695,30.972101],[-107.517698,30.972237],[-107.517653,30.972508],[-107.517527,30.972898],[-107.517552,30.973033],[-107.517673,30.973283],[-107.517801,30.973353]]}},{"type":"Feature","properties":{"waterway":"stream"},"geometry":{"type":"LineString","coordinates":[[-107.509978,30.984382],[-107.509999,30.985194],[-107.509918,30.985312],[-107.509901,30.985448],[-107.509841,30.985567],[-107.50975,30.985686],[-107.509764,30.986227],[-107.509792,30.986497],[-107.509837,30.986622],[-107.509844,30.986892],[-107.509831,30.987163],[-107.509792,30.98729],[-107.509795,30.987425]]}},{"type":"Feature","properties":{"waterway":"stream"},"geometry":{"type":"LineString","coordinates":[[-107.586815,31.040568],[-107.586657,31.040535],[-107.58654,31.040448],[-107.586442,31.040341],[-107.586408,31.040216],[-107.58631,31.040109],[-107.586152,31.040067],[-107.58585,31.040137],[-107.585535,31.040116],[-107.58526,31.039995],[-107.584907,31.039732],[-107.584759,31.03969],[-107.584444,31.039633],[-107.584178,31.039503],[-107.584071,31.039397],[-107.583897,31.039175],[-107.583759,31.039105]]}},{"type":"Feature","properties":{"waterway":"stream"},"geometry":{"type":"LineString","coordinates":[[-107.521411,30.972128],[-107.520625,30.972486],[-107.520335,30.972582],[-107.520211,30.972675],[-107.519921,30.97278],[-107.519362,30.973025],[-107.519271,30.973135],[-107.519024,30.973293],[-107.518879,30.97335],[-107.518798,30.97346],[-107.518664,30.973535],[-107.518471,30.973746],[-107.51818,30.973851],[-107.518024,30.973872],[-107.517653,30.974114],[-107.517506,30.974071]]}},{"type":"Feature","properties":{"waterway":"stream"},"geometry":{"type":"LineString","coordinates":[[-107.592609,31.025941],[-107.59256,31.02568],[-107.592567,31.025545],[-107.592594,31.025409],[-107.592762,31.025027],[-107.592902,31.024789],[-107.593278,31.024358],[-107.593348,31.02423],[-107.593414,31.023967],[-107.593495,31.023849],[-107.593618,31.023765],[-107.593752,31.023699],[-107.593844,31.023598],[-107.593973,31.023343],[-107.594124,31.023114],[-107.594222,31.022851],[-107.594292,31.022732],[-107.594442,31.022495],[-107.594636,31.022283],[-107.594695,31.022156],[-107.594723,31.02202],[-107.594719,31.021885],[-107.594785,31.021622],[-107.594792,31.021487],[-107.594788,31.021351],[-107.594718,31.021091],[-107.594607,31.020841],[-107.594398,31.020475],[-107.594322,31.02036],[-107.594086,31.020175],[-107.593774,31.019875],[-107.593698,31.019759],[-107.593576,31.019509],[-107.593499,31.019393],[-107.593301,31.019018],[-107.593224,31.018903],[-107.593103,31.018653],[-107.593067,31.018518],[-107.593071,31.018247],[-107.592934,31.017862],[-107.59292,31.017727],[-107.592923,31.017457],[-107.592962,31.01733],[-107.593042,31.017211],[-107.593177,31.017145],[-107.593289,31.017052],[-107.593493,31.016841],[-107.593746,31.016502],[-107.593805,31.016375],[-107.593988,31.016173],[-107.594235,31.016005],[-107.594369,31.01593],[-107.594682,31.01587],[-107.595301,31.01593],[-107.595512,31.015971]]}},{"type":"Feature","properties":{"waterway":"stream"},"geometry":{"type":"LineString","coordinates":[[-107.591605,30.984609],[-107.591271,30.984634],[-107.591125,30.984682],[-107.590991,30.984748],[-107.590835,30.984787],[-107.590556,30.984919],[-107.5904,30.98494],[-107.590254,30.984988],[-107.589561,30.985291],[-107.589143,30.985696],[-107.589052,30.985806],[-107.588982,30.985934],[-107.58888,30.986035],[-107.588852,30.986171],[-107.588733,30.986417]]}},{"type":"Feature","properties":{"waterway":"stream"},"geometry":{"type":"LineString","coordinates":[[-107.590895,30.992822],[-107.590314,30.992608]]}},{"type":"Feature","properties":{"waterway":"stream"},"geometry":{"type":"LineString","coordinates":[[-107.510848,30.968077],[-107.51021,30.968486],[-107.510006,30.968698],[-107.509781,30.968873],[-107.509679,30.968984],[-107.509566,30.969076],[-107.509142,30.969255],[-107.509008,30.96933],[-107.508782,30.969506],[-107.50868,30.969616],[-107.508444,30.969783],[-107.508283,30.970021],[-107.508174,30.970275],[-107.508125,30.970403],[-107.50808,30.970674],[-107.50802,30.970793]]}},{"type":"Feature","properties":{"waterway":"stream"},"geometry":{"type":"LineString","coordinates":[[-107.599379,31.063503],[-107.599245,31.063569],[-107.599143,31.063679],[-107.598998,31.063736],[-107.598685,31.063779],[-107.598282,31.063976],[-107.598124,31.063943],[-107.59772,31.063735],[-107.597562,31.06372],[-107.597417,31.063777],[-107.597283,31.063843],[-107.597181,31.063944],[-107.597132,31.064071],[-107.597104,31.064207],[-107.597045,31.064335],[-107.596954,31.064445],[-107.596894,31.064563],[-107.596866,31.064699],[-107.596796,31.064818],[-107.596549,31.064985],[-107.596078,31.064994],[-107.595933,31.065051],[-107.595761,31.06528],[-107.595637,31.065364],[-107.595492,31.065403],[-107.595334,31.065388],[-107.595028,31.065313],[-107.594714,31.065302],[-107.594419,31.065235],[-107.594291,31.065157],[-107.594173,31.06506],[-107.593918,31.064912],[-107.593759,31.064879],[-107.593445,31.064885],[-107.59307,31.064956]]}},{"type":"Feature","properties":{"waterway":"stream"},"geometry":{"type":"LineString","coordinates":[[-107.554122,30.97806],[-107.554118,30.977925],[-107.553992,30.977531],[-107.553974,30.976855],[-107.553905,30.976594],[-107.553717,30.976219],[-107.55356,30.975835]]}},{"type":"Feature","properties":{"waterway":"stream"},"geometry":{"type":"LineString","coordinates":[[-107.569541,30.952312],[-107.569385,30.952351],[-107.569071,30.952339],[-107.568923,30.952297],[-107.568766,30.952282],[-107.56849,30.952143],[-107.568343,30.95211]]}},{"type":"Feature","properties":{"waterway":"stream"},"geometry":{"type":"LineString","coordinates":[[-107.581815,31.002005],[-107.58167,31.002062],[-107.581289,31.002295],[-107.581144,31.002352],[-107.58083,31.002358],[-107.580528,31.002427],[-107.580394,31.002502],[-107.580238,31.002532],[-107.580115,31.002625],[-107.579969,31.002646],[-107.579824,31.002703],[-107.579689,31.002769],[-107.579566,31.002852],[-107.57941,31.002882],[-107.579096,31.002889],[-107.577847,31.002805],[-107.577691,31.002827],[-107.57722,31.002836],[-107.576944,31.002706],[-107.576501,31.00258],[-107.576344,31.002565],[-107.57603,31.002571],[-107.575872,31.002547],[-107.575754,31.00245],[-107.575341,31.00226],[-107.575116,31.002075],[-107.574953,31.001844],[-107.574835,31.001756],[-107.574682,31.001525],[-107.574554,31.001437],[-107.574417,31.001386],[-107.573944,31.001323],[-107.573798,31.001344],[-107.573483,31.001305],[-107.572911,31.001073],[-107.572754,31.001058],[-107.572463,31.001163],[-107.572317,31.001166],[-107.572159,31.001142],[-107.571776,31.000906],[-107.571461,31.000858],[-107.571147,31.000865],[-107.570722,31.001027],[-107.570565,31.00103],[-107.570417,31.000978],[-107.570259,31.000955],[-107.570102,31.000967],[-107.569957,31.001024],[-107.569662,31.000948],[-107.569349,31.000982],[-107.569293,31.000857],[-107.569176,31.00076],[-107.56887,31.000694],[-107.568556,31.000682],[-107.568399,31.000685],[-107.568253,31.000724],[-107.567818,31.000895],[-107.567527,31.000982],[-107.567124,31.001188],[-107.566776,31.001466],[-107.566228,31.001729],[-107.566105,31.001813],[-107.56597,31.001879],[-107.565814,31.001909]]}},{"type":"Feature","properties":{"waterway":"stream"},"geometry":{"type":"LineString","coordinates":[[-107.522199,30.957917],[-107.521256,30.957872],[-107.519373,30.957909],[-107.519217,30.957939],[-107.519072,30.957987],[-107.518938,30.958061],[-107.518491,30.958187],[-107.518067,30.958367],[-107.517933,30.958442],[-107.517642,30.958529],[-107.517529,30.95863],[-107.517384,30.958678],[-107.517137,30.958845],[-107.516912,30.959039],[-107.516644,30.95917],[-107.516041,30.959345],[-107.515884,30.959357],[-107.515739,30.959405],[-107.515582,30.959417],[-107.515448,30.959473],[-107.515146,30.959551],[-107.514555,30.959743],[-107.514398,30.959755],[-107.514253,30.959803],[-107.513626,30.959824],[-107.51348,30.959872],[-107.513323,30.959848],[-107.513043,30.959962],[-107.512586,30.960088],[-107.512283,30.960103],[-107.512137,30.960151],[-107.51151,30.960163],[-107.511362,30.960103],[-107.511214,30.96007],[-107.511138,30.959954],[-107.511027,30.959695]]}}],"attribution":"© OpenStreetMap contributors"}
